{"type":"FeatureCollection","name":"nakatia_osm","retrieved":"2026-09-27","source":"OpenStreetMap via Overpass API (name=Nakatia Nadi; geometry traced from Bing imagery, name from AMS 1955 topo sheets)","attribution":"(c) OpenStreetMap contributors, ODbL 1.0","features":[{"type":"Feature","properties":{"osm_way":355365315,"waterway":"river","name":"Nakatia Nadi","intermittent":"no","embankment":"no"},"geometry":{"type":"LineString","coordinates":[[79.520404,28.492126],[79.519954,28.491607],[79.519857,28.491287],[79.519653,28.491098],[79.518988,28.490947],[79.518398,28.489552],[79.518398,28.489335],[79.518237,28.489174],[79.517894,28.489269],[79.517293,28.489514],[79.516242,28.489721],[79.515394,28.490033],[79.514675,28.490608],[79.514557,28.490476],[79.514375,28.490278],[79.514439,28.489806],[79.514149,28.489665],[79.513624,28.489636],[79.513377,28.489353],[79.513334,28.489118],[79.513495,28.488637],[79.51343,28.488477],[79.513527,28.488203],[79.513806,28.487986],[79.514149,28.487949],[79.514332,28.488109],[79.514643,28.488307],[79.514943,28.488137],[79.514922,28.487703],[79.514825,28.487138],[79.514651,28.486855],[79.51471,28.486619],[79.514839,28.486411],[79.514844,28.486223],[79.514619,28.486162],[79.514324,28.486138],[79.514034,28.486218],[79.513782,28.486341],[79.513557,28.48635],[79.513583,28.486496],[79.51361,28.48661],[79.51353,28.486737],[79.513278,28.486798],[79.513042,28.486699],[79.512956,28.486624],[79.512999,28.486416],[79.512956,28.486185],[79.512736,28.486166],[79.512586,28.486237],[79.512586,28.486416],[79.512575,28.486685],[79.512639,28.486878],[79.512811,28.486906],[79.512902,28.486949],[79.512881,28.487072],[79.512677,28.487199],[79.512435,28.48726],[79.512178,28.487265],[79.511969,28.486968],[79.511824,28.486685],[79.511609,28.486463],[79.511298,28.486312],[79.511271,28.48619],[79.511443,28.48602],[79.511561,28.485926],[79.511604,28.485633],[79.511448,28.485256],[79.511271,28.484846],[79.511303,28.484629],[79.5114,28.484483],[79.511379,28.484365],[79.511266,28.48436],[79.511164,28.484464],[79.511062,28.484464],[79.510821,28.484422],[79.510499,28.484243],[79.510236,28.484186],[79.51007,28.484153],[79.51,28.484068],[79.510102,28.483799],[79.509984,28.483507],[79.509823,28.483318],[79.509646,28.483012],[79.509651,28.482757],[79.509764,28.48263],[79.509796,28.482484],[79.509732,28.482333],[79.509689,28.482187],[79.509796,28.482059],[79.509941,28.482045],[79.51015,28.482163],[79.510472,28.482281],[79.510606,28.482253],[79.510756,28.482144],[79.510826,28.481998],[79.510799,28.481795],[79.510574,28.481654],[79.510268,28.481597],[79.510182,28.481418],[79.510091,28.481131],[79.509893,28.481098],[79.509303,28.481182],[79.509099,28.481116],[79.509083,28.481017],[79.50919,28.480683],[79.509061,28.480518],[79.508713,28.48032],[79.508444,28.480121],[79.508246,28.479909],[79.508063,28.479721],[79.507806,28.479655],[79.507554,28.479659],[79.507296,28.479716],[79.506996,28.479674],[79.50684,28.479513],[79.50661,28.479235],[79.506411,28.479046],[79.506245,28.479117],[79.506218,28.479277],[79.506272,28.479466],[79.506272,28.479546],[79.506154,28.479655],[79.505987,28.479608],[79.50573,28.479377],[79.505617,28.478962],[79.505365,28.478533],[79.505065,28.47799],[79.50492,28.477698],[79.505022,28.477457],[79.505194,28.477241],[79.50543,28.477151],[79.50573,28.477212],[79.506245,28.477358],[79.506647,28.477396],[79.507023,28.477405],[79.507264,28.477363],[79.507404,28.477292],[79.507457,28.477156],[79.507468,28.476901],[79.507457,28.476717],[79.507361,28.47633],[79.507473,28.476047],[79.507709,28.475821],[79.507983,28.475628],[79.50787,28.47542],[79.507618,28.475194],[79.507345,28.474977],[79.506942,28.474732],[79.506685,28.474572],[79.506508,28.474633],[79.506336,28.474864],[79.506218,28.475156],[79.506014,28.475387],[79.505719,28.475703],[79.505279,28.476066],[79.505027,28.476283],[79.504695,28.476448],[79.50455,28.476396],[79.50434,28.476246],[79.504201,28.476076],[79.504239,28.475746],[79.50418,28.475378],[79.504265,28.475015],[79.50448,28.474652],[79.504636,28.474373],[79.504872,28.473723],[79.50521,28.472798],[79.505328,28.472421],[79.505483,28.472341],[79.505805,28.472167],[79.505896,28.472011],[79.505859,28.471912],[79.505623,28.471714],[79.505515,28.471469],[79.505467,28.471304],[79.505204,28.471148],[79.505075,28.470912],[79.505092,28.470582],[79.505188,28.46996],[79.505322,28.469446],[79.505258,28.469144],[79.505086,28.46887],[79.504931,28.468658],[79.504603,28.468517],[79.504383,28.468418],[79.504142,28.468399],[79.503863,28.468498],[79.503584,28.468323],[79.5033,28.468173],[79.502849,28.468187],[79.502358,28.468272],[79.502055,28.46821],[79.501594,28.468139],[79.501106,28.468333],[79.500687,28.468474],[79.500366,28.468441],[79.499829,28.468224],[79.499518,28.468111],[79.498901,28.467927],[79.498316,28.467758],[79.497823,28.467564],[79.497651,28.467305],[79.49764,28.467196],[79.497388,28.46672],[79.496916,28.4663],[79.496535,28.466008],[79.496455,28.465933],[79.496525,28.465744],[79.496621,28.465437],[79.49661,28.465093],[79.496702,28.464871],[79.496648,28.464617],[79.496653,28.464103],[79.496492,28.463806],[79.496256,28.463598],[79.496036,28.463301],[79.495886,28.463042],[79.495645,28.462744],[79.495419,28.462754],[79.495269,28.4629],[79.495237,28.463037],[79.495092,28.463324],[79.494894,28.463438],[79.494636,28.463466],[79.494411,28.463386],[79.494357,28.463358],[79.494078,28.463075],[79.493891,28.46307],[79.493762,28.463183],[79.493724,28.463508],[79.493397,28.463806],[79.493183,28.464013],[79.493022,28.464296],[79.492791,28.46464],[79.492517,28.464824],[79.492206,28.464848],[79.491777,28.464744],[79.491123,28.464805],[79.490892,28.464895],[79.490533,28.464758],[79.490119,28.464697],[79.489857,28.464834],[79.489497,28.465107],[79.489288,28.465164],[79.488972,28.46497],[79.488692,28.464768],[79.488489,28.464527],[79.488349,28.464244],[79.48807,28.463862],[79.487662,28.463447],[79.487528,28.463221],[79.487528,28.462928],[79.487502,28.462542],[79.487746,28.462339],[79.487939,28.462249],[79.488287,28.462329],[79.488733,28.462358],[79.488985,28.462207],[79.489264,28.461735],[79.489564,28.461509],[79.490026,28.461377],[79.490557,28.461268],[79.490975,28.461184],[79.491565,28.461132],[79.491898,28.461023],[79.492069,28.460877],[79.492037,28.460698],[79.491978,28.460589],[79.491812,28.460471],[79.491394,28.460335],[79.4912,28.460254],[79.490975,28.46],[79.490857,28.459825],[79.490766,28.459703],[79.49046,28.459571],[79.490315,28.459349],[79.490208,28.459212],[79.490058,28.459066],[79.489478,28.458712],[79.489264,28.458462],[79.489017,28.45825],[79.488534,28.457977],[79.487864,28.457411],[79.487435,28.456996],[79.487081,28.456675],[79.486753,28.456359],[79.486549,28.455953],[79.48656,28.455656],[79.486721,28.455463],[79.486989,28.455397],[79.487204,28.455609],[79.487456,28.455618],[79.487697,28.455647],[79.488062,28.455519],[79.488202,28.455331],[79.488245,28.455133],[79.48825,28.454897],[79.488304,28.454736],[79.488749,28.454104],[79.488904,28.453779],[79.488851,28.453548],[79.48869,28.453378],[79.48855,28.453039],[79.488384,28.45285],[79.488202,28.452675],[79.488068,28.452468],[79.488084,28.45227],[79.48825,28.452175],[79.488475,28.452138],[79.488792,28.452138],[79.489114,28.452279],[79.489586,28.452491],[79.489752,28.452515],[79.489977,28.452359],[79.490117,28.452161],[79.490262,28.451906],[79.490331,28.45176],[79.490439,28.451534],[79.49046,28.451355],[79.490809,28.451142],[79.491045,28.451029],[79.491082,28.450902],[79.490996,28.450827],[79.490664,28.450595],[79.490444,28.45044],[79.490364,28.450209],[79.490439,28.450086],[79.491002,28.4501],[79.491329,28.450043],[79.49156,28.449973],[79.49164,28.449831],[79.49164,28.449624],[79.491394,28.449449],[79.49119,28.449435],[79.49075,28.449284],[79.490321,28.449223],[79.489645,28.449129],[79.489092,28.448916],[79.489006,28.448718],[79.489199,28.448539],[79.489666,28.448374],[79.48994,28.448246],[79.489993,28.448124],[79.489967,28.44794],[79.490122,28.447506],[79.490304,28.447162],[79.490347,28.446789],[79.490235,28.446473],[79.489988,28.446157],[79.489908,28.445931],[79.489736,28.445718],[79.489468,28.445742],[79.489312,28.446138],[79.489323,28.446464],[79.489323,28.447006],[79.489012,28.447294],[79.48876,28.447445],[79.488529,28.447501],[79.488304,28.447473],[79.48803,28.447364],[79.487681,28.44736],[79.48737,28.447398],[79.487236,28.447341],[79.487097,28.447086],[79.487027,28.446699],[79.487,28.44611],[79.486973,28.445883],[79.486807,28.445615],[79.486727,28.44544],[79.486565,28.445261],[79.48648,28.44494],[79.486544,28.444407],[79.486651,28.444303],[79.486984,28.44427],[79.487236,28.444332],[79.487365,28.44428],[79.487375,28.444101],[79.487381,28.443836],[79.487193,28.44361],[79.48693,28.443412],[79.486635,28.443327],[79.48626,28.443407],[79.486051,28.443336],[79.485611,28.443115],[79.484693,28.442751],[79.483637,28.44244],[79.483191,28.442341],[79.482875,28.442171],[79.482676,28.441997],[79.482424,28.441681],[79.482236,28.441152],[79.482118,28.440525],[79.482204,28.440218],[79.482526,28.440049],[79.482692,28.440317],[79.482987,28.440685],[79.483277,28.440709],[79.483964,28.440596],[79.484116,28.440443],[79.484157,28.440251],[79.484082,28.440049],[79.483991,28.439695],[79.483846,28.439454],[79.483722,28.439454],[79.483577,28.4397],[79.483352,28.43985],[79.483095,28.439808],[79.482961,28.439511],[79.482757,28.438997],[79.482751,28.438836],[79.483154,28.438671],[79.483674,28.438534],[79.484055,28.438237],[79.484141,28.437879],[79.484044,28.437619],[79.48391,28.437417],[79.483594,28.437204],[79.483331,28.437134],[79.483122,28.437256],[79.482891,28.437695],[79.482767,28.437874],[79.482489,28.437869],[79.482156,28.437775],[79.481789,28.437511],[79.481396,28.437177],[79.481182,28.436801],[79.481,28.436276],[79.481156,28.436019],[79.481734,28.435705],[79.482233,28.43562],[79.482901,28.435682],[79.48333,28.435982],[79.483693,28.436025],[79.484709,28.435066],[79.485095,28.434658],[79.485724,28.434067],[79.486668,28.433237],[79.487006,28.432555],[79.487119,28.432281],[79.486973,28.431916],[79.486743,28.431448],[79.486185,28.431214],[79.485666,28.430958],[79.485056,28.430492],[79.484881,28.430116],[79.48492,28.429936],[79.485179,28.429659],[79.485422,28.429508],[79.48564,28.429246],[79.485659,28.428812],[79.485079,28.42835],[79.484848,28.428187],[79.484417,28.427494],[79.48418,28.427191],[79.483878,28.426991],[79.483722,28.427034],[79.48344,28.427086],[79.483359,28.427117],[79.48322,28.427362],[79.482989,28.427927],[79.482489,28.427531],[79.48211,28.427397],[79.481344,28.42716],[79.48078,28.427114],[79.480316,28.427017],[79.479715,28.42676],[79.47932,28.426172],[79.479092,28.426116],[79.478667,28.426056],[79.478431,28.426018],[79.478281,28.426235],[79.478181,28.426478],[79.47735,28.426977],[79.476893,28.42702],[79.476773,28.426972],[79.476682,28.426695],[79.47664,28.426367],[79.476701,28.42605],[79.47686,28.425773],[79.477237,28.425511],[79.477804,28.424532],[79.477889,28.424212],[79.477785,28.42391],[79.477538,28.423813],[79.477425,28.423724],[79.477327,28.423168],[79.47735,28.422925],[79.476915,28.422523],[79.476562,28.422472],[79.475861,28.422463],[79.475322,28.422349],[79.474615,28.422052],[79.474073,28.421861],[79.473281,28.42153],[79.472048,28.420814],[79.471549,28.420411],[79.471396,28.420149],[79.471387,28.419915],[79.47151,28.419789],[79.471653,28.419504],[79.471649,28.418993],[79.471701,28.418094],[79.471831,28.417292],[79.471964,28.416825],[79.472428,28.415966],[79.472863,28.415289],[79.473165,28.414319],[79.473255,28.414131],[79.473457,28.413988],[79.473648,28.413763],[79.473359,28.413526],[79.472938,28.413123],[79.472753,28.412895],[79.472483,28.412978],[79.472207,28.413015],[79.472298,28.412678],[79.473057,28.412364],[79.47334,28.411905],[79.473356,28.411848],[79.473677,28.41136],[79.473577,28.411055],[79.473135,28.410324],[79.472678,28.409976],[79.472149,28.409839],[79.471705,28.4096],[79.471627,28.40916],[79.471737,28.408949],[79.472113,28.408689],[79.472493,28.408558],[79.472804,28.408561],[79.473093,28.40829],[79.473716,28.407779],[79.474969,28.406589],[79.475368,28.406084],[79.475926,28.405459],[79.476458,28.40519],[79.476828,28.404862],[79.476909,28.404417],[79.476928,28.40426],[79.476682,28.404023],[79.47636,28.40394],[79.475926,28.403915],[79.475546,28.403741],[79.474135,28.402936],[79.473366,28.401994],[79.472863,28.401591],[79.472584,28.401092],[79.472444,28.400724],[79.472078,28.400239],[79.471727,28.400213],[79.471039,28.40013],[79.470744,28.399956],[79.470549,28.399403],[79.47088,28.398832],[79.470893,28.398609],[79.470559,28.398258],[79.470322,28.398326],[79.469855,28.398658],[79.4693,28.398586],[79.46869,28.398264],[79.468304,28.397887],[79.468376,28.397641],[79.469157,28.397419],[79.469677,28.397268],[79.470442,28.397059],[79.470867,28.396851],[79.471195,28.396155],[79.471361,28.395781],[79.470621,28.395332],[79.470374,28.394993],[79.470196,28.394442],[79.46979,28.394088],[79.46942,28.394145],[79.469356,28.394745],[79.469417,28.395158],[79.469388,28.395481],[79.46895,28.395823],[79.468363,28.395935],[79.468173,28.396216],[79.468001,28.396333],[79.467654,28.396707],[79.467487,28.397076],[79.467384,28.397465],[79.467335,28.397647],[79.466815,28.397821],[79.466514,28.397655],[79.46612,28.397433],[79.465606,28.397157],[79.465349,28.396941],[79.465213,28.396571],[79.465103,28.395821],[79.465131,28.395247],[79.46505,28.394928],[79.464849,28.394699],[79.464924,28.394489],[79.465257,28.3942],[79.465885,28.393887],[79.466188,28.393593],[79.466319,28.393381],[79.466369,28.393185],[79.466273,28.392965],[79.46625,28.392624],[79.466328,28.392565],[79.466691,28.392474],[79.466994,28.392166],[79.467262,28.391863],[79.467546,28.391451],[79.467613,28.391185],[79.467512,28.391009],[79.467267,28.390975],[79.46703,28.391088],[79.466631,28.391179],[79.466097,28.391017],[79.465745,28.390603],[79.465532,28.390575],[79.465408,28.390611],[79.465282,28.39088],[79.465027,28.391164],[79.46483,28.391324],[79.464585,28.391409],[79.463958,28.391457],[79.463591,28.391423],[79.463277,28.391425],[79.462841,28.391485],[79.462563,28.391603],[79.462371,28.391592],[79.462249,28.391352],[79.46213,28.390529],[79.462295,28.389941],[79.462228,28.38955],[79.462095,28.389324],[79.462001,28.389269],[79.461542,28.388936],[79.461162,28.388613],[79.461074,28.3882],[79.460934,28.387525],[79.460671,28.386704],[79.460384,28.386286],[79.460221,28.386218],[79.460118,28.386127],[79.460035,28.386002],[79.46001,28.385816],[79.460093,28.385662],[79.460682,28.385444],[79.461701,28.384926],[79.462277,28.384629],[79.463225,28.383883],[79.46342,28.383655],[79.46368,28.383115],[79.46393,28.382073],[79.463988,28.381405],[79.463943,28.380846],[79.463865,28.380372],[79.463904,28.379989],[79.464095,28.379601],[79.464509,28.379392],[79.464935,28.379138],[79.465496,28.37879],[79.465968,28.37842],[79.466207,28.37816],[79.466321,28.377747],[79.466727,28.377245],[79.466941,28.377084],[79.467178,28.376911],[79.467269,28.376835],[79.467372,28.376694],[79.467415,28.376414],[79.467313,28.37585],[79.467253,28.375659],[79.467142,28.375463],[79.467149,28.375323],[79.467213,28.375099],[79.46731,28.374889],[79.467311,28.374655],[79.467391,28.374458],[79.467607,28.374229],[79.467743,28.374166],[79.467993,28.374063],[79.468086,28.373998],[79.468234,28.373775],[79.468476,28.373677],[79.46871,28.373643],[79.468942,28.373571],[79.469133,28.373405],[79.469497,28.373276],[79.469824,28.373285],[79.469992,28.373383],[79.470132,28.373496],[79.470406,28.373314],[79.471256,28.372678],[79.471402,28.372515],[79.471525,28.372277],[79.471536,28.372017],[79.471568,28.371609],[79.471675,28.371154],[79.471903,28.370858],[79.47208,28.37071],[79.472199,28.370524],[79.472162,28.370337],[79.472049,28.370196],[79.471825,28.370078],[79.471575,28.370105],[79.471139,28.370232],[79.470886,28.370347],[79.47064,28.370546],[79.470251,28.370789],[79.469766,28.370861],[79.46945,28.370755],[79.469283,28.370649],[79.469222,28.370371],[79.469163,28.369156],[79.468953,28.367735],[79.468949,28.367231],[79.469015,28.367147],[79.469158,28.367116],[79.469598,28.36728],[79.470245,28.367616],[79.470527,28.367746],[79.470699,28.367757],[79.47087,28.367674],[79.471193,28.36729],[79.471696,28.366588],[79.47206,28.366399],[79.472643,28.366353],[79.473083,28.3662],[79.473212,28.365977],[79.473336,28.36553],[79.473336,28.36536],[79.473327,28.36494],[79.47356,28.363963],[79.473736,28.363305],[79.473714,28.363015],[79.473611,28.362669],[79.473397,28.362357],[79.47304,28.362127],[79.472158,28.361747],[79.471647,28.361436],[79.471353,28.361167],[79.471164,28.360896],[79.471125,28.360488],[79.470945,28.360172],[79.470432,28.359567],[79.47015,28.359318],[79.46975,28.359066],[79.469151,28.358856],[79.46899,28.358815],[79.468953,28.358726],[79.468863,28.358363],[79.468912,28.358193],[79.468927,28.358069],[79.46896,28.357406],[79.469124,28.356981],[79.4692,28.356792],[79.469241,28.356775],[79.469449,28.356828],[79.469574,28.356933],[79.469736,28.356946],[79.469886,28.356946],[79.469995,28.356991],[79.470172,28.357233],[79.470433,28.357305],[79.470614,28.357346],[79.470685,28.357348],[79.470986,28.357298],[79.471358,28.356991],[79.471425,28.356814],[79.471456,28.356571],[79.471425,28.356319],[79.471458,28.356228],[79.471688,28.356116],[79.471918,28.356118],[79.472141,28.356168],[79.472547,28.356398],[79.472891,28.356676],[79.473164,28.356686],[79.473423,28.356616],[79.473825,28.35646],[79.47403,28.356311],[79.474079,28.356148],[79.474015,28.355935],[79.473822,28.355414],[79.473666,28.354784],[79.473378,28.354487],[79.472978,28.354282],[79.472634,28.354028],[79.472369,28.353703],[79.472269,28.353456],[79.47228,28.353148],[79.472401,28.352905],[79.472686,28.352652],[79.472831,28.352332],[79.472737,28.352085],[79.472654,28.351893],[79.472495,28.351811],[79.472245,28.351758],[79.471982,28.35176],[79.471871,28.351747],[79.47154,28.351628],[79.471423,28.35148],[79.471373,28.35104],[79.471307,28.350509],[79.471489,28.350015],[79.471801,28.349362],[79.471893,28.348781],[79.471987,28.348102],[79.472081,28.347904],[79.472397,28.347956],[79.472577,28.348146],[79.47274,28.348385],[79.472885,28.348496],[79.473175,28.348647],[79.473276,28.348675],[79.473526,28.348665],[79.47387,28.348585],[79.474043,28.348553],[79.474342,28.348603],[79.4744,28.34862],[79.474483,28.348585],[79.474585,28.348547],[79.474693,28.348389],[79.474669,28.348269],[79.474526,28.347947],[79.4744,28.347669],[79.474336,28.347526],[79.474272,28.34723],[79.474362,28.346982],[79.474456,28.346459],[79.474428,28.346207],[79.474394,28.346128],[79.474069,28.345381],[79.473868,28.345107],[79.473408,28.344934],[79.473186,28.344877],[79.472724,28.344872],[79.472577,28.344855],[79.472303,28.344646],[79.471803,28.344131],[79.47169,28.343868],[79.471508,28.34351],[79.471211,28.343318],[79.470923,28.343128],[79.470525,28.342895],[79.470397,28.342711],[79.470011,28.34177],[79.469634,28.341479],[79.469311,28.34136],[79.469096,28.341135],[79.469027,28.340807],[79.469072,28.340642],[79.469209,28.340512],[79.469371,28.340499],[79.469919,28.340546],[79.470453,28.340493],[79.470825,28.340422],[79.471273,28.340472],[79.471585,28.340512],[79.471806,28.340378],[79.471842,28.340121],[79.471763,28.339876],[79.471577,28.339182],[79.471417,28.338693],[79.471314,28.338195],[79.471062,28.338029],[79.470805,28.338001],[79.47054,28.338078],[79.470233,28.338078],[79.469648,28.337995],[79.469171,28.337805],[79.468715,28.337299],[79.468269,28.337047],[79.467974,28.336376],[79.467957,28.336088],[79.468066,28.335809],[79.468175,28.335599],[79.468373,28.335497],[79.468638,28.335399],[79.468955,28.335256],[79.469127,28.33517],[79.46899,28.334814],[79.468769,28.334625],[79.468277,28.334512],[79.468019,28.334604],[79.46751,28.33483],[79.467072,28.335068],[79.466689,28.335326],[79.466358,28.335383],[79.465939,28.33539],[79.465429,28.33526],[79.464886,28.334892],[79.464467,28.334641],[79.464125,28.334472],[79.463657,28.334297],[79.463185,28.334169],[79.462838,28.334056],[79.462618,28.333827],[79.462392,28.333387],[79.462088,28.333219],[79.46177,28.333165],[79.461385,28.333238],[79.460727,28.333466],[79.460477,28.333791],[79.46012,28.334267],[79.459936,28.334553],[79.459791,28.334711],[79.459718,28.334737],[79.459445,28.33472],[79.459265,28.33464],[79.459079,28.334487],[79.458928,28.334192],[79.45891,28.334034],[79.458605,28.333761],[79.458564,28.333473],[79.458402,28.333255],[79.45822,28.333157],[79.458062,28.33314],[79.457865,28.333012],[79.457727,28.332725],[79.457261,28.332429],[79.457169,28.332371],[79.45588,28.331682],[79.455141,28.331186],[79.454529,28.330979],[79.453581,28.330729],[79.453204,28.330704],[79.452865,28.330763],[79.452745,28.3308],[79.452638,28.331045],[79.452713,28.331212],[79.4528,28.331472],[79.452786,28.331899],[79.452645,28.33204],[79.452533,28.33198],[79.45245,28.331903],[79.452268,28.331741],[79.452153,28.331686],[79.451931,28.331649],[79.451681,28.331466],[79.451676,28.33138],[79.451715,28.331079],[79.451649,28.33086],[79.451415,28.330705]]}},{"type":"Feature","properties":{"osm_way":487806973,"waterway":"river","name":"Nakatia Nadi","intermittent":"no","embankment":"no"},"geometry":{"type":"LineString","coordinates":[[79.451415,28.330705],[79.45119,28.330667],[79.451152,28.330748],[79.45112,28.330918],[79.451013,28.331026],[79.450777,28.331116],[79.450578,28.331107],[79.450331,28.330993],[79.449999,28.330856],[79.4495,28.330611],[79.449189,28.330427],[79.44913,28.330261],[79.449114,28.330016],[79.449103,28.32986],[79.448862,28.329614],[79.448749,28.329298],[79.448701,28.329071],[79.44855,28.328769],[79.448314,28.328594],[79.448094,28.328575],[79.447773,28.328708],[79.447483,28.328793],[79.447156,28.328774],[79.446753,28.328585],[79.446635,28.328278],[79.44663,28.328051],[79.446474,28.327716],[79.446394,28.327183],[79.446544,28.326876],[79.446737,28.326909],[79.4473,28.327291],[79.44766,28.32732],[79.447885,28.327187],[79.447987,28.326895],[79.448052,28.326654],[79.448357,28.32655],[79.449205,28.326399],[79.449473,28.326262],[79.449607,28.326059],[79.449554,28.325794],[79.449307,28.325619],[79.448781,28.32569],[79.448406,28.325553],[79.448191,28.325275],[79.448212,28.324831],[79.448282,28.324434],[79.448089,28.324075],[79.447842,28.323943],[79.447456,28.323962],[79.446726,28.324245],[79.446458,28.324467],[79.446448,28.324708],[79.446533,28.324982],[79.446566,28.32527],[79.446458,28.325506],[79.446233,28.325525],[79.445831,28.325355],[79.445584,28.324968],[79.445552,28.324534],[79.445627,28.324151],[79.445621,28.323901],[79.445444,28.323542],[79.445439,28.323216],[79.445573,28.322895],[79.445949,28.32264],[79.446474,28.322437],[79.446705,28.322385],[79.44714,28.322021],[79.447429,28.321946],[79.447665,28.322002],[79.448009,28.322347],[79.448561,28.322479],[79.449189,28.32256],[79.449639,28.322494],[79.450122,28.322328],[79.450278,28.322007],[79.450251,28.321445],[79.450181,28.320907],[79.450364,28.320463],[79.450626,28.320062],[79.450905,28.319547],[79.450938,28.319084],[79.450734,28.318838],[79.450626,28.318829],[79.450385,28.319018],[79.449967,28.319429],[79.449554,28.319518],[79.449258,28.319485],[79.449055,28.31923],[79.44869,28.318711],[79.448508,28.318262],[79.448486,28.317766],[79.448604,28.317308],[79.449017,28.316628],[79.449511,28.316095],[79.450015,28.316033],[79.450401,28.316047],[79.450707,28.315882],[79.450916,28.315689],[79.450862,28.315415],[79.450557,28.315027],[79.45024,28.31473],[79.449832,28.31439],[79.44943,28.314078],[79.44921,28.313776],[79.449108,28.313615],[79.448846,28.313582],[79.448695,28.31362],[79.448636,28.313889],[79.448497,28.314187],[79.448282,28.314347],[79.448105,28.314446],[79.447767,28.314361],[79.447413,28.314144],[79.447097,28.314149],[79.446909,28.314262],[79.446743,28.314536],[79.446566,28.314659],[79.446405,28.314687],[79.446179,28.314456],[79.445589,28.31431],[79.444838,28.314092],[79.444232,28.31354],[79.443776,28.313058],[79.443347,28.312945],[79.441561,28.312775],[79.441169,28.312624],[79.441008,28.312411],[79.440952,28.312199],[79.440748,28.312038],[79.440372,28.311882],[79.440056,28.31183],[79.439836,28.311882],[79.439509,28.311986],[79.439278,28.31208],[79.43909,28.312128],[79.438956,28.31208],[79.438919,28.311981],[79.438988,28.311788],[79.438972,28.311547],[79.438865,28.311207],[79.438629,28.310768],[79.43872,28.31038],[79.439273,28.309639],[79.4396,28.309251],[79.439943,28.308935],[79.44034,28.30868],[79.440372,28.308425],[79.440254,28.308189],[79.440029,28.308005],[79.439594,28.307343],[79.43953,28.307126],[79.439557,28.306078],[79.439739,28.305638],[79.439981,28.305393],[79.440689,28.304935],[79.44129,28.304571],[79.441617,28.304184],[79.441966,28.303655],[79.442057,28.303296],[79.442207,28.302842],[79.442486,28.302583],[79.442706,28.302578],[79.442985,28.302658],[79.443269,28.302753],[79.443478,28.302677],[79.443639,28.302587],[79.443682,28.302361],[79.443602,28.302257],[79.443355,28.302247],[79.443146,28.302167],[79.443001,28.302073],[79.44292,28.301808],[79.442792,28.301213],[79.442534,28.300693],[79.442228,28.300263],[79.441933,28.300079],[79.441349,28.299763],[79.441161,28.299423],[79.441113,28.298965],[79.440984,28.298001],[79.44093,28.297699],[79.440641,28.297415],[79.440641,28.296863],[79.440539,28.296305],[79.440608,28.29589],[79.440485,28.295606],[79.440276,28.294685],[79.440292,28.294085],[79.44048,28.293098],[79.440759,28.292427],[79.441054,28.291813],[79.441204,28.291497],[79.441263,28.290769],[79.441274,28.290325],[79.441166,28.290009],[79.44092,28.289773],[79.440566,28.289343],[79.440201,28.28904],[79.4399,28.28897],[79.439627,28.288993],[79.43908,28.289064],[79.438548,28.289012],[79.437969,28.288866],[79.437551,28.288563],[79.4374,28.288318],[79.437395,28.287978],[79.43747,28.287765],[79.437787,28.287567],[79.438092,28.287364],[79.438119,28.28708],[79.438232,28.286277],[79.438361,28.285918],[79.43864,28.285691],[79.439026,28.28563],[79.439305,28.285705],[79.4396,28.285998],[79.43982,28.286239],[79.439997,28.286367],[79.440206,28.286395],[79.440335,28.286296],[79.44048,28.286022],[79.440694,28.285672],[79.44085,28.285413],[79.440807,28.285219],[79.440657,28.285035],[79.440195,28.284822],[79.439761,28.284529],[79.439659,28.284274],[79.439696,28.283995],[79.440018,28.283622],[79.440335,28.283098],[79.440909,28.282271],[79.441188,28.281435],[79.441295,28.280311],[79.441386,28.279824],[79.441338,28.279451],[79.440694,28.278624],[79.440635,28.27835],[79.440877,28.278015],[79.441022,28.277613],[79.440839,28.277174],[79.440641,28.277009],[79.440136,28.276857],[79.439879,28.276602],[79.439487,28.276219],[79.439031,28.275809],[79.438371,28.275336],[79.43798,28.275138],[79.437513,28.274486],[79.437331,28.274254],[79.437213,28.273994],[79.437202,28.27372],[79.437036,28.273338],[79.436719,28.272979],[79.436537,28.272766],[79.436376,28.272327],[79.436263,28.271878],[79.436258,28.271542],[79.436483,28.271235],[79.436714,28.270994],[79.437079,28.270427],[79.437213,28.270281],[79.437792,28.26995],[79.438409,28.269704],[79.438656,28.269482],[79.438693,28.269312],[79.438591,28.269114],[79.438543,28.268826],[79.438693,28.26841],[79.43902,28.267975],[79.439133,28.267715],[79.439058,28.267352],[79.438892,28.267172],[79.438833,28.26695],[79.438935,28.266643],[79.439289,28.266161],[79.439632,28.265745],[79.43989,28.2655],[79.4399,28.265329],[79.43968,28.265032],[79.439798,28.264555],[79.439981,28.264139],[79.440024,28.263548],[79.440201,28.26318],[79.440254,28.263047],[79.440415,28.262906],[79.440619,28.262608],[79.440646,28.262192],[79.44056,28.261956],[79.440335,28.261753],[79.440056,28.261639],[79.439943,28.261431],[79.440013,28.261157],[79.440083,28.260789],[79.439992,28.260614],[79.439621,28.260288],[79.439439,28.259919],[79.439412,28.25956],[79.439552,28.259187],[79.439654,28.258828],[79.439546,28.258696],[79.439031,28.258535],[79.438747,28.258308],[79.438548,28.257959],[79.438436,28.257547],[79.438473,28.257231],[79.438844,28.25605],[79.438854,28.255785],[79.438747,28.255709],[79.438468,28.25569],[79.438248,28.255667],[79.438044,28.255544],[79.437824,28.255204],[79.437604,28.255067],[79.437277,28.254911],[79.437175,28.254731],[79.43725,28.254405],[79.437443,28.25389],[79.437556,28.25354],[79.437529,28.253366],[79.437347,28.253295],[79.436955,28.253181],[79.436564,28.252959],[79.43637,28.252775],[79.436269,28.252449],[79.436606,28.251816],[79.436907,28.251414],[79.436934,28.251187],[79.436708,28.251017],[79.436446,28.250743],[79.436462,28.250587],[79.436633,28.250015],[79.436784,28.249325],[79.436859,28.249042],[79.436762,28.248654],[79.436918,28.248338],[79.437159,28.248016],[79.43718,28.247842],[79.436875,28.247671],[79.436751,28.247402],[79.436832,28.247326],[79.437363,28.247128],[79.437905,28.246797],[79.438034,28.246651],[79.438028,28.246414],[79.437824,28.246055],[79.437551,28.245644],[79.437438,28.245205],[79.437315,28.244968],[79.437111,28.24494],[79.436768,28.245077],[79.436467,28.245143],[79.436306,28.24495],[79.436317,28.244666],[79.436226,28.244075],[79.43622,28.243673],[79.436478,28.243215],[79.436816,28.242903],[79.437052,28.242681],[79.437138,28.242483],[79.437009,28.241783],[79.436923,28.241396],[79.436708,28.241089],[79.436472,28.240876],[79.436151,28.240729],[79.436027,28.240602],[79.436043,28.240408],[79.436354,28.240157],[79.436472,28.24002],[79.436462,28.23977],[79.436365,28.239638],[79.435796,28.239321],[79.435459,28.238967],[79.435319,28.238655],[79.435239,28.238201],[79.435346,28.237634],[79.435389,28.237227],[79.43541,28.236774],[79.435233,28.236585],[79.435083,28.236561],[79.434901,28.23666],[79.434643,28.236745],[79.434423,28.236533],[79.434386,28.236211],[79.434675,28.235677],[79.435013,28.23564],[79.435464,28.235743],[79.435695,28.235706],[79.435968,28.235474],[79.436252,28.235224],[79.436628,28.23512],[79.437052,28.234997],[79.437433,28.234562],[79.437481,28.234255],[79.437363,28.234037],[79.43754,28.233602],[79.437803,28.233253],[79.438178,28.233135],[79.438645,28.232969],[79.438924,28.232657],[79.438956,28.232388],[79.438822,28.232246],[79.438398,28.232345],[79.43821,28.23244],[79.438034,28.232341],[79.438023,28.231981],[79.43813,28.231665],[79.438248,28.231636],[79.438543,28.231613],[79.438731,28.231518],[79.438881,28.231287],[79.438962,28.230942],[79.438956,28.230535],[79.438908,28.229888],[79.438897,28.229448],[79.439122,28.229112],[79.439589,28.228838],[79.439712,28.22864],[79.439589,28.228512],[79.43931,28.228432],[79.439155,28.228267],[79.439235,28.228026],[79.439594,28.227439],[79.439643,28.227208],[79.439536,28.227099],[79.439224,28.227075],[79.438838,28.227085],[79.438715,28.22699],[79.438602,28.226768],[79.438656,28.226348],[79.438795,28.225922],[79.438693,28.225738],[79.438511,28.225667],[79.438243,28.225601],[79.43813,28.225483],[79.43821,28.22535],[79.438377,28.225209],[79.438414,28.225019],[79.438189,28.224674],[79.437889,28.22415],[79.437669,28.223772],[79.437411,28.223597],[79.437014,28.223616],[79.436499,28.223464],[79.436102,28.223119],[79.435931,28.222873],[79.435909,28.222689],[79.435914,28.222302],[79.435791,28.222051],[79.435491,28.22199],[79.434992,28.221791],[79.434751,28.221493],[79.434654,28.221091],[79.434595,28.22077],[79.434262,28.22043],[79.434025,28.220056],[79.434035,28.219624],[79.434316,28.21877],[79.434387,28.218487],[79.434433,28.218168],[79.434617,28.218047],[79.435132,28.218029],[79.435718,28.21815],[79.436121,28.218388],[79.436417,28.218581],[79.436672,28.218581],[79.436876,28.218366],[79.437157,28.217979],[79.437146,28.217754],[79.436958,28.217656],[79.436718,28.217768],[79.436453,28.217768],[79.436386,28.217665],[79.436458,28.217449],[79.436575,28.216784],[79.43658,28.216586],[79.436443,28.216402],[79.435999,28.216024],[79.435693,28.215786],[79.435581,28.215593],[79.435642,28.215395],[79.435989,28.215458],[79.436341,28.215444],[79.436575,28.215336],[79.436784,28.215067],[79.437172,28.215022],[79.43756,28.215085],[79.437973,28.214923],[79.437988,28.214766],[79.43784,28.214523],[79.437748,28.214334],[79.437646,28.214154],[79.437402,28.213736],[79.437264,28.213395],[79.437269,28.213175],[79.437534,28.21286],[79.437692,28.212613],[79.437774,28.212361],[79.437917,28.212437],[79.438162,28.212586],[79.438524,28.212554],[79.438876,28.212321],[79.43937,28.212145],[79.439763,28.211979],[79.43987,28.211772],[79.439748,28.211637],[79.4396,28.211583],[79.439294,28.211507],[79.438865,28.211422],[79.438498,28.211309],[79.438228,28.211224],[79.438019,28.211197],[79.437774,28.211233],[79.43755,28.211354],[79.437386,28.211368],[79.43734,28.211237],[79.437448,28.210968],[79.43758,28.210621],[79.437764,28.210554],[79.438019,28.210743],[79.438253,28.210869],[79.438748,28.210909],[79.439024,28.210675],[79.439279,28.210221],[79.439258,28.209979],[79.439131,28.209736],[79.439121,28.209475],[79.439187,28.209354],[79.439411,28.209251],[79.439656,28.209138],[79.439733,28.209039],[79.439799,28.208909],[79.439906,28.208779],[79.440095,28.208783],[79.440304,28.208859],[79.440564,28.208909],[79.440671,28.208815],[79.440666,28.208612],[79.440707,28.208437],[79.440829,28.208343],[79.441196,28.208325],[79.441395,28.208226],[79.441604,28.208289],[79.441778,28.208433],[79.441997,28.208419],[79.442115,28.208352],[79.442482,28.208068],[79.44265,28.207776],[79.442752,28.207484],[79.442926,28.207291],[79.443303,28.207169],[79.443538,28.207138],[79.443645,28.207044],[79.443711,28.206756],[79.443645,28.206616],[79.443512,28.206599],[79.442798,28.206711],[79.442232,28.206774],[79.441763,28.20681],[79.441477,28.206927],[79.44114,28.207075],[79.440931,28.207089],[79.440452,28.20699],[79.440013,28.206895],[79.439727,28.206724],[79.439763,28.206581],[79.439937,28.206464],[79.440217,28.206293],[79.440554,28.20601],[79.440768,28.205704],[79.440936,28.205785],[79.44111,28.205902],[79.441421,28.205897],[79.441921,28.2057],[79.442308,28.205403],[79.442466,28.205151],[79.442594,28.204926],[79.442523,28.204513],[79.442579,28.204171],[79.442829,28.203947],[79.443033,28.203893],[79.443155,28.204018],[79.44339,28.204189],[79.443808,28.204356],[79.444359,28.204432],[79.444665,28.204391],[79.444981,28.204288],[79.445216,28.204153],[79.445287,28.203987],[79.445481,28.203875],[79.445624,28.203947],[79.445807,28.204176],[79.446011,28.20441],[79.446226,28.204441],[79.44644,28.204342],[79.446567,28.204167],[79.446598,28.204018],[79.446465,28.203843],[79.446297,28.203668],[79.446195,28.203304],[79.446358,28.202787],[79.446593,28.202068],[79.446833,28.201744],[79.446868,28.201524],[79.446843,28.20142],[79.446756,28.201402],[79.446573,28.201402],[79.446338,28.20142],[79.4462,28.201353],[79.44618,28.201209],[79.446374,28.201088],[79.446736,28.20102],[79.447098,28.200912],[79.447424,28.20089],[79.447792,28.200894],[79.448133,28.200804],[79.448388,28.200647],[79.448623,28.200341],[79.448659,28.200144],[79.448592,28.200018],[79.448485,28.199995],[79.448353,28.200018],[79.448174,28.200108],[79.448011,28.200215],[79.447924,28.200305],[79.447679,28.200328],[79.447475,28.200319],[79.447246,28.200305],[79.447113,28.200377],[79.446812,28.20035],[79.446598,28.200189],[79.446598,28.19986],[79.446725,28.199649],[79.446664,28.199299],[79.4467,28.198867],[79.446812,28.198368],[79.447006,28.198148],[79.447378,28.197936],[79.447608,28.197613],[79.447552,28.197181],[79.447409,28.196741],[79.447287,28.196075],[79.447108,28.195414],[79.447154,28.195041],[79.447485,28.194785],[79.447924,28.194695],[79.448149,28.194745],[79.448393,28.194911],[79.448705,28.19528],[79.44898,28.195504],[79.449286,28.195518],[79.449521,28.195432],[79.449694,28.195145],[79.449964,28.194596],[79.45022,28.194322],[79.450842,28.193963],[79.451316,28.193742],[79.451689,28.19367],[79.452091,28.193464],[79.452632,28.193162],[79.453117,28.192753],[79.453545,28.192582],[79.453902,28.192429],[79.454463,28.192011],[79.45481,28.191674],[79.455575,28.191387],[79.456162,28.191027],[79.457049,28.190317],[79.457621,28.189831],[79.45808,28.189404],[79.458396,28.189058],[79.458681,28.188806],[79.458967,28.188716],[79.459278,28.188739],[79.459564,28.188698],[79.459952,28.188568],[79.460482,28.188127],[79.461079,28.187678],[79.461625,28.187304],[79.462119,28.186967],[79.462818,28.186662],[79.463374,28.186217],[79.463848,28.185727],[79.464282,28.185304],[79.464578,28.184958],[79.464568,28.184566],[79.464603,28.184283],[79.464802,28.183933],[79.465399,28.183461],[79.465639,28.183078],[79.465991,28.182728],[79.466516,28.182498],[79.466842,28.182543],[79.467215,28.182701],[79.467567,28.182768],[79.467853,28.182647],[79.468536,28.182292],[79.468944,28.181986],[79.469199,28.181761],[79.469526,28.181604],[79.469933,28.181424],[79.470107,28.181213],[79.470076,28.180974],[79.46977,28.180745],[79.469378,28.180695],[79.468934,28.180898],[79.46851,28.181123],[79.468199,28.181145],[79.468021,28.181037],[79.468077,28.180803],[79.468143,28.180462],[79.468113,28.180192],[79.467975,28.180057],[79.467557,28.179967],[79.467414,28.179801],[79.467016,28.179661],[79.466735,28.179617],[79.466445,28.179468],[79.466302,28.179077],[79.466394,28.178947],[79.466791,28.178866],[79.467414,28.178654],[79.467628,28.178389],[79.46774,28.178079],[79.467674,28.177724],[79.467643,28.17744],[79.46775,28.177189],[79.468031,28.177058],[79.468169,28.176856],[79.468342,28.176451],[79.468464,28.175984],[79.468745,28.175714],[79.468822,28.175439],[79.468913,28.175138],[79.469015,28.174662],[79.469179,28.174203],[79.469495,28.173767],[79.470005,28.173529],[79.470428,28.173317],[79.470882,28.172634],[79.471056,28.172324],[79.471046,28.172],[79.471061,28.171654],[79.471285,28.171348],[79.471755,28.170988],[79.471958,28.170637],[79.471948,28.170431],[79.471821,28.170246],[79.4718,28.169918],[79.471948,28.169554],[79.471984,28.16945],[79.471938,28.169275],[79.471749,28.169077],[79.471408,28.168825],[79.471249,28.168592],[79.471015,28.168146],[79.47075,28.167418],[79.470454,28.166842],[79.470286,28.166541],[79.470041,28.166217],[79.469918,28.165862],[79.469882,28.165412],[79.46977,28.165021],[79.469577,28.164801],[79.469097,28.164333],[79.468475,28.163906],[79.46822,28.163645],[79.468072,28.163299],[79.468057,28.162881],[79.467842,28.162575],[79.467608,28.162256],[79.467368,28.162008],[79.467276,28.161604],[79.467195,28.161226],[79.467189,28.160889],[79.467291,28.160565],[79.467618,28.160439],[79.468,28.16039],[79.468301,28.160394],[79.468577,28.160335],[79.469122,28.160147],[79.469469,28.160093],[79.469526,28.160241],[79.46948,28.160448],[79.469607,28.160664],[79.46975,28.160763],[79.469867,28.160745],[79.470158,28.160587],[79.470413,28.160556],[79.470612,28.160682],[79.470744,28.160731],[79.471214,28.160677],[79.471668,28.160785],[79.472208,28.160947],[79.472596,28.16114],[79.472785,28.161338],[79.473142,28.161554],[79.473489,28.161559],[79.473938,28.161469],[79.474534,28.161644],[79.474968,28.161788],[79.475264,28.162148],[79.475381,28.162566],[79.475524,28.162818],[79.475881,28.16298]]}},{"type":"Feature","properties":{"osm_way":488077872,"waterway":"river","name":"Nakatia Nadi","intermittent":"no","embankment":"no"},"geometry":{"type":"LineString","coordinates":[[79.54649,28.438532],[79.546807,28.438461],[79.546941,28.438306],[79.546882,28.438136],[79.546678,28.438103],[79.546554,28.437976],[79.546619,28.437801],[79.546876,28.437773],[79.54701,28.437806],[79.547177,28.4379],[79.547305,28.437834],[79.547504,28.437617],[79.547509,28.437523],[79.547434,28.437433],[79.547327,28.437343],[79.547445,28.437334],[79.54774,28.437329],[79.547879,28.437287],[79.547992,28.437098],[79.548083,28.43706],[79.548142,28.437136],[79.548196,28.437197],[79.548282,28.437122],[79.548271,28.436914],[79.548185,28.436825],[79.547944,28.436815],[79.54774,28.436556],[79.547504,28.436381],[79.547241,28.436329],[79.547139,28.436183],[79.547268,28.436037],[79.547622,28.435994],[79.547643,28.435905],[79.547552,28.435796],[79.547263,28.435787],[79.547075,28.435787],[79.546914,28.435527],[79.546978,28.4354],[79.547177,28.43532],[79.547241,28.435216],[79.547166,28.435089],[79.547069,28.435041],[79.546844,28.43506],[79.546672,28.434961],[79.546624,28.434843],[79.546914,28.434782],[79.547188,28.434773],[79.547343,28.434777],[79.547423,28.434702],[79.547525,28.434537],[79.547483,28.434386],[79.547407,28.434254],[79.547472,28.434032],[79.547499,28.433801],[79.547466,28.433513],[79.547509,28.433348],[79.547643,28.433305],[79.547863,28.433343],[79.548019,28.433362],[79.548173,28.433348]]}},{"type":"Feature","properties":{"osm_way":488077873,"waterway":"river","name":"Nakatia Nadi","intermittent":"no","embankment":"no"},"geometry":{"type":"LineString","coordinates":[[79.541468,28.471337],[79.5415,28.471063],[79.54165,28.470592],[79.541854,28.470224],[79.54209,28.470073]]}},{"type":"Feature","properties":{"osm_way":488077874,"waterway":"river","name":"Nakatia Nadi","intermittent":"no","embankment":"yes"},"geometry":{"type":"LineString","coordinates":[[79.541401,28.472339],[79.541425,28.471705],[79.541468,28.471337]]}},{"type":"Feature","properties":{"osm_way":488077875,"waterway":"river","name":"Nakatia Nadi","intermittent":"yes","embankment":"no"},"geometry":{"type":"LineString","coordinates":[[79.54209,28.470073],[79.542047,28.46978],[79.542154,28.469432],[79.542423,28.4693],[79.542401,28.468771],[79.54244,28.468625],[79.542351,28.46855],[79.542268,28.468429],[79.542102,28.468144],[79.542008,28.467904],[79.542038,28.467689],[79.54215,28.467515],[79.542148,28.467368],[79.542078,28.467024],[79.541807,28.466503],[79.541686,28.466246],[79.541563,28.46589],[79.541539,28.465586],[79.541555,28.465355],[79.541662,28.46515],[79.54174,28.464782],[79.541802,28.464581],[79.541793,28.464188],[79.541764,28.463709],[79.541842,28.463367],[79.541946,28.463202],[79.542193,28.463058],[79.542397,28.462832],[79.542453,28.462678],[79.542437,28.462358],[79.542295,28.462195],[79.541912,28.461926],[79.541528,28.461709],[79.541346,28.46154],[79.541217,28.461285],[79.541244,28.461047],[79.541303,28.460747],[79.541187,28.460514],[79.541032,28.460344],[79.540844,28.460302],[79.540506,28.460219],[79.540359,28.460158],[79.540152,28.459901],[79.540157,28.45967],[79.540289,28.459505],[79.540455,28.459335],[79.540361,28.459125],[79.540157,28.458861],[79.539921,28.458757],[79.539661,28.458571],[79.539565,28.458382],[79.539594,28.458248],[79.539774,28.458158],[79.539994,28.458205],[79.54023,28.458299],[79.540439,28.458333],[79.540546,28.458288],[79.540643,28.45817],[79.540667,28.457882],[79.540629,28.457682],[79.540412,28.457545],[79.540222,28.45729],[79.540251,28.457092],[79.540372,28.456932],[79.540533,28.456786],[79.540538,28.456654],[79.540353,28.456422],[79.540066,28.456203],[79.539801,28.456066],[79.539578,28.45589],[79.539465,28.455713],[79.539433,28.455517],[79.539425,28.455326],[79.539439,28.454958],[79.53964,28.454817],[79.539795,28.454725],[79.539956,28.454425],[79.540182,28.454052],[79.540203,28.453876],[79.5402,28.453668],[79.540353,28.45339],[79.540391,28.453171],[79.540284,28.453039],[79.540152,28.452956],[79.540004,28.452956],[79.539889,28.453074],[79.539782,28.453322],[79.539634,28.453435],[79.539541,28.453421],[79.539385,28.453357],[79.539194,28.453314],[79.539076,28.453288],[79.539017,28.453131],[79.538961,28.452958],[79.538873,28.452871],[79.538763,28.452807],[79.538484,28.452925],[79.53821,28.452994],[79.537985,28.453138],[79.537877,28.452977],[79.537942,28.452767],[79.538138,28.45235],[79.538272,28.452142],[79.538309,28.452003],[79.538197,28.451918],[79.538092,28.451904],[79.537934,28.451918],[79.537837,28.451871],[79.53765,28.451706],[79.53762,28.45148],[79.53762,28.451117],[79.537682,28.450933],[79.537937,28.45064],[79.538044,28.450555],[79.538146,28.450567],[79.538371,28.450605],[79.538481,28.450591],[79.53858,28.450527],[79.53865,28.450411],[79.538604,28.450112],[79.538631,28.449935],[79.538728,28.449789],[79.538838,28.449699],[79.53909,28.449591],[79.539192,28.449444],[79.539221,28.449298],[79.539366,28.449129],[79.539495,28.448971],[79.539476,28.448815],[79.539457,28.44868],[79.539629,28.448593],[79.53965,28.448473],[79.539782,28.448407],[79.539986,28.44839],[79.540098,28.44844],[79.540332,28.448504],[79.540402,28.448659],[79.540498,28.448659],[79.540581,28.448607],[79.540624,28.448407],[79.540683,28.448232],[79.540847,28.448072],[79.540908,28.447916],[79.540925,28.447692],[79.540957,28.447504],[79.541075,28.447393],[79.54127,28.447246],[79.541399,28.447044],[79.541531,28.447025],[79.541649,28.447086],[79.541831,28.44702],[79.541839,28.446725],[79.541828,28.446471],[79.54193,28.446299],[79.542115,28.446079],[79.542199,28.445855],[79.542378,28.445728],[79.542625,28.445603],[79.54296,28.445459],[79.543073,28.445523],[79.543124,28.445608],[79.54325,28.445662],[79.543339,28.445723],[79.543414,28.445794],[79.543494,28.445815],[79.54358,28.44578],[79.543768,28.445718],[79.544022,28.445485],[79.544393,28.445339],[79.544714,28.445211],[79.544736,28.445032],[79.544446,28.444867],[79.544339,28.444692],[79.544285,28.444381],[79.544178,28.443825],[79.54406,28.443716],[79.543786,28.443725],[79.543808,28.44356],[79.544065,28.443504],[79.544173,28.443447],[79.544216,28.443292],[79.544425,28.443226],[79.544596,28.443216],[79.544811,28.443301],[79.544999,28.443258],[79.545283,28.443103],[79.545369,28.442867],[79.545149,28.442669],[79.544961,28.442537],[79.544774,28.442235],[79.544661,28.441905],[79.544913,28.441523],[79.545111,28.441296],[79.545058,28.440938],[79.545085,28.440598],[79.54487,28.440136],[79.544682,28.440023],[79.544704,28.439933],[79.545047,28.43981],[79.545299,28.439612],[79.545476,28.439353],[79.545374,28.439202],[79.545455,28.439056],[79.545696,28.439098],[79.545862,28.439089],[79.54605,28.438891],[79.546259,28.438612],[79.54649,28.438532]]}},{"type":"Feature","properties":{"osm_way":488077889,"waterway":"river","name":"Nakatia Nadi","intermittent":"no","embankment":"no"},"geometry":{"type":"LineString","coordinates":[[79.521423,28.492371],[79.522046,28.49223],[79.522443,28.491947],[79.522711,28.491249],[79.523505,28.489335],[79.523719,28.488958],[79.524964,28.488863],[79.525468,28.489023],[79.526026,28.489023],[79.527238,28.488665],[79.528236,28.488533],[79.528558,28.48875],[79.528826,28.489118],[79.52918,28.489335],[79.529642,28.489438],[79.530039,28.489382],[79.530393,28.489561],[79.530758,28.489438],[79.531417,28.489165],[79.532136,28.489287],[79.53352,28.491437],[79.533965,28.491786],[79.534105,28.492116],[79.534405,28.492362],[79.534867,28.492239],[79.535591,28.491419],[79.536519,28.491023],[79.537291,28.490268],[79.538016,28.489203],[79.538557,28.488844],[79.539169,28.488561],[79.539695,28.488326],[79.539952,28.488156],[79.540725,28.487562],[79.54168,28.487204],[79.542227,28.486779],[79.542817,28.486015],[79.543053,28.485082],[79.543342,28.483941],[79.543858,28.48345],[79.544448,28.483403],[79.545231,28.483441],[79.545874,28.483186],[79.546475,28.482687],[79.54654,28.482385],[79.546529,28.482159],[79.546398,28.481861],[79.546226,28.481692],[79.545904,28.481635],[79.545797,28.481451],[79.545829,28.481263],[79.546011,28.481121],[79.546505,28.480918],[79.547079,28.480772],[79.547267,28.480678],[79.547433,28.480428],[79.547309,28.480206],[79.547073,28.479957],[79.546875,28.479872],[79.546349,28.479886],[79.545963,28.4799],[79.545502,28.480027],[79.545051,28.48014],[79.544847,28.479938],[79.544895,28.479688],[79.545035,28.479263],[79.545115,28.478551],[79.544944,28.478042],[79.544611,28.47775],[79.543774,28.477665],[79.543528,28.47775],[79.543431,28.477957],[79.543345,28.478391],[79.543152,28.47858],[79.542798,28.478674],[79.542294,28.478533],[79.542068,28.478155],[79.542133,28.477655],[79.542401,28.476958],[79.542305,28.476599],[79.541757,28.476524],[79.541307,28.476514],[79.540781,28.476165],[79.540577,28.475496],[79.540631,28.475251],[79.540835,28.474732],[79.540856,28.474477],[79.540545,28.47393],[79.540974,28.473487],[79.541339,28.47327],[79.541382,28.472865],[79.541401,28.472339]]}},{"type":"Feature","properties":{"osm_way":562114087,"waterway":"river","name":"Nakatia Nadi","intermittent":"no","embankment":"no"},"geometry":{"type":"LineString","coordinates":[[79.475881,28.16298],[79.47603,28.163043],[79.476218,28.163039],[79.47643,28.163032],[79.476615,28.162972],[79.476793,28.162884],[79.476952,28.162786],[79.477688,28.16278],[79.478441,28.162723],[79.478885,28.162521],[79.479013,28.162238],[79.478962,28.161846],[79.478793,28.161343],[79.478707,28.16088],[79.478906,28.160668],[79.479263,28.160515],[79.47962,28.160515],[79.479895,28.160763],[79.480211,28.160934],[79.480497,28.16092],[79.480915,28.16083],[79.481323,28.160659],[79.48168,28.160443],[79.482119,28.160461],[79.482466,28.160327],[79.482792,28.160003],[79.482935,28.159773],[79.483409,28.159562],[79.483797,28.159432],[79.483879,28.159243],[79.484078,28.158942],[79.484578,28.158546],[79.484812,28.158289],[79.48521,28.158132],[79.485924,28.157795],[79.486011,28.157529],[79.48596,28.15721],[79.486291,28.156724],[79.486613,28.156162],[79.486699,28.155911],[79.48675,28.155398],[79.486832,28.155088],[79.487148,28.154791],[79.487235,28.154651],[79.487296,28.154269],[79.487388,28.153684],[79.487342,28.153235],[79.487301,28.152614],[79.487266,28.151791],[79.487332,28.151364],[79.487296,28.150312],[79.487322,28.149048],[79.48724,28.148144],[79.487194,28.147384],[79.487306,28.146979],[79.487533,28.146709],[79.487842,28.146385],[79.488194,28.145751],[79.488561,28.14428],[79.488296,28.143062],[79.487816,28.142319],[79.487143,28.141879],[79.485934,28.141015],[79.485368,28.140718],[79.484818,28.140483],[79.484838,28.139756],[79.484843,28.139081],[79.484761,28.138366],[79.484297,28.136711],[79.483894,28.136081],[79.483712,28.135367]]}}]}