{"type": "FeatureCollection", "features": [{"type": "Feature", "geometry": {"type": "Polygon", "coordinates": [[[79.50041, 28.17875], [79.50041, 28.18041], [79.49958, 28.18041], [79.49958, 28.18125], [79.49875, 28.18125], [79.49875, 28.18375], [79.50041, 28.18375], [79.50041, 28.19125], [79.50125, 28.19125], [79.50125, 28.19208], [79.50208, 28.19208], [79.50208, 28.19625], [79.50125, 28.19625], [79.50125, 28.19708], [79.50041, 28.19708], [79.50041, 28.19791], [79.50125, 28.19791], [79.50125, 28.19958], [79.50291, 28.19958], [79.50291, 28.20041], [79.50375, 28.20041], [79.50375, 28.20125], [79.50458, 28.20125], [79.50458, 28.20291], [79.50375, 28.20291], [79.50375, 28.20375], [79.50291, 28.20375], [79.50291, 28.20458], [79.50458, 28.20458], [79.50458, 28.20541], [79.50625, 28.20541], [79.50625, 28.20708], [79.50708, 28.20708], [79.50708, 28.20791], [79.50791, 28.20791], [79.50791, 28.21125], [79.50875, 28.21125], [79.50875, 28.21458], [79.51041, 28.21458], [79.51041, 28.21625], [79.51208, 28.21625], [79.51208, 28.21458], [79.51291, 28.21458], [79.51291, 28.21541], [79.51375, 28.21541], [79.51375, 28.21625], [79.51458, 28.21625], [79.51458, 28.21708], [79.51625, 28.21708], [79.51625, 28.21791], [79.51708, 28.21791], [79.51708, 28.21875], [79.51791, 28.21875], [79.51791, 28.21958], [79.51875, 28.21958], [79.51875, 28.22041], [79.51958, 28.22041], [79.51958, 28.22125], [79.52125, 28.22125], [79.52125, 28.22208], [79.52291, 28.22208], [79.52291, 28.22291], [79.52458, 28.22291], [79.52458, 28.22375], [79.52625, 28.22375], [79.52625, 28.22458], [79.52791, 28.22458], [79.52791, 28.22541], [79.52958, 28.22541], [79.52958, 28.22625], [79.53041, 28.22625], [79.53041, 28.22708], [79.53208, 28.22708], [79.53208, 28.22791], [79.53375, 28.22791], [79.53375, 28.22875], [79.53541, 28.22875], [79.53541, 28.22958], [79.53708, 28.22958], [79.53708, 28.23041], [79.53875, 28.23041], [79.53875, 28.23125], [79.54041, 28.23125], [79.54041, 28.23291], [79.54208, 28.23291], [79.54208, 28.23458], [79.54291, 28.23458], [79.54291, 28.23541], [79.54375, 28.23541], [79.54375, 28.23708], [79.54291, 28.23708], [79.54291, 28.23791], [79.54375, 28.23791], [79.54375, 28.23875], [79.54708, 28.23875], [79.54708, 28.23958], [79.54958, 28.23958], [79.54958, 28.24041], [79.55041, 28.24041], [79.55041, 28.24125], [79.55125, 28.24125], [79.55125, 28.24208], [79.55208, 28.24208], [79.55208, 28.24291], [79.55291, 28.24291], [79.55291, 28.24208], [79.55791, 28.24208], [79.55791, 28.24458], [79.56041, 28.24458], [79.56041, 28.24541], [79.56125, 28.24541], [79.56125, 28.24625], [79.56208, 28.24625], [79.56208, 28.24791], [79.56291, 28.24791], [79.56291, 28.24875], [79.56375, 28.24875], [79.56375, 28.25125], [79.56291, 28.25125], [79.56291, 28.25208], [79.56208, 28.25208], [79.56208, 28.25375], [79.56125, 28.25375], [79.56125, 28.25458], [79.56041, 28.25458], [79.56041, 28.25625], [79.55958, 28.25625], [79.55958, 28.25708], [79.55875, 28.25708], [79.55875, 28.25791], [79.55791, 28.25791], [79.55791, 28.25958], [79.55708, 28.25958], [79.55708, 28.26125], [79.55625, 28.26125], [79.55625, 28.26208], [79.55541, 28.26208], [79.55541, 28.26291], [79.55458, 28.26291], [79.55458, 28.26375], [79.55375, 28.26375], [79.55375, 28.26458], [79.55291, 28.26458], [79.55291, 28.26791], [79.55208, 28.26791], [79.55208, 28.26875], [79.55041, 28.26875], [79.55041, 28.26958], [79.54958, 28.26958], [79.54958, 28.27125], [79.55041, 28.27125], [79.55041, 28.27208], [79.54958, 28.27208], [79.54958, 28.27375], [79.54875, 28.27375], [79.54875, 28.27541], [79.54791, 28.27541], [79.54791, 28.27625], [79.54625, 28.27625], [79.54625, 28.27708], [79.54541, 28.27708], [79.54541, 28.27875], [79.54458, 28.27875], [79.54458, 28.27958], [79.54375, 28.27958], [79.54375, 28.28041], [79.54208, 28.28041], [79.54208, 28.28125], [79.54125, 28.28125], [79.54125, 28.28291], [79.54041, 28.28291], [79.54041, 28.28375], [79.53958, 28.28375], [79.53958, 28.28458], [79.53875, 28.28458], [79.53875, 28.28541], [79.53791, 28.28541], [79.53791, 28.28625], [79.53625, 28.28625], [79.53625, 28.28708], [79.53541, 28.28708], [79.53541, 28.28791], [79.53458, 28.28791], [79.53458, 28.28875], [79.53291, 28.28875], [79.53291, 28.29041], [79.53208, 28.29041], [79.53208, 28.29291], [79.53291, 28.29291], [79.53291, 28.29375], [79.53125, 28.29375], [79.53125, 28.29458], [79.53041, 28.29458], [79.53041, 28.29541], [79.52958, 28.29541], [79.52958, 28.29625], [79.52791, 28.29625], [79.52791, 28.29708], [79.52458, 28.29708], [79.52458, 28.29791], [79.52375, 28.29791], [79.52375, 28.30041], [79.52291, 28.30041], [79.52291, 28.30541], [79.52375, 28.30541], [79.52375, 28.30625], [79.52458, 28.30625], [79.52458, 28.30708], [79.52541, 28.30708], [79.52541, 28.30791], [79.52625, 28.30791], [79.52625, 28.30875], [79.52708, 28.30875], [79.52708, 28.30958], [79.52625, 28.30958], [79.52625, 28.31375], [79.52708, 28.31375], [79.52708, 28.31458], [79.52458, 28.31458], [79.52458, 28.31541], [79.52375, 28.31541], [79.52375, 28.31625], [79.52291, 28.31625], [79.52291, 28.31541], [79.52208, 28.31541], [79.52208, 28.31625], [79.51958, 28.31625], [79.51958, 28.31375], [79.51791, 28.31375], [79.51791, 28.31541], [79.51708, 28.31541], [79.51708, 28.31625], [79.51625, 28.31625], [79.51625, 28.31708], [79.51458, 28.31708], [79.51458, 28.31791], [79.51375, 28.31791], [79.51375, 28.31958], [79.51291, 28.31958], [79.51291, 28.32125], [79.51208, 28.32125], [79.51208, 28.32208], [79.51125, 28.32208], [79.51125, 28.32291], [79.51041, 28.32291], [79.51041, 28.32208], [79.50875, 28.32208], [79.50875, 28.32375], [79.50958, 28.32375], [79.50958, 28.32458], [79.51041, 28.32458], [79.51041, 28.32625], [79.51208, 28.32625], [79.51208, 28.32875], [79.51291, 28.32875], [79.51291, 28.32958], [79.51375, 28.32958], [79.51375, 28.33041], [79.51458, 28.33041], [79.51458, 28.33125], [79.51625, 28.33125], [79.51625, 28.33208], [79.51791, 28.33208], [79.51791, 28.33458], [79.51875, 28.33458], [79.51875, 28.33625], [79.51958, 28.33625], [79.51958, 28.33875], [79.51875, 28.33875], [79.51875, 28.34125], [79.51958, 28.34125], [79.51958, 28.34375], [79.52208, 28.34375], [79.52208, 28.34541], [79.52291, 28.34541], [79.52291, 28.34625], [79.52375, 28.34625], [79.52375, 28.34708], [79.52291, 28.34708], [79.52291, 28.34791], [79.52208, 28.34791], [79.52208, 28.34875], [79.52125, 28.34875], [79.52125, 28.34958], [79.51958, 28.34958], [79.51958, 28.35291], [79.51708, 28.35291], [79.51708, 28.35541], [79.51458, 28.35541], [79.51458, 28.35458], [79.51208, 28.35458], [79.51208, 28.35541], [79.51125, 28.35541], [79.51125, 28.35708], [79.51208, 28.35708], [79.51208, 28.35875], [79.51125, 28.35875], [79.51125, 28.35958], [79.50875, 28.35958], [79.50875, 28.36041], [79.50791, 28.36041], [79.50791, 28.36291], [79.50625, 28.36291], [79.50625, 28.36541], [79.50708, 28.36541], [79.50708, 28.36708], [79.50791, 28.36708], [79.50791, 28.36875], [79.50875, 28.36875], [79.50875, 28.36958], [79.50958, 28.36958], [79.50958, 28.37041], [79.51041, 28.37041], [79.51041, 28.37208], [79.51125, 28.37208], [79.51125, 28.37291], [79.51208, 28.37291], [79.51208, 28.37375], [79.51291, 28.37375], [79.51291, 28.37541], [79.51375, 28.37541], [79.51375, 28.37625], [79.51458, 28.37625], [79.51458, 28.37791], [79.51541, 28.37791], [79.51541, 28.37958], [79.51625, 28.37958], [79.51625, 28.38125], [79.51791, 28.38125], [79.51791, 28.38208], [79.51875, 28.38208], [79.51875, 28.38541], [79.51958, 28.38541], [79.51958, 28.38708], [79.52041, 28.38708], [79.52041, 28.38958], [79.52125, 28.38958], [79.52125, 28.39125], [79.52208, 28.39125], [79.52208, 28.39291], [79.52291, 28.39291], [79.52291, 28.40208], [79.52375, 28.40208], [79.52375, 28.40708], [79.52291, 28.40708], [79.52291, 28.40791], [79.52208, 28.40791], [79.52208, 28.40958], [79.52041, 28.40958], [79.52041, 28.41041], [79.51958, 28.41041], [79.51958, 28.41125], [79.51875, 28.41125], [79.51875, 28.41291], [79.51708, 28.41291], [79.51708, 28.41375], [79.51625, 28.41375], [79.51625, 28.41458], [79.51541, 28.41458], [79.51541, 28.41541], [79.51458, 28.41541], [79.51458, 28.41625], [79.51291, 28.41625], [79.51291, 28.41708], [79.50958, 28.41708], [79.50958, 28.41791], [79.50791, 28.41791], [79.50791, 28.41875], [79.50625, 28.41875], [79.50625, 28.42458], [79.50208, 28.42458], [79.50208, 28.42375], [79.50125, 28.42375], [79.50125, 28.42458], [79.49875, 28.42458], [79.49875, 28.42791], [79.49791, 28.42791], [79.49791, 28.42875], [79.49708, 28.42875], [79.49708, 28.42958], [79.49625, 28.42958], [79.49625, 28.43041], [79.49541, 28.43041], [79.49541, 28.43125], [79.49625, 28.43125], [79.49625, 28.43375], [79.49708, 28.43375], [79.49708, 28.43541], [79.49625, 28.43541], [79.49625, 28.43958], [79.49458, 28.43958], [79.49458, 28.44208], [79.49375, 28.44208], [79.49375, 28.44458], [79.49458, 28.44458], [79.49458, 28.44791], [79.49625, 28.44791], [79.49625, 28.44875], [79.49791, 28.44875], [79.49791, 28.45125], [79.49875, 28.45125], [79.49875, 28.45208], [79.50208, 28.45208], [79.50208, 28.45291], [79.50291, 28.45291], [79.50291, 28.45375], [79.50458, 28.45375], [79.50458, 28.45625], [79.50541, 28.45625], [79.50541, 28.45708], [79.50625, 28.45708], [79.50625, 28.45791], [79.50791, 28.45791], [79.50791, 28.45875], [79.50875, 28.45875], [79.50875, 28.45958], [79.51208, 28.45958], [79.51208, 28.46041], [79.51375, 28.46041], [79.51375, 28.46125], [79.51625, 28.46125], [79.51625, 28.46208], [79.51875, 28.46208], [79.51875, 28.46291], [79.52041, 28.46291], [79.52041, 28.46541], [79.52125, 28.46541], [79.52125, 28.46625], [79.52291, 28.46625], [79.52291, 28.46708], [79.52375, 28.46708], [79.52375, 28.47541], [79.52458, 28.47541], [79.52458, 28.47625], [79.52541, 28.47625], [79.52541, 28.47791], [79.52708, 28.47791], [79.52708, 28.48125], [79.52541, 28.48125], [79.52541, 28.48041], [79.52458, 28.48041], [79.52458, 28.48125], [79.52375, 28.48125], [79.52375, 28.48291], [79.52291, 28.48291], [79.52291, 28.48375], [79.52125, 28.48375], [79.52125, 28.48458], [79.52208, 28.48458], [79.52208, 28.48708], [79.52291, 28.48708], [79.52291, 28.48791], [79.52208, 28.48791], [79.52208, 28.48958], [79.52125, 28.48958], [79.52125, 28.49375], [79.52291, 28.49375], [79.52291, 28.49708], [79.52375, 28.49708], [79.52375, 28.49791], [79.52291, 28.49791], [79.52291, 28.49875], [79.52375, 28.49875], [79.52375, 28.49958], [79.52458, 28.49958], [79.52458, 28.50041], [79.52541, 28.50041], [79.52541, 28.50208], [79.52458, 28.50208], [79.52458, 28.50375], [79.52375, 28.50375], [79.52375, 28.50625], [79.52458, 28.50625], [79.52458, 28.50708], [79.52375, 28.50708], [79.52375, 28.50791], [79.52458, 28.50791], [79.52458, 28.51041], [79.52625, 28.51041], [79.52625, 28.51125], [79.52791, 28.51125], [79.52791, 28.51208], [79.52875, 28.51208], [79.52875, 28.51375], [79.52958, 28.51375], [79.52958, 28.51958], [79.53041, 28.51958], [79.53041, 28.52208], [79.53208, 28.52208], [79.53208, 28.52125], [79.53291, 28.52125], [79.53291, 28.52375], [79.53458, 28.52375], [79.53458, 28.52458], [79.53625, 28.52458], [79.53625, 28.52541], [79.53791, 28.52541], [79.53791, 28.52625], [79.53958, 28.52625], [79.53958, 28.52708], [79.54125, 28.52708], [79.54125, 28.52791], [79.54291, 28.52791], [79.54291, 28.52875], [79.54375, 28.52875], [79.54375, 28.52791], [79.54458, 28.52791], [79.54458, 28.52875], [79.54625, 28.52875], [79.54625, 28.52958], [79.54708, 28.52958], [79.54708, 28.53041], [79.54958, 28.53041], [79.54958, 28.53125], [79.55125, 28.53125], [79.55125, 28.53208], [79.55208, 28.53208], [79.55208, 28.53291], [79.55375, 28.53291], [79.55375, 28.53375], [79.55541, 28.53375], [79.55541, 28.53458], [79.55708, 28.53458], [79.55708, 28.53541], [79.55958, 28.53541], [79.55958, 28.53625], [79.56208, 28.53625], [79.56208, 28.53708], [79.56291, 28.53708], [79.56291, 28.53791], [79.56708, 28.53791], [79.56708, 28.53708], [79.56791, 28.53708], [79.56791, 28.53791], [79.56875, 28.53791], [79.56875, 28.53875], [79.56958, 28.53875], [79.56958, 28.53958], [79.57125, 28.53958], [79.57125, 28.53875], [79.57291, 28.53875], [79.57291, 28.53791], [79.57458, 28.53791], [79.57458, 28.53875], [79.57541, 28.53875], [79.57541, 28.54041], [79.57708, 28.54041], [79.57708, 28.53958], [79.58541, 28.53958], [79.58541, 28.54208], [79.58458, 28.54208], [79.58458, 28.54291], [79.58291, 28.54291], [79.58291, 28.54375], [79.58125, 28.54375], [79.58125, 28.54458], [79.58041, 28.54458], [79.58041, 28.54375], [79.57958, 28.54375], [79.57958, 28.54625], [79.57791, 28.54625], [79.57791, 28.54708], [79.57708, 28.54708], [79.57708, 28.54958], [79.57625, 28.54958], [79.57625, 28.55041], [79.57708, 28.55041], [79.57708, 28.55208], [79.57791, 28.55208], [79.57791, 28.55458], [79.57625, 28.55458], [79.57625, 28.55708], [79.57791, 28.55708], [79.57791, 28.55791], [79.57875, 28.55791], [79.57875, 28.56041], [79.57958, 28.56041], [79.57958, 28.56125], [79.58041, 28.56125], [79.58041, 28.56208], [79.58125, 28.56208], [79.58125, 28.56291], [79.58208, 28.56291], [79.58208, 28.56375], [79.58041, 28.56375], [79.58041, 28.56541], [79.57625, 28.56541], [79.57625, 28.56625], [79.57541, 28.56625], [79.57541, 28.56708], [79.57458, 28.56708], [79.57458, 28.56791], [79.57125, 28.56791], [79.57125, 28.56708], [79.56958, 28.56708], [79.56958, 28.56791], [79.56875, 28.56791], [79.56875, 28.56875], [79.56958, 28.56875], [79.56958, 28.57041], [79.57208, 28.57041], [79.57208, 28.57125], [79.57375, 28.57125], [79.57375, 28.57375], [79.57541, 28.57375], [79.57541, 28.57791], [79.57625, 28.57791], [79.57625, 28.57875], [79.57791, 28.57875], [79.57791, 28.57958], [79.57958, 28.57958], [79.57958, 28.58041], [79.58041, 28.58041], [79.58041, 28.58291], [79.57958, 28.58291], [79.57958, 28.58625], [79.58041, 28.58625], [79.58041, 28.58875], [79.57958, 28.58875], [79.57958, 28.58958], [79.57875, 28.58958], [79.57875, 28.59208], [79.57958, 28.59208], [79.57958, 28.59458], [79.58041, 28.59458], [79.58041, 28.59625], [79.58125, 28.59625], [79.58125, 28.59708], [79.58208, 28.59708], [79.58208, 28.59958], [79.58291, 28.59958], [79.58291, 28.60041], [79.58208, 28.60041], [79.58208, 28.60541], [79.58291, 28.60541], [79.58291, 28.60708], [79.58375, 28.60708], [79.58375, 28.60958], [79.58291, 28.60958], [79.58291, 28.61041], [79.58208, 28.61041], [79.58208, 28.61125], [79.58291, 28.61125], [79.58291, 28.61208], [79.58208, 28.61208], [79.58208, 28.61375], [79.58125, 28.61375], [79.58125, 28.61458], [79.58041, 28.61458], [79.58041, 28.61541], [79.58125, 28.61541], [79.58125, 28.61625], [79.58208, 28.61625], [79.58208, 28.61708], [79.58291, 28.61708], [79.58291, 28.61791], [79.58208, 28.61791], [79.58208, 28.62375], [79.58125, 28.62375], [79.58125, 28.62791], [79.58291, 28.62791], [79.58291, 28.63041], [79.58375, 28.63041], [79.58375, 28.63125], [79.58458, 28.63125], [79.58458, 28.63458], [79.58625, 28.63458], [79.58625, 28.63625], [79.58708, 28.63625], [79.58708, 28.63875], [79.58791, 28.63875], [79.58791, 28.63958], [79.58875, 28.63958], [79.58875, 28.64041], [79.58708, 28.64041], [79.58708, 28.64375], [79.58625, 28.64375], [79.58625, 28.64541], [79.58708, 28.64541], [79.58708, 28.64791], [79.58791, 28.64791], [79.58791, 28.64875], [79.58708, 28.64875], [79.58708, 28.65041], [79.58625, 28.65041], [79.58625, 28.65208], [79.58541, 28.65208], [79.58541, 28.65375], [79.58375, 28.65375], [79.58375, 28.65458], [79.58291, 28.65458], [79.58291, 28.65541], [79.58375, 28.65541], [79.58375, 28.65625], [79.58458, 28.65625], [79.58458, 28.65791], [79.58375, 28.65791], [79.58375, 28.65875], [79.58458, 28.65875], [79.58458, 28.65958], [79.58541, 28.65958], [79.58541, 28.66541], [79.58625, 28.66541], [79.58625, 28.66791], [79.58541, 28.66791], [79.58541, 28.66875], [79.58458, 28.66875], [79.58458, 28.67125], [79.58541, 28.67125], [79.58541, 28.67208], [79.58625, 28.67208], [79.58625, 28.67291], [79.58541, 28.67291], [79.58541, 28.67375], [79.58458, 28.67375], [79.58458, 28.67458], [79.58375, 28.67458], [79.58375, 28.67791], [79.58291, 28.67791], [79.58291, 28.67958], [79.58375, 28.67958], [79.58375, 28.68041], [79.58625, 28.68041], [79.58625, 28.68291], [79.58375, 28.68291], [79.58375, 28.68375], [79.58208, 28.68375], [79.58208, 28.68458], [79.57958, 28.68458], [79.57958, 28.68375], [79.57875, 28.68375], [79.57875, 28.68291], [79.57791, 28.68291], [79.57791, 28.68125], [79.57708, 28.68125], [79.57708, 28.68041], [79.57625, 28.68041], [79.57625, 28.67958], [79.57541, 28.67958], [79.57541, 28.67875], [79.57208, 28.67875], [79.57208, 28.67958], [79.56958, 28.67958], [79.56958, 28.67708], [79.56791, 28.67708], [79.56791, 28.67625], [79.56708, 28.67625], [79.56708, 28.67291], [79.56541, 28.67291], [79.56541, 28.67375], [79.56291, 28.67375], [79.56291, 28.67291], [79.56208, 28.67291], [79.56208, 28.67208], [79.56125, 28.67208], [79.56125, 28.67125], [79.56041, 28.67125], [79.56041, 28.67041], [79.55958, 28.67041], [79.55958, 28.66958], [79.55875, 28.66958], [79.55875, 28.66875], [79.55791, 28.66875], [79.55791, 28.66708], [79.55708, 28.66708], [79.55708, 28.66625], [79.55375, 28.66625], [79.55375, 28.66541], [79.55291, 28.66541], [79.55291, 28.66458], [79.55208, 28.66458], [79.55208, 28.66125], [79.55291, 28.66125], [79.55291, 28.66041], [79.55208, 28.66041], [79.55208, 28.65791], [79.55125, 28.65791], [79.55125, 28.65708], [79.55041, 28.65708], [79.55041, 28.65541], [79.55125, 28.65541], [79.55125, 28.65291], [79.55041, 28.65291], [79.55041, 28.65208], [79.55125, 28.65208], [79.55125, 28.64958], [79.55291, 28.64958], [79.55291, 28.64708], [79.55208, 28.64708], [79.55208, 28.64625], [79.55041, 28.64625], [79.55041, 28.64541], [79.54958, 28.64541], [79.54958, 28.64458], [79.54875, 28.64458], [79.54875, 28.64375], [79.54625, 28.64375], [79.54625, 28.64208], [79.54541, 28.64208], [79.54541, 28.64125], [79.54458, 28.64125], [79.54458, 28.63208], [79.54375, 28.63208], [79.54375, 28.63125], [79.54291, 28.63125], [79.54291, 28.62875], [79.54375, 28.62875], [79.54375, 28.62791], [79.54458, 28.62791], [79.54458, 28.62708], [79.54541, 28.62708], [79.54541, 28.62541], [79.54625, 28.62541], [79.54625, 28.62291], [79.54541, 28.62291], [79.54541, 28.62208], [79.54458, 28.62208], [79.54458, 28.62125], [79.54541, 28.62125], [79.54541, 28.62041], [79.54625, 28.62041], [79.54625, 28.61791], [79.54375, 28.61791], [79.54375, 28.61875], [79.54208, 28.61875], [79.54208, 28.61958], [79.54125, 28.61958], [79.54125, 28.62041], [79.54041, 28.62041], [79.54041, 28.61958], [79.53875, 28.61958], [79.53875, 28.61875], [79.53791, 28.61875], [79.53791, 28.61791], [79.53541, 28.61791], [79.53541, 28.61708], [79.53458, 28.61708], [79.53458, 28.61458], [79.53541, 28.61458], [79.53541, 28.61375], [79.53458, 28.61375], [79.53458, 28.61208], [79.53375, 28.61208], [79.53375, 28.61125], [79.53208, 28.61125], [79.53208, 28.61041], [79.53125, 28.61041], [79.53125, 28.60958], [79.53041, 28.60958], [79.53041, 28.60875], [79.52791, 28.60875], [79.52791, 28.60625], [79.52875, 28.60625], [79.52875, 28.60541], [79.52958, 28.60541], [79.52958, 28.60208], [79.52875, 28.60208], [79.52875, 28.59958], [79.52791, 28.59958], [79.52791, 28.59541], [79.52708, 28.59541], [79.52708, 28.59458], [79.52291, 28.59458], [79.52291, 28.59291], [79.52208, 28.59291], [79.52208, 28.59375], [79.52125, 28.59375], [79.52125, 28.59291], [79.51875, 28.59291], [79.51875, 28.59208], [79.51625, 28.59208], [79.51625, 28.58875], [79.51208, 28.58875], [79.51208, 28.58958], [79.51125, 28.58958], [79.51125, 28.58875], [79.50958, 28.58875], [79.50958, 28.58625], [79.51041, 28.58625], [79.51041, 28.58458], [79.50958, 28.58458], [79.50958, 28.58375], [79.50875, 28.58375], [79.50875, 28.58291], [79.50791, 28.58291], [79.50791, 28.58375], [79.50708, 28.58375], [79.50708, 28.58291], [79.50625, 28.58291], [79.50625, 28.58125], [79.50541, 28.58125], [79.50541, 28.57875], [79.50458, 28.57875], [79.50458, 28.57791], [79.50375, 28.57791], [79.50375, 28.57708], [79.50291, 28.57708], [79.50291, 28.57625], [79.50208, 28.57625], [79.50208, 28.57541], [79.49791, 28.57541], [79.49791, 28.57375], [79.49875, 28.57375], [79.49875, 28.57291], [79.49958, 28.57291], [79.49958, 28.57125], [79.49875, 28.57125], [79.49875, 28.56958], [79.49625, 28.56958], [79.49625, 28.56791], [79.49791, 28.56791], [79.49791, 28.56541], [79.49708, 28.56541], [79.49708, 28.56208], [79.49625, 28.56208], [79.49625, 28.56041], [79.49541, 28.56041], [79.49541, 28.55958], [79.49375, 28.55958], [79.49375, 28.55875], [79.49291, 28.55875], [79.49291, 28.55791], [79.49208, 28.55791], [79.49208, 28.55625], [79.49125, 28.55625], [79.49125, 28.55541], [79.49041, 28.55541], [79.49041, 28.55375], [79.48958, 28.55375], [79.48958, 28.55291], [79.48875, 28.55291], [79.48875, 28.55125], [79.48791, 28.55125], [79.48791, 28.54958], [79.48875, 28.54958], [79.48875, 28.54875], [79.48958, 28.54875], [79.48958, 28.54458], [79.48875, 28.54458], [79.48875, 28.54291], [79.48791, 28.54291], [79.48791, 28.54208], [79.48708, 28.54208], [79.48708, 28.54041], [79.48625, 28.54041], [79.48625, 28.53875], [79.48541, 28.53875], [79.48541, 28.53708], [79.48625, 28.53708], [79.48625, 28.53625], [79.48791, 28.53625], [79.48791, 28.53458], [79.48708, 28.53458], [79.48708, 28.53375], [79.48625, 28.53375], [79.48625, 28.53291], [79.48541, 28.53291], [79.48541, 28.53125], [79.48458, 28.53125], [79.48458, 28.53041], [79.48291, 28.53041], [79.48291, 28.52958], [79.48208, 28.52958], [79.48208, 28.52875], [79.48291, 28.52875], [79.48291, 28.52375], [79.48375, 28.52375], [79.48375, 28.52291], [79.48291, 28.52291], [79.48291, 28.51791], [79.48208, 28.51791], [79.48208, 28.51541], [79.48125, 28.51541], [79.48125, 28.51375], [79.48041, 28.51375], [79.48041, 28.51458], [79.47958, 28.51458], [79.47958, 28.51541], [79.47875, 28.51541], [79.47875, 28.51625], [79.47708, 28.51625], [79.47708, 28.51458], [79.47375, 28.51458], [79.47375, 28.51375], [79.47291, 28.51375], [79.47291, 28.51291], [79.47041, 28.51291], [79.47041, 28.51208], [79.46958, 28.51208], [79.46958, 28.51291], [79.46708, 28.51291], [79.46708, 28.51208], [79.46625, 28.51208], [79.46625, 28.51125], [79.46541, 28.51125], [79.46541, 28.50875], [79.46458, 28.50875], [79.46458, 28.50791], [79.46375, 28.50791], [79.46375, 28.50541], [79.46458, 28.50541], [79.46458, 28.50291], [79.46375, 28.50291], [79.46375, 28.50041], [79.46458, 28.50041], [79.46458, 28.49958], [79.46541, 28.49958], [79.46541, 28.49708], [79.46458, 28.49708], [79.46458, 28.49625], [79.46208, 28.49625], [79.46208, 28.49708], [79.46125, 28.49708], [79.46125, 28.49791], [79.45708, 28.49791], [79.45708, 28.49875], [79.45625, 28.49875], [79.45625, 28.49958], [79.45458, 28.49958], [79.45458, 28.50041], [79.44958, 28.50041], [79.44958, 28.49958], [79.44875, 28.49958], [79.44875, 28.49791], [79.44791, 28.49791], [79.44791, 28.49625], [79.44875, 28.49625], [79.44875, 28.49541], [79.44791, 28.49541], [79.44791, 28.49375], [79.44708, 28.49375], [79.44708, 28.49291], [79.44791, 28.49291], [79.44791, 28.49208], [79.44708, 28.49208], [79.44708, 28.49125], [79.44625, 28.49125], [79.44625, 28.49041], [79.44541, 28.49041], [79.44541, 28.48541], [79.44458, 28.48541], [79.44458, 28.48125], [79.44375, 28.48125], [79.44375, 28.47708], [79.44291, 28.47708], [79.44291, 28.47458], [79.44208, 28.47458], [79.44208, 28.47208], [79.44041, 28.47208], [79.44041, 28.46958], [79.43958, 28.46958], [79.43958, 28.46875], [79.43875, 28.46875], [79.43875, 28.46791], [79.43791, 28.46791], [79.43791, 28.46708], [79.43541, 28.46708], [79.43541, 28.46625], [79.43291, 28.46625], [79.43291, 28.46708], [79.43208, 28.46708], [79.43208, 28.46458], [79.43041, 28.46458], [79.43041, 28.46125], [79.43125, 28.46125], [79.43125, 28.45958], [79.43041, 28.45958], [79.43041, 28.45875], [79.42958, 28.45875], [79.42958, 28.45791], [79.42875, 28.45791], [79.42875, 28.45625], [79.42791, 28.45625], [79.42791, 28.45375], [79.42875, 28.45375], [79.42875, 28.45208], [79.43041, 28.45208], [79.43041, 28.45125], [79.43125, 28.45125], [79.43125, 28.45041], [79.43208, 28.45041], [79.43208, 28.44958], [79.43291, 28.44958], [79.43291, 28.44791], [79.43375, 28.44791], [79.43375, 28.44708], [79.43541, 28.44708], [79.43541, 28.44375], [79.43458, 28.44375], [79.43458, 28.43958], [79.43375, 28.43958], [79.43375, 28.43875], [79.43291, 28.43875], [79.43291, 28.43791], [79.43208, 28.43791], [79.43208, 28.43708], [79.43291, 28.43708], [79.43291, 28.43291], [79.43208, 28.43291], [79.43208, 28.43125], [79.43125, 28.43125], [79.43125, 28.42875], [79.43041, 28.42875], [79.43041, 28.42791], [79.43125, 28.42791], [79.43125, 28.42458], [79.43208, 28.42458], [79.43208, 28.42291], [79.43291, 28.42291], [79.43291, 28.42208], [79.43375, 28.42208], [79.43375, 28.42291], [79.43458, 28.42291], [79.43458, 28.42125], [79.43541, 28.42125], [79.43541, 28.42041], [79.43625, 28.42041], [79.43625, 28.41875], [79.43541, 28.41875], [79.43541, 28.41791], [79.43625, 28.41791], [79.43625, 28.41708], [79.43541, 28.41708], [79.43541, 28.41541], [79.43458, 28.41541], [79.43458, 28.41458], [79.43375, 28.41458], [79.43375, 28.41125], [79.43291, 28.41125], [79.43291, 28.41041], [79.43208, 28.41041], [79.43208, 28.40958], [79.43125, 28.40958], [79.43125, 28.40791], [79.42875, 28.40791], [79.42875, 28.40875], [79.42708, 28.40875], [79.42708, 28.40791], [79.42541, 28.40791], [79.42541, 28.40708], [79.42625, 28.40708], [79.42625, 28.40458], [79.42708, 28.40458], [79.42708, 28.40208], [79.42875, 28.40208], [79.42875, 28.40125], [79.42958, 28.40125], [79.42958, 28.39958], [79.43041, 28.39958], [79.43041, 28.39875], [79.43125, 28.39875], [79.43125, 28.39708], [79.43041, 28.39708], [79.43041, 28.39625], [79.42958, 28.39625], [79.42958, 28.39208], [79.43041, 28.39208], [79.43041, 28.38875], [79.42958, 28.38875], [79.42958, 28.38708], [79.42875, 28.38708], [79.42875, 28.38625], [79.42958, 28.38625], [79.42958, 28.38541], [79.43041, 28.38541], [79.43041, 28.38375], [79.43125, 28.38375], [79.43125, 28.38208], [79.43041, 28.38208], [79.43041, 28.38125], [79.42958, 28.38125], [79.42958, 28.37958], [79.42875, 28.37958], [79.42875, 28.37875], [79.42791, 28.37875], [79.42791, 28.37708], [79.42708, 28.37708], [79.42708, 28.37458], [79.42625, 28.37458], [79.42625, 28.36375], [79.42708, 28.36375], [79.42708, 28.36208], [79.42625, 28.36208], [79.42625, 28.35958], [79.42541, 28.35958], [79.42541, 28.35875], [79.42291, 28.35875], [79.42291, 28.35708], [79.42375, 28.35708], [79.42375, 28.35541], [79.42291, 28.35541], [79.42291, 28.35208], [79.42375, 28.35208], [79.42375, 28.35125], [79.42291, 28.35125], [79.42291, 28.35041], [79.42208, 28.35041], [79.42208, 28.34708], [79.42125, 28.34708], [79.42125, 28.34625], [79.42208, 28.34625], [79.42208, 28.34458], [79.42375, 28.34458], [79.42375, 28.34208], [79.42458, 28.34208], [79.42458, 28.34041], [79.42375, 28.34041], [79.42375, 28.33875], [79.42291, 28.33875], [79.42291, 28.33708], [79.42458, 28.33708], [79.42458, 28.33458], [79.42541, 28.33458], [79.42541, 28.33375], [79.42625, 28.33375], [79.42625, 28.33208], [79.42791, 28.33208], [79.42791, 28.33291], [79.42875, 28.33291], [79.42875, 28.33208], [79.42958, 28.33208], [79.42958, 28.33125], [79.42875, 28.33125], [79.42875, 28.32958], [79.42958, 28.32958], [79.42958, 28.32708], [79.43041, 28.32708], [79.43041, 28.32541], [79.42875, 28.32541], [79.42875, 28.32375], [79.42541, 28.32375], [79.42541, 28.32541], [79.42208, 28.32541], [79.42208, 28.32458], [79.42125, 28.32458], [79.42125, 28.32291], [79.42208, 28.32291], [79.42208, 28.32208], [79.42375, 28.32208], [79.42375, 28.32125], [79.42458, 28.32125], [79.42458, 28.31791], [79.42541, 28.31791], [79.42541, 28.31708], [79.42625, 28.31708], [79.42625, 28.31625], [79.42791, 28.31625], [79.42791, 28.31541], [79.42958, 28.31541], [79.42958, 28.31291], [79.42708, 28.31291], [79.42708, 28.30958], [79.42625, 28.30958], [79.42625, 28.30875], [79.42541, 28.30875], [79.42541, 28.30958], [79.42291, 28.30958], [79.42291, 28.30875], [79.42208, 28.30875], [79.42208, 28.30791], [79.42041, 28.30791], [79.42041, 28.30708], [79.41958, 28.30708], [79.41958, 28.30625], [79.41791, 28.30625], [79.41791, 28.30291], [79.41708, 28.30291], [79.41708, 28.30041], [79.41625, 28.30041], [79.41625, 28.29958], [79.41708, 28.29958], [79.41708, 28.29708], [79.41541, 28.29708], [79.41541, 28.29625], [79.41208, 28.29625], [79.41208, 28.29541], [79.41125, 28.29541], [79.41125, 28.29458], [79.41041, 28.29458], [79.41041, 28.29541], [79.40958, 28.29541], [79.40958, 28.29625], [79.40541, 28.29625], [79.40541, 28.29541], [79.40625, 28.29541], [79.40625, 28.29125], [79.40791, 28.29125], [79.40791, 28.28958], [79.40708, 28.28958], [79.40708, 28.28625], [79.41041, 28.28625], [79.41041, 28.28458], [79.41125, 28.28458], [79.41125, 28.28375], [79.41291, 28.28375], [79.41291, 28.28041], [79.41625, 28.28041], [79.41625, 28.27958], [79.41708, 28.27958], [79.41708, 28.27875], [79.41791, 28.27875], [79.41791, 28.27708], [79.41875, 28.27708], [79.41875, 28.27625], [79.41958, 28.27625], [79.41958, 28.27375], [79.42041, 28.27375], [79.42041, 28.27291], [79.41875, 28.27291], [79.41875, 28.27208], [79.41791, 28.27208], [79.41791, 28.26875], [79.41875, 28.26875], [79.41875, 28.26791], [79.41958, 28.26791], [79.41958, 28.26625], [79.41875, 28.26625], [79.41875, 28.25875], [79.41958, 28.25875], [79.41958, 28.25791], [79.42041, 28.25791], [79.42041, 28.25458], [79.41958, 28.25458], [79.41958, 28.25125], [79.42125, 28.25125], [79.42125, 28.25041], [79.42208, 28.25041], [79.42208, 28.25125], [79.42458, 28.25125], [79.42458, 28.25041], [79.42625, 28.25041], [79.42625, 28.24791], [79.42541, 28.24791], [79.42541, 28.24625], [79.42625, 28.24625], [79.42625, 28.24541], [79.42875, 28.24541], [79.42875, 28.24291], [79.42958, 28.24291], [79.42958, 28.24041], [79.43125, 28.24041], [79.43125, 28.23625], [79.43291, 28.23625], [79.43291, 28.23208], [79.43375, 28.23208], [79.43375, 28.22708], [79.43291, 28.22708], [79.43291, 28.22625], [79.43208, 28.22625], [79.43208, 28.22375], [79.43041, 28.22375], [79.43041, 28.22291], [79.42958, 28.22291], [79.42958, 28.22208], [79.42541, 28.22208], [79.42541, 28.22125], [79.42625, 28.22125], [79.42625, 28.21958], [79.42708, 28.21958], [79.42708, 28.21791], [79.42875, 28.21791], [79.42875, 28.21708], [79.42958, 28.21708], [79.42958, 28.21625], [79.43041, 28.21625], [79.43041, 28.21208], [79.43125, 28.21208], [79.43125, 28.21125], [79.43375, 28.21125], [79.43375, 28.20958], [79.43458, 28.20958], [79.43458, 28.20791], [79.43541, 28.20791], [79.43541, 28.20625], [79.43625, 28.20625], [79.43625, 28.20041], [79.43708, 28.20041], [79.43708, 28.19875], [79.43791, 28.19875], [79.43791, 28.19958], [79.43875, 28.19958], [79.43875, 28.19875], [79.44208, 28.19875], [79.44208, 28.19791], [79.44291, 28.19791], [79.44291, 28.19708], [79.44458, 28.19708], [79.44458, 28.19625], [79.44625, 28.19625], [79.44625, 28.19375], [79.44791, 28.19375], [79.44791, 28.19208], [79.44708, 28.19208], [79.44708, 28.19041], [79.44625, 28.19041], [79.44625, 28.18875], [79.44708, 28.18875], [79.44708, 28.18791], [79.44791, 28.18791], [79.44791, 28.18375], [79.44708, 28.18375], [79.44708, 28.18291], [79.44625, 28.18291], [79.44625, 28.18208], [79.44708, 28.18208], [79.44708, 28.18041], [79.44875, 28.18041], [79.44875, 28.17958], [79.44791, 28.17958], [79.44791, 28.17708], [79.44625, 28.17708], [79.44625, 28.17541], [79.44708, 28.17541], [79.44708, 28.17458], [79.44791, 28.17458], [79.44791, 28.17375], [79.44958, 28.17375], [79.44958, 28.17291], [79.45041, 28.17291], [79.45041, 28.17041], [79.45125, 28.17041], [79.45125, 28.16958], [79.45208, 28.16958], [79.45208, 28.16875], [79.45291, 28.16875], [79.45291, 28.16625], [79.45375, 28.16625], [79.45375, 28.16541], [79.45458, 28.16541], [79.45458, 28.16458], [79.45708, 28.16458], [79.45708, 28.16375], [79.45875, 28.16375], [79.45875, 28.16458], [79.45958, 28.16458], [79.45958, 28.16375], [79.46041, 28.16375], [79.46041, 28.16291], [79.46291, 28.16291], [79.46291, 28.16375], [79.46375, 28.16375], [79.46375, 28.16291], [79.46458, 28.16291], [79.46458, 28.16041], [79.46375, 28.16041], [79.46375, 28.15791], [79.46291, 28.15791], [79.46291, 28.15708], [79.46375, 28.15708], [79.46375, 28.15541], [79.46541, 28.15541], [79.46541, 28.15625], [79.46791, 28.15625], [79.46791, 28.15541], [79.46875, 28.15541], [79.46875, 28.15458], [79.47208, 28.15458], [79.47208, 28.15625], [79.47291, 28.15625], [79.47291, 28.15708], [79.47375, 28.15708], [79.47375, 28.15625], [79.47458, 28.15625], [79.47458, 28.15541], [79.47625, 28.15541], [79.47625, 28.15375], [79.47708, 28.15375], [79.47708, 28.15291], [79.47875, 28.15291], [79.47875, 28.15041], [79.48125, 28.15041], [79.48125, 28.14958], [79.48208, 28.14958], [79.48208, 28.14791], [79.48291, 28.14791], [79.48291, 28.14625], [79.48375, 28.14625], [79.48375, 28.14541], [79.48791, 28.14541], [79.48791, 28.14625], [79.48875, 28.14625], [79.48875, 28.14541], [79.48958, 28.14541], [79.48958, 28.14458], [79.49041, 28.14458], [79.49041, 28.14375], [79.49208, 28.14375], [79.49208, 28.14458], [79.49375, 28.14458], [79.49375, 28.14541], [79.49458, 28.14541], [79.49458, 28.14458], [79.50208, 28.14458], [79.50208, 28.14541], [79.50291, 28.14541], [79.50291, 28.14791], [79.50458, 28.14791], [79.50458, 28.14958], [79.50625, 28.14958], [79.50625, 28.15125], [79.50875, 28.15125], [79.50875, 28.15041], [79.50958, 28.15041], [79.50958, 28.15291], [79.51041, 28.15291], [79.51041, 28.15458], [79.51125, 28.15458], [79.51125, 28.15541], [79.51208, 28.15541], [79.51208, 28.15791], [79.51375, 28.15791], [79.51375, 28.15958], [79.51458, 28.15958], [79.51458, 28.16041], [79.51625, 28.16041], [79.51625, 28.16208], [79.51541, 28.16208], [79.51541, 28.16291], [79.51458, 28.16291], [79.51458, 28.16375], [79.51375, 28.16375], [79.51375, 28.16458], [79.51208, 28.16458], [79.51208, 28.16708], [79.51125, 28.16708], [79.51125, 28.16791], [79.51041, 28.16791], [79.51041, 28.16958], [79.50958, 28.16958], [79.50958, 28.17125], [79.50875, 28.17125], [79.50875, 28.17291], [79.50708, 28.17291], [79.50708, 28.17541], [79.50625, 28.17541], [79.50625, 28.17625], [79.50541, 28.17625], [79.50541, 28.17791], [79.50291, 28.17791], [79.50291, 28.17875], [79.50208, 28.17875], [79.50208, 28.17958], [79.50125, 28.17958], [79.50125, 28.17875], [79.50041, 28.17875]]]}, "properties": {"name": "whole_river", "description": "Whole Nakatiya, 1.5 km above the Ramganga confluence", "outlet_lon": 79.4873, "outlet_lat": 28.1469, "outlet_river_km": 71.4, "area_km2": 444.4, "source": "MERIT-Hydro 90 m via the Global Watersheds API (mghydro.com)", "retrieved": "2026-10-06"}}, {"type": "Feature", "geometry": {"type": "Polygon", "coordinates": [[[79.49041, 28.42625], [79.49041, 28.42875], [79.49041, 28.43125], [79.48958, 28.43125], [79.48958, 28.43375], [79.49041, 28.43375], [79.49041, 28.44208], [79.49125, 28.44208], [79.49125, 28.44791], [79.49291, 28.44791], [79.49291, 28.45041], [79.49375, 28.45041], [79.49375, 28.45208], [79.49458, 28.45208], [79.49458, 28.45291], [79.49541, 28.45291], [79.49541, 28.45375], [79.49625, 28.45375], [79.49625, 28.45541], [79.49708, 28.45541], [79.49708, 28.45708], [79.49791, 28.45708], [79.49791, 28.45791], [79.49875, 28.45791], [79.49875, 28.46041], [79.50125, 28.46041], [79.50125, 28.46208], [79.50291, 28.46208], [79.50291, 28.46291], [79.50458, 28.46291], [79.50458, 28.46375], [79.50625, 28.46375], [79.50625, 28.46458], [79.50791, 28.46458], [79.50791, 28.46541], [79.50875, 28.46541], [79.50875, 28.46791], [79.51208, 28.46791], [79.51208, 28.47041], [79.51291, 28.47041], [79.51291, 28.47291], [79.51375, 28.47291], [79.51375, 28.47375], [79.51541, 28.47375], [79.51541, 28.47458], [79.51625, 28.47458], [79.51625, 28.47625], [79.51541, 28.47625], [79.51541, 28.47958], [79.51458, 28.47958], [79.51458, 28.48041], [79.51541, 28.48041], [79.51541, 28.48125], [79.51708, 28.48125], [79.51708, 28.48208], [79.51791, 28.48208], [79.51791, 28.48291], [79.51875, 28.48291], [79.51875, 28.48375], [79.52041, 28.48375], [79.52041, 28.48458], [79.52208, 28.48458], [79.52208, 28.48708], [79.52291, 28.48708], [79.52291, 28.48791], [79.52208, 28.48791], [79.52208, 28.48958], [79.52125, 28.48958], [79.52125, 28.49375], [79.52291, 28.49375], [79.52291, 28.49708], [79.52375, 28.49708], [79.52375, 28.49791], [79.52291, 28.49791], [79.52291, 28.49875], [79.52375, 28.49875], [79.52375, 28.49958], [79.52458, 28.49958], [79.52458, 28.50041], [79.52541, 28.50041], [79.52541, 28.50208], [79.52458, 28.50208], [79.52458, 28.50375], [79.52375, 28.50375], [79.52375, 28.50625], [79.52458, 28.50625], [79.52458, 28.50708], [79.52375, 28.50708], [79.52375, 28.50791], [79.52458, 28.50791], [79.52458, 28.51041], [79.52625, 28.51041], [79.52625, 28.51125], [79.52791, 28.51125], [79.52791, 28.51208], [79.52875, 28.51208], [79.52875, 28.51375], [79.52958, 28.51375], [79.52958, 28.51958], [79.53041, 28.51958], [79.53041, 28.52208], [79.53208, 28.52208], [79.53208, 28.52125], [79.53291, 28.52125], [79.53291, 28.52375], [79.53458, 28.52375], [79.53458, 28.52458], [79.53625, 28.52458], [79.53625, 28.52541], [79.53791, 28.52541], [79.53791, 28.52625], [79.53958, 28.52625], [79.53958, 28.52708], [79.54125, 28.52708], [79.54125, 28.52791], [79.54291, 28.52791], [79.54291, 28.52875], [79.54375, 28.52875], [79.54375, 28.52791], [79.54458, 28.52791], [79.54458, 28.52875], [79.54625, 28.52875], [79.54625, 28.52958], [79.54708, 28.52958], [79.54708, 28.53041], [79.54958, 28.53041], [79.54958, 28.53125], [79.55125, 28.53125], [79.55125, 28.53208], [79.55208, 28.53208], [79.55208, 28.53291], [79.55375, 28.53291], [79.55375, 28.53375], [79.55541, 28.53375], [79.55541, 28.53458], [79.55708, 28.53458], [79.55708, 28.53541], [79.55958, 28.53541], [79.55958, 28.53625], [79.56208, 28.53625], [79.56208, 28.53708], [79.56291, 28.53708], [79.56291, 28.53791], [79.56708, 28.53791], [79.56708, 28.53708], [79.56791, 28.53708], [79.56791, 28.53791], [79.56875, 28.53791], [79.56875, 28.53875], [79.56958, 28.53875], [79.56958, 28.53958], [79.57125, 28.53958], [79.57125, 28.53875], [79.57291, 28.53875], [79.57291, 28.53791], [79.57458, 28.53791], [79.57458, 28.53875], [79.57541, 28.53875], [79.57541, 28.54041], [79.57708, 28.54041], [79.57708, 28.53958], [79.58541, 28.53958], [79.58541, 28.54208], [79.58458, 28.54208], [79.58458, 28.54291], [79.58291, 28.54291], [79.58291, 28.54375], [79.58125, 28.54375], [79.58125, 28.54458], [79.58041, 28.54458], [79.58041, 28.54375], [79.57958, 28.54375], [79.57958, 28.54625], [79.57791, 28.54625], [79.57791, 28.54708], [79.57708, 28.54708], [79.57708, 28.54958], [79.57625, 28.54958], [79.57625, 28.55041], [79.57708, 28.55041], [79.57708, 28.55208], [79.57791, 28.55208], [79.57791, 28.55458], [79.57625, 28.55458], [79.57625, 28.55708], [79.57791, 28.55708], [79.57791, 28.55791], [79.57875, 28.55791], [79.57875, 28.56041], [79.57958, 28.56041], [79.57958, 28.56125], [79.58041, 28.56125], [79.58041, 28.56208], [79.58125, 28.56208], [79.58125, 28.56291], [79.58208, 28.56291], [79.58208, 28.56375], [79.58041, 28.56375], [79.58041, 28.56541], [79.57625, 28.56541], [79.57625, 28.56625], [79.57541, 28.56625], [79.57541, 28.56708], [79.57458, 28.56708], [79.57458, 28.56791], [79.57125, 28.56791], [79.57125, 28.56708], [79.56958, 28.56708], [79.56958, 28.56791], [79.56875, 28.56791], [79.56875, 28.56875], [79.56958, 28.56875], [79.56958, 28.57041], [79.57208, 28.57041], [79.57208, 28.57125], [79.57375, 28.57125], [79.57375, 28.57375], [79.57541, 28.57375], [79.57541, 28.57791], [79.57625, 28.57791], [79.57625, 28.57875], [79.57791, 28.57875], [79.57791, 28.57958], [79.57958, 28.57958], [79.57958, 28.58041], [79.58041, 28.58041], [79.58041, 28.58291], [79.57958, 28.58291], [79.57958, 28.58625], [79.58041, 28.58625], [79.58041, 28.58875], [79.57958, 28.58875], [79.57958, 28.58958], [79.57875, 28.58958], [79.57875, 28.59208], [79.57958, 28.59208], [79.57958, 28.59458], [79.58041, 28.59458], [79.58041, 28.59625], [79.58125, 28.59625], [79.58125, 28.59708], [79.58208, 28.59708], [79.58208, 28.59958], [79.58291, 28.59958], [79.58291, 28.60041], [79.58208, 28.60041], [79.58208, 28.60541], [79.58291, 28.60541], [79.58291, 28.60708], [79.58375, 28.60708], [79.58375, 28.60958], [79.58291, 28.60958], [79.58291, 28.61041], [79.58208, 28.61041], [79.58208, 28.61125], [79.58291, 28.61125], [79.58291, 28.61208], [79.58208, 28.61208], [79.58208, 28.61375], [79.58125, 28.61375], [79.58125, 28.61458], [79.58041, 28.61458], [79.58041, 28.61541], [79.58125, 28.61541], [79.58125, 28.61625], [79.58208, 28.61625], [79.58208, 28.61708], [79.58291, 28.61708], [79.58291, 28.61791], [79.58208, 28.61791], [79.58208, 28.62375], [79.58125, 28.62375], [79.58125, 28.62791], [79.58291, 28.62791], [79.58291, 28.63041], [79.58375, 28.63041], [79.58375, 28.63125], [79.58458, 28.63125], [79.58458, 28.63458], [79.58625, 28.63458], [79.58625, 28.63625], [79.58708, 28.63625], [79.58708, 28.63875], [79.58791, 28.63875], [79.58791, 28.63958], [79.58875, 28.63958], [79.58875, 28.64041], [79.58708, 28.64041], [79.58708, 28.64375], [79.58625, 28.64375], [79.58625, 28.64541], [79.58708, 28.64541], [79.58708, 28.64791], [79.58791, 28.64791], [79.58791, 28.64875], [79.58708, 28.64875], [79.58708, 28.65041], [79.58625, 28.65041], [79.58625, 28.65208], [79.58541, 28.65208], [79.58541, 28.65375], [79.58375, 28.65375], [79.58375, 28.65458], [79.58291, 28.65458], [79.58291, 28.65541], [79.58375, 28.65541], [79.58375, 28.65625], [79.58458, 28.65625], [79.58458, 28.65791], [79.58375, 28.65791], [79.58375, 28.65875], [79.58458, 28.65875], [79.58458, 28.65958], [79.58541, 28.65958], [79.58541, 28.66541], [79.58625, 28.66541], [79.58625, 28.66791], [79.58541, 28.66791], [79.58541, 28.66875], [79.58458, 28.66875], [79.58458, 28.67125], [79.58541, 28.67125], [79.58541, 28.67208], [79.58625, 28.67208], [79.58625, 28.67291], [79.58541, 28.67291], [79.58541, 28.67375], [79.58458, 28.67375], [79.58458, 28.67458], [79.58375, 28.67458], [79.58375, 28.67791], [79.58291, 28.67791], [79.58291, 28.67958], [79.58375, 28.67958], [79.58375, 28.68041], [79.58625, 28.68041], [79.58625, 28.68291], [79.58375, 28.68291], [79.58375, 28.68375], [79.58208, 28.68375], [79.58208, 28.68458], [79.57958, 28.68458], [79.57958, 28.68375], [79.57875, 28.68375], [79.57875, 28.68291], [79.57791, 28.68291], [79.57791, 28.68125], [79.57708, 28.68125], [79.57708, 28.68041], [79.57625, 28.68041], [79.57625, 28.67958], [79.57541, 28.67958], [79.57541, 28.67875], [79.57208, 28.67875], [79.57208, 28.67958], [79.56958, 28.67958], [79.56958, 28.67708], [79.56791, 28.67708], [79.56791, 28.67625], [79.56708, 28.67625], [79.56708, 28.67291], [79.56541, 28.67291], [79.56541, 28.67375], [79.56291, 28.67375], [79.56291, 28.67291], [79.56208, 28.67291], [79.56208, 28.67208], [79.56125, 28.67208], [79.56125, 28.67125], [79.56041, 28.67125], [79.56041, 28.67041], [79.55958, 28.67041], [79.55958, 28.66958], [79.55875, 28.66958], [79.55875, 28.66875], [79.55791, 28.66875], [79.55791, 28.66708], [79.55708, 28.66708], [79.55708, 28.66625], [79.55375, 28.66625], [79.55375, 28.66541], [79.55291, 28.66541], [79.55291, 28.66458], [79.55208, 28.66458], [79.55208, 28.66125], [79.55291, 28.66125], [79.55291, 28.66041], [79.55208, 28.66041], [79.55208, 28.65791], [79.55125, 28.65791], [79.55125, 28.65708], [79.55041, 28.65708], [79.55041, 28.65541], [79.55125, 28.65541], [79.55125, 28.65291], [79.55041, 28.65291], [79.55041, 28.65208], [79.55125, 28.65208], [79.55125, 28.64958], [79.55291, 28.64958], [79.55291, 28.64708], [79.55208, 28.64708], [79.55208, 28.64625], [79.55041, 28.64625], [79.55041, 28.64541], [79.54958, 28.64541], [79.54958, 28.64458], [79.54875, 28.64458], [79.54875, 28.64375], [79.54625, 28.64375], [79.54625, 28.64208], [79.54541, 28.64208], [79.54541, 28.64125], [79.54458, 28.64125], [79.54458, 28.63208], [79.54375, 28.63208], [79.54375, 28.63125], [79.54291, 28.63125], [79.54291, 28.62875], [79.54375, 28.62875], [79.54375, 28.62791], [79.54458, 28.62791], [79.54458, 28.62708], [79.54541, 28.62708], [79.54541, 28.62541], [79.54625, 28.62541], [79.54625, 28.62291], [79.54541, 28.62291], [79.54541, 28.62208], [79.54458, 28.62208], [79.54458, 28.62125], [79.54541, 28.62125], [79.54541, 28.62041], [79.54625, 28.62041], [79.54625, 28.61791], [79.54375, 28.61791], [79.54375, 28.61875], [79.54208, 28.61875], [79.54208, 28.61958], [79.54125, 28.61958], [79.54125, 28.62041], [79.54041, 28.62041], [79.54041, 28.61958], [79.53875, 28.61958], [79.53875, 28.61875], [79.53791, 28.61875], [79.53791, 28.61791], [79.53541, 28.61791], [79.53541, 28.61708], [79.53458, 28.61708], [79.53458, 28.61458], [79.53541, 28.61458], [79.53541, 28.61375], [79.53458, 28.61375], [79.53458, 28.61208], [79.53375, 28.61208], [79.53375, 28.61125], [79.53208, 28.61125], [79.53208, 28.61041], [79.53125, 28.61041], [79.53125, 28.60958], [79.53041, 28.60958], [79.53041, 28.60875], [79.52791, 28.60875], [79.52791, 28.60625], [79.52875, 28.60625], [79.52875, 28.60541], [79.52958, 28.60541], [79.52958, 28.60208], [79.52875, 28.60208], [79.52875, 28.59958], [79.52791, 28.59958], [79.52791, 28.59541], [79.52708, 28.59541], [79.52708, 28.59458], [79.52291, 28.59458], [79.52291, 28.59291], [79.52208, 28.59291], [79.52208, 28.59375], [79.52125, 28.59375], [79.52125, 28.59291], [79.51875, 28.59291], [79.51875, 28.59208], [79.51625, 28.59208], [79.51625, 28.58875], [79.51208, 28.58875], [79.51208, 28.58958], [79.51125, 28.58958], [79.51125, 28.58875], [79.50958, 28.58875], [79.50958, 28.58625], [79.51041, 28.58625], [79.51041, 28.58458], [79.50958, 28.58458], [79.50958, 28.58375], [79.50875, 28.58375], [79.50875, 28.58291], [79.50791, 28.58291], [79.50791, 28.58375], [79.50708, 28.58375], [79.50708, 28.58291], [79.50625, 28.58291], [79.50625, 28.58125], [79.50541, 28.58125], [79.50541, 28.57875], [79.50458, 28.57875], [79.50458, 28.57791], [79.50375, 28.57791], [79.50375, 28.57708], [79.50291, 28.57708], [79.50291, 28.57625], [79.50208, 28.57625], [79.50208, 28.57541], [79.49791, 28.57541], [79.49791, 28.57375], [79.49875, 28.57375], [79.49875, 28.57291], [79.49958, 28.57291], [79.49958, 28.57125], [79.49875, 28.57125], [79.49875, 28.56958], [79.49625, 28.56958], [79.49625, 28.56791], [79.49791, 28.56791], [79.49791, 28.56541], [79.49708, 28.56541], [79.49708, 28.56208], [79.49625, 28.56208], [79.49625, 28.56041], [79.49541, 28.56041], [79.49541, 28.55958], [79.49375, 28.55958], [79.49375, 28.55875], [79.49291, 28.55875], [79.49291, 28.55791], [79.49208, 28.55791], [79.49208, 28.55625], [79.49125, 28.55625], [79.49125, 28.55541], [79.49041, 28.55541], [79.49041, 28.55375], [79.48958, 28.55375], [79.48958, 28.55291], [79.48875, 28.55291], [79.48875, 28.55125], [79.48791, 28.55125], [79.48791, 28.54958], [79.48875, 28.54958], [79.48875, 28.54875], [79.48958, 28.54875], [79.48958, 28.54458], [79.48875, 28.54458], [79.48875, 28.54291], [79.48791, 28.54291], [79.48791, 28.54208], [79.48708, 28.54208], [79.48708, 28.54041], [79.48625, 28.54041], [79.48625, 28.53875], [79.48541, 28.53875], [79.48541, 28.53708], [79.48625, 28.53708], [79.48625, 28.53625], [79.48791, 28.53625], [79.48791, 28.53458], [79.48708, 28.53458], [79.48708, 28.53375], [79.48625, 28.53375], [79.48625, 28.53291], [79.48541, 28.53291], [79.48541, 28.53125], [79.48458, 28.53125], [79.48458, 28.53041], [79.48291, 28.53041], [79.48291, 28.52958], [79.48208, 28.52958], [79.48208, 28.52875], [79.48291, 28.52875], [79.48291, 28.52375], [79.48375, 28.52375], [79.48375, 28.52291], [79.48291, 28.52291], [79.48291, 28.51791], [79.48208, 28.51791], [79.48208, 28.51541], [79.48125, 28.51541], [79.48125, 28.51375], [79.48041, 28.51375], [79.48041, 28.51458], [79.47958, 28.51458], [79.47958, 28.51541], [79.47875, 28.51541], [79.47875, 28.51625], [79.47708, 28.51625], [79.47708, 28.51458], [79.47375, 28.51458], [79.47375, 28.51375], [79.47291, 28.51375], [79.47291, 28.51291], [79.47041, 28.51291], [79.47041, 28.51208], [79.46958, 28.51208], [79.46958, 28.51291], [79.46708, 28.51291], [79.46708, 28.51208], [79.46625, 28.51208], [79.46625, 28.51125], [79.46541, 28.51125], [79.46541, 28.50875], [79.46458, 28.50875], [79.46458, 28.50791], [79.46375, 28.50791], [79.46375, 28.50541], [79.46458, 28.50541], [79.46458, 28.50291], [79.46375, 28.50291], [79.46375, 28.50041], [79.46458, 28.50041], [79.46458, 28.49958], [79.46541, 28.49958], [79.46541, 28.49708], [79.46458, 28.49708], [79.46458, 28.49625], [79.46208, 28.49625], [79.46208, 28.49708], [79.46125, 28.49708], [79.46125, 28.49791], [79.45708, 28.49791], [79.45708, 28.49875], [79.45625, 28.49875], [79.45625, 28.49958], [79.45458, 28.49958], [79.45458, 28.50041], [79.44958, 28.50041], [79.44958, 28.49958], [79.44875, 28.49958], [79.44875, 28.49791], [79.44791, 28.49791], [79.44791, 28.49625], [79.44875, 28.49625], [79.44875, 28.49541], [79.44791, 28.49541], [79.44791, 28.49375], [79.44708, 28.49375], [79.44708, 28.49291], [79.44791, 28.49291], [79.44791, 28.49208], [79.44708, 28.49208], [79.44708, 28.49125], [79.44625, 28.49125], [79.44625, 28.49041], [79.44541, 28.49041], [79.44541, 28.48541], [79.44458, 28.48541], [79.44458, 28.48125], [79.44375, 28.48125], [79.44375, 28.47708], [79.44291, 28.47708], [79.44291, 28.47458], [79.44208, 28.47458], [79.44208, 28.47208], [79.44041, 28.47208], [79.44041, 28.46958], [79.43958, 28.46958], [79.43958, 28.46875], [79.43875, 28.46875], [79.43875, 28.46791], [79.43791, 28.46791], [79.43791, 28.46708], [79.43541, 28.46708], [79.43541, 28.46625], [79.43291, 28.46625], [79.43291, 28.46708], [79.43208, 28.46708], [79.43208, 28.46458], [79.43041, 28.46458], [79.43041, 28.46125], [79.43125, 28.46125], [79.43125, 28.45958], [79.43041, 28.45958], [79.43041, 28.45875], [79.42958, 28.45875], [79.42958, 28.45791], [79.42875, 28.45791], [79.42875, 28.45625], [79.42791, 28.45625], [79.42791, 28.45375], [79.42875, 28.45375], [79.42875, 28.45208], [79.43041, 28.45208], [79.43041, 28.45125], [79.43125, 28.45125], [79.43125, 28.45041], [79.43208, 28.45041], [79.43208, 28.44958], [79.43291, 28.44958], [79.43291, 28.44791], [79.43375, 28.44791], [79.43375, 28.44708], [79.43541, 28.44708], [79.43541, 28.44375], [79.43458, 28.44375], [79.43458, 28.43958], [79.43375, 28.43958], [79.43375, 28.43875], [79.43291, 28.43875], [79.43291, 28.43791], [79.43208, 28.43791], [79.43208, 28.43708], [79.43291, 28.43708], [79.43291, 28.43291], [79.43208, 28.43291], [79.43208, 28.43125], [79.43125, 28.43125], [79.43125, 28.42875], [79.43041, 28.42875], [79.43041, 28.42791], [79.43125, 28.42791], [79.43125, 28.42458], [79.43208, 28.42458], [79.43208, 28.42291], [79.43291, 28.42291], [79.43291, 28.42208], [79.43375, 28.42208], [79.43375, 28.42291], [79.43458, 28.42291], [79.43458, 28.42125], [79.43541, 28.42125], [79.43541, 28.42041], [79.43625, 28.42041], [79.43625, 28.41875], [79.43541, 28.41875], [79.43541, 28.41791], [79.43625, 28.41791], [79.43625, 28.41708], [79.43541, 28.41708], [79.43541, 28.41541], [79.43458, 28.41541], [79.43458, 28.41458], [79.43375, 28.41458], [79.43375, 28.41125], [79.43291, 28.41125], [79.43291, 28.41041], [79.43208, 28.41041], [79.43208, 28.40958], [79.43125, 28.40958], [79.43125, 28.40791], [79.42875, 28.40791], [79.42875, 28.40875], [79.42708, 28.40875], [79.42708, 28.40791], [79.42541, 28.40791], [79.42541, 28.40708], [79.42625, 28.40708], [79.42625, 28.40458], [79.42708, 28.40458], [79.42708, 28.40208], [79.42875, 28.40208], [79.42875, 28.40125], [79.42958, 28.40125], [79.42958, 28.39958], [79.43041, 28.39958], [79.43041, 28.39875], [79.43125, 28.39875], [79.43125, 28.39708], [79.43041, 28.39708], [79.43041, 28.39625], [79.42958, 28.39625], [79.42958, 28.39208], [79.43041, 28.39208], [79.43041, 28.38875], [79.42958, 28.38875], [79.42958, 28.38708], [79.42875, 28.38708], [79.42875, 28.38625], [79.42958, 28.38625], [79.42958, 28.38541], [79.43041, 28.38541], [79.43041, 28.38375], [79.43125, 28.38375], [79.43125, 28.38208], [79.43041, 28.38208], [79.43041, 28.38125], [79.42958, 28.38125], [79.42958, 28.37958], [79.42875, 28.37958], [79.42875, 28.37875], [79.42791, 28.37875], [79.42791, 28.37708], [79.42708, 28.37708], [79.42708, 28.37458], [79.42625, 28.37458], [79.42625, 28.36375], [79.42708, 28.36375], [79.42708, 28.36208], [79.42625, 28.36208], [79.42625, 28.36041], [79.43208, 28.36041], [79.43208, 28.35958], [79.43375, 28.35958], [79.43375, 28.35875], [79.43625, 28.35875], [79.43625, 28.35791], [79.43708, 28.35791], [79.43708, 28.35708], [79.43625, 28.35708], [79.43625, 28.35625], [79.43708, 28.35625], [79.43708, 28.35541], [79.43791, 28.35541], [79.43791, 28.35458], [79.43875, 28.35458], [79.43875, 28.35375], [79.44041, 28.35375], [79.44041, 28.35125], [79.44125, 28.35125], [79.44125, 28.35041], [79.44208, 28.35041], [79.44208, 28.34958], [79.44291, 28.34958], [79.44291, 28.34875], [79.44541, 28.34875], [79.44541, 28.34791], [79.44708, 28.34791], [79.44708, 28.34541], [79.45291, 28.34541], [79.45291, 28.34625], [79.45458, 28.34625], [79.45458, 28.34791], [79.45541, 28.34791], [79.45541, 28.34708], [79.45625, 28.34708], [79.45625, 28.34791], [79.45791, 28.34791], [79.45791, 28.34708], [79.46125, 28.34708], [79.46125, 28.34625], [79.46208, 28.34625], [79.46208, 28.34291], [79.46291, 28.34291], [79.46291, 28.34208], [79.46375, 28.34208], [79.46375, 28.34125], [79.46541, 28.34125], [79.46541, 28.34041], [79.46625, 28.34041], [79.46625, 28.33958], [79.47125, 28.33958], [79.47125, 28.33875], [79.47041, 28.33875], [79.47041, 28.33791], [79.47125, 28.33791], [79.47125, 28.33708], [79.47208, 28.33708], [79.47208, 28.33541], [79.47375, 28.33541], [79.47375, 28.33625], [79.47541, 28.33625], [79.47541, 28.33791], [79.47625, 28.33791], [79.47625, 28.33875], [79.47875, 28.33875], [79.47875, 28.34041], [79.48041, 28.34041], [79.48041, 28.33958], [79.48125, 28.33958], [79.48125, 28.34208], [79.48375, 28.34208], [79.48375, 28.34125], [79.48458, 28.34125], [79.48458, 28.34041], [79.48541, 28.34041], [79.48541, 28.33625], [79.48625, 28.33625], [79.48625, 28.33541], [79.48708, 28.33541], [79.48708, 28.33458], [79.49041, 28.33458], [79.49041, 28.33541], [79.49375, 28.33541], [79.49375, 28.33458], [79.50208, 28.33458], [79.50208, 28.33541], [79.50458, 28.33541], [79.50458, 28.33791], [79.50541, 28.33791], [79.50541, 28.33875], [79.50875, 28.33875], [79.50875, 28.33791], [79.51041, 28.33791], [79.51041, 28.33875], [79.51125, 28.33875], [79.51125, 28.34958], [79.51041, 28.34958], [79.51041, 28.35291], [79.50958, 28.35291], [79.50958, 28.35375], [79.50708, 28.35375], [79.50708, 28.35458], [79.50625, 28.35458], [79.50625, 28.35708], [79.50541, 28.35708], [79.50541, 28.35791], [79.50458, 28.35791], [79.50458, 28.35875], [79.50375, 28.35875], [79.50375, 28.35958], [79.50291, 28.35958], [79.50291, 28.36375], [79.50208, 28.36375], [79.50208, 28.36458], [79.50291, 28.36458], [79.50291, 28.36708], [79.50375, 28.36708], [79.50375, 28.36791], [79.50458, 28.36791], [79.50458, 28.36958], [79.50541, 28.36958], [79.50541, 28.37041], [79.50625, 28.37041], [79.50625, 28.37291], [79.50708, 28.37291], [79.50708, 28.37458], [79.50791, 28.37458], [79.50791, 28.37375], [79.50875, 28.37375], [79.50875, 28.37458], [79.50958, 28.37458], [79.50958, 28.37541], [79.51041, 28.37541], [79.51041, 28.37791], [79.51125, 28.37791], [79.51125, 28.37958], [79.51041, 28.37958], [79.51041, 28.38125], [79.51125, 28.38125], [79.51125, 28.38208], [79.51208, 28.38208], [79.51208, 28.38291], [79.51458, 28.38291], [79.51458, 28.38708], [79.51625, 28.38708], [79.51625, 28.39208], [79.51541, 28.39208], [79.51541, 28.39625], [79.51708, 28.39625], [79.51708, 28.40125], [79.51791, 28.40125], [79.51791, 28.40291], [79.51875, 28.40291], [79.51875, 28.40458], [79.51791, 28.40458], [79.51791, 28.40708], [79.51875, 28.40708], [79.51875, 28.40791], [79.51791, 28.40791], [79.51791, 28.40875], [79.51625, 28.40875], [79.51625, 28.40958], [79.51541, 28.40958], [79.51541, 28.41041], [79.51375, 28.41041], [79.51375, 28.41125], [79.51291, 28.41125], [79.51291, 28.41208], [79.51208, 28.41208], [79.51208, 28.41125], [79.51041, 28.41125], [79.51041, 28.41291], [79.50958, 28.41291], [79.50958, 28.41375], [79.50875, 28.41375], [79.50875, 28.41458], [79.50625, 28.41458], [79.50625, 28.41625], [79.50458, 28.41625], [79.50458, 28.41708], [79.50291, 28.41708], [79.50291, 28.41791], [79.50208, 28.41791], [79.50208, 28.41875], [79.49541, 28.41875], [79.49541, 28.42125], [79.49458, 28.42125], [79.49458, 28.42208], [79.49375, 28.42208], [79.49375, 28.42375], [79.49291, 28.42375], [79.49291, 28.42458], [79.49125, 28.42458], [79.49125, 28.42625], [79.49041, 28.42625]]]}, "properties": {"name": "khajuria", "description": "Nakatiya at Saidpur Khajuria, just before the city", "outlet_lon": 79.4711, "outlet_lat": 28.338, "outlet_river_km": 34.0, "area_km2": 234.6, "source": "MERIT-Hydro 90 m via the Global Watersheds API (mghydro.com)", "retrieved": "2026-10-06"}}]}