{"type":"FeatureCollection","name":"qila_candidate_osm","attribution":"OpenStreetMap contributors, ODbL 1.0 (unnamed waterway=river ways; identified as the Qila by local knowledge, unverified)","features":[{"type":"Feature","properties":{"osm_way":297155769,"waterway":"river"},"geometry":{"type":"LineString","coordinates":[[79.566341,28.767052],[79.566459,28.766977],[79.566566,28.766824],[79.566566,28.76669],[79.566502,28.766533],[79.566473,28.766394],[79.566515,28.766286],[79.566574,28.766197],[79.566727,28.765889],[79.566816,28.765771],[79.566966,28.765651],[79.567621,28.765449],[79.567918,28.765421],[79.568232,28.765404],[79.568495,28.76535],[79.568683,28.765273],[79.568881,28.765134],[79.569096,28.764915],[79.56942,28.764478],[79.569697,28.764043],[79.569737,28.763932],[79.569734,28.763841],[79.569691,28.763775],[79.569557,28.763648],[79.569361,28.763596],[79.569195,28.763587],[79.569047,28.763624],[79.568916,28.763676],[79.568763,28.763711],[79.568607,28.763711],[79.568487,28.763697],[79.568377,28.763662],[79.568269,28.763594],[79.568165,28.763465],[79.568114,28.763267],[79.568111,28.762961],[79.568224,28.762625],[79.568487,28.761964],[79.568637,28.761837],[79.568691,28.761765],[79.568728,28.761656],[79.56875,28.761308],[79.56872,28.760873],[79.568656,28.7605],[79.56853,28.760194],[79.568436,28.760093],[79.568299,28.760018],[79.568087,28.76001],[79.567918,28.759923],[79.567468,28.759493],[79.567336,28.759439],[79.567183,28.75942],[79.566993,28.759451],[79.566837,28.759514],[79.566566,28.759923],[79.566231,28.760281],[79.565257,28.760873],[79.565048,28.760939],[79.564834,28.760911],[79.564646,28.760852],[79.564539,28.760753],[79.564477,28.760641],[79.564512,28.760504],[79.564584,28.760312],[79.565038,28.75946],[79.565072,28.759333],[79.565021,28.759192],[79.56485,28.758962],[79.564501,28.758654],[79.564353,28.758489],[79.564211,28.758235],[79.564066,28.757758],[79.564021,28.757553],[79.564083,28.757407],[79.564501,28.756994],[79.56474,28.756714],[79.565045,28.756448],[79.565247,28.756338],[79.565534,28.756206],[79.565665,28.756131],[79.565732,28.756048],[79.565743,28.75591],[79.565692,28.755841],[79.56559,28.755785],[79.565413,28.755726],[79.565231,28.755613],[79.565161,28.755503],[79.565118,28.755324],[79.565113,28.754332],[79.565177,28.75384],[79.565327,28.753342],[79.565528,28.753048],[79.56588,28.752747],[79.566558,28.75234],[79.567299,28.751931],[79.56743,28.751813],[79.567497,28.751703],[79.567516,28.751583],[79.567449,28.751479],[79.56713,28.7514],[79.566531,28.751435],[79.566261,28.751388],[79.565984,28.751317],[79.565767,28.751193],[79.565612,28.751028],[79.565528,28.750866],[79.56533,28.75072],[79.56493,28.750501],[79.564694,28.750346],[79.564321,28.750003],[79.564066,28.749662],[79.563957,28.749412],[79.563927,28.749224],[79.563965,28.749067],[79.564348,28.748321],[79.564442,28.748241],[79.564649,28.748145],[79.564901,28.748093],[79.565158,28.747961],[79.565311,28.747834],[79.565375,28.747672],[79.565405,28.747449],[79.56541,28.747258],[79.565201,28.746727],[79.565121,28.746386],[79.565043,28.745855],[79.565051,28.745377],[79.565072,28.744975],[79.565204,28.744366],[79.565359,28.743903],[79.56577,28.743115],[79.565858,28.742877],[79.565861,28.742654],[79.565845,28.742442],[79.565756,28.742341],[79.565654,28.742296],[79.565408,28.742268],[79.565306,28.74228],[79.565129,28.742379],[79.564809,28.742762],[79.56463,28.743007],[79.564536,28.743098],[79.564321,28.743213],[79.564091,28.743256],[79.56397,28.74327],[79.563798,28.743209],[79.563704,28.74311],[79.563404,28.742501],[79.563133,28.742125],[79.562787,28.741405],[79.562779,28.74132],[79.562825,28.741231],[79.562873,28.741172],[79.56301,28.741066],[79.563109,28.741019],[79.563232,28.741008],[79.563439,28.741085],[79.564201,28.741443],[79.564364,28.741466],[79.564496,28.741457],[79.564665,28.741403],[79.564726,28.741342],[79.564793,28.741248],[79.564812,28.741078],[79.564758,28.740944],[79.564595,28.740725],[79.56427,28.74046],[79.564056,28.74022],[79.563978,28.740097],[79.563726,28.739472],[79.56349,28.738792],[79.563203,28.7382],[79.563093,28.737941],[79.563093,28.737863],[79.563106,28.737814],[79.563168,28.737739],[79.563216,28.737708],[79.563289,28.737682],[79.56345,28.737652],[79.563587,28.737655],[79.563766,28.737715],[79.564115,28.737859],[79.564276,28.73796],[79.565252,28.738837],[79.565552,28.739063],[79.565662,28.739119],[79.565754,28.739145],[79.565815,28.739147],[79.565957,28.73911],[79.5661,28.739046],[79.566215,28.738961],[79.566277,28.738884],[79.566309,28.738797],[79.566279,28.738693],[79.566215,28.738555],[79.565952,28.738326],[79.565748,28.738091],[79.565679,28.737964],[79.56563,28.737793],[79.565622,28.737579],[79.56566,28.737264],[79.565652,28.737096],[79.565595,28.736857],[79.565499,28.736727],[79.56511,28.73644],[79.564549,28.736146],[79.563562,28.735589],[79.563417,28.735478],[79.563286,28.735293],[79.56327,28.735201],[79.563275,28.735126],[79.563294,28.73505],[79.563358,28.734947],[79.563664,28.734679],[79.56382,28.734514],[79.563919,28.734392],[79.563962,28.734279],[79.563981,28.73419],[79.563967,28.734084],[79.563871,28.733966],[79.5636,28.73374],[79.563356,28.733519],[79.563249,28.733515],[79.563173,28.733529],[79.563053,28.733595],[79.562952,28.733691],[79.562924,28.733733],[79.562913,28.734013],[79.562851,28.734686],[79.56283,28.734851],[79.562793,28.734975],[79.562677,28.735208],[79.562599,28.735293],[79.562484,28.735361],[79.562347,28.735405],[79.562117,28.735408],[79.561961,28.73538],[79.561795,28.735302],[79.561639,28.735203],[79.561054,28.734756],[79.560797,28.734502],[79.560625,28.734354],[79.560547,28.734319],[79.560475,28.734312],[79.560384,28.734319],[79.559877,28.734639],[79.559708,28.734778],[79.559536,28.734851],[79.559386,28.734883],[79.559252,28.73489],[79.559145,28.734858],[79.559054,28.734756],[79.558949,28.734434],[79.55875,28.733985],[79.558624,28.733797],[79.558496,28.733677],[79.558378,28.733602],[79.55826,28.733597],[79.558187,28.733623],[79.557232,28.7343],[79.556959,28.734444],[79.556831,28.734498],[79.55672,28.734511],[79.556593,28.734494],[79.556571,28.734472],[79.556568,28.734433],[79.556597,28.734346],[79.556641,28.734266],[79.556627,28.734175],[79.556599,28.734137],[79.556436,28.734019],[79.556366,28.73394],[79.555857,28.733186],[79.555171,28.732133],[79.554423,28.731039],[79.554332,28.730922],[79.554286,28.730876],[79.554247,28.730853],[79.554172,28.730852],[79.554124,28.730865],[79.553963,28.73104],[79.553912,28.731049],[79.553877,28.731026],[79.553862,28.730976],[79.55391,28.730871],[79.553922,28.730798],[79.553917,28.730757],[79.553871,28.730722],[79.553784,28.730685],[79.553658,28.730676],[79.553592,28.730645],[79.553575,28.730573],[79.553594,28.730539],[79.553676,28.730451],[79.553696,28.730364],[79.553692,28.730289],[79.553673,28.730197],[79.553586,28.7301],[79.553568,28.730059],[79.55354,28.729904],[79.553521,28.7297],[79.553436,28.729369],[79.553409,28.729203],[79.553414,28.72904],[79.553446,28.728851],[79.553377,28.7285],[79.553379,28.728337],[79.553375,28.728294],[79.553357,28.728257],[79.553307,28.728211],[79.553224,28.728198],[79.553169,28.728199],[79.553067,28.728232],[79.552958,28.72832],[79.552705,28.728569],[79.552561,28.728681],[79.552502,28.728704],[79.552467,28.728702],[79.552424,28.728691],[79.552368,28.728631],[79.552365,28.728392],[79.552352,28.72826],[79.552339,28.728181],[79.552284,28.728061],[79.552166,28.727937],[79.552093,28.727895],[79.552025,28.727866],[79.551976,28.727871],[79.551766,28.728007],[79.551669,28.728052],[79.551577,28.728064],[79.551394,28.728048],[79.551252,28.72806],[79.551203,28.728041],[79.551173,28.728012],[79.551165,28.727974],[79.551179,28.72793],[79.551242,28.727827],[79.551233,28.727708],[79.55115,28.72754],[79.551082,28.727434],[79.551004,28.727361],[79.550865,28.727292],[79.550692,28.727231],[79.550582,28.727174],[79.550543,28.727146],[79.550512,28.727098],[79.550504,28.727069],[79.550515,28.727009],[79.550685,28.726855],[79.550729,28.726792],[79.550737,28.726696],[79.550723,28.726596],[79.550702,28.726551],[79.55067,28.72651],[79.550442,28.726421],[79.550196,28.726196],[79.550017,28.726065],[79.549585,28.725598],[79.549469,28.725452],[79.549391,28.725333],[79.549302,28.725147],[79.549259,28.72501],[79.549199,28.724896],[79.5491,28.724777],[79.548959,28.72466],[79.548884,28.724537],[79.548805,28.724355],[79.548807,28.724279],[79.548848,28.724129],[79.548988,28.72373],[79.549252,28.722451],[79.549402,28.721351],[79.549227,28.720922],[79.54917,28.720256],[79.548953,28.719262],[79.54866,28.718705],[79.548247,28.718605],[79.547933,28.71833],[79.547284,28.717004],[79.54727,28.716416],[79.548311,28.715847],[79.548881,28.715303],[79.54866,28.714978],[79.549131,28.714596],[79.549352,28.714146],[79.549017,28.713758],[79.548525,28.713145],[79.54774,28.712745],[79.54682,28.712845],[79.546407,28.712345],[79.546236,28.7114],[79.546728,28.710794],[79.546229,28.709724],[79.546407,28.709261],[79.547198,28.708917],[79.54712,28.707679],[79.546699,28.707604],[79.545893,28.707279],[79.545444,28.706616],[79.545573,28.706153],[79.54548,28.705734],[79.544809,28.705115],[79.544161,28.704683],[79.544595,28.70367],[79.544952,28.703507],[79.545637,28.703444],[79.545893,28.703201],[79.546528,28.7029],[79.547099,28.702863],[79.547969,28.703125],[79.54876,28.70275],[79.548938,28.70215],[79.54886,28.701205],[79.548271,28.700542],[79.546877,28.699578],[79.54555,28.699202],[79.545738,28.698579],[79.546287,28.697803],[79.545912,28.696733],[79.544907,28.696651],[79.544524,28.696319],[79.544234,28.695799],[79.544114,28.695639],[79.543996,28.69551],[79.543853,28.695451],[79.543422,28.695418],[79.543186,28.695385],[79.543054,28.695336],[79.54292,28.695213],[79.542815,28.695006],[79.542695,28.694418],[79.542542,28.694176],[79.54251,28.694037],[79.542518,28.693966],[79.542566,28.693844],[79.542679,28.693712],[79.542845,28.693646],[79.543019,28.693611],[79.543199,28.693524],[79.543301,28.6935],[79.5434,28.693517],[79.543446,28.693541],[79.543472,28.693578],[79.543502,28.693675],[79.543435,28.693797],[79.543403,28.694039],[79.543419,28.694159],[79.543636,28.694515],[79.543725,28.694573],[79.543816,28.694578],[79.543961,28.694512],[79.544143,28.694456],[79.544218,28.694404],[79.544234,28.694267],[79.544191,28.693804],[79.54435,28.693522],[79.544505,28.693171],[79.544602,28.692915],[79.545162,28.691938],[79.545409,28.691533],[79.545524,28.691301],[79.545541,28.691094],[79.545484,28.690919],[79.545337,28.690632],[79.545294,28.690447],[79.54538,28.690134],[79.545597,28.689166],[79.54587,28.688576],[79.546039,28.688305],[79.54616,28.688211],[79.546334,28.688185],[79.546418,28.688216],[79.546552,28.688294],[79.546769,28.688555],[79.546871,28.688851],[79.546871,28.689086],[79.546722,28.689626],[79.546777,28.689741],[79.547037,28.689905],[79.547279,28.689912],[79.54755,28.689884],[79.547668,28.689843],[79.548271,28.689126],[79.54917,28.688631],[79.549409,28.688579],[79.54956,28.688567],[79.54972,28.688521],[79.549921,28.688425],[79.550337,28.688037],[79.550688,28.68764],[79.550812,28.687582],[79.551029,28.687516],[79.551351,28.68737],[79.551514,28.687352],[79.551731,28.687234],[79.551827,28.687093],[79.551849,28.686978],[79.551956,28.686691],[79.55221,28.68631],[79.552293,28.686106],[79.552309,28.685937],[79.552186,28.685751],[79.552127,28.685571],[79.552135,28.68518],[79.552192,28.684758],[79.552252,28.684547],[79.552262,28.684104],[79.552329,28.683932],[79.552571,28.683662],[79.552871,28.683367],[79.55304,28.683231],[79.55325,28.683179],[79.553441,28.683195],[79.553705,28.683243],[79.554195,28.683469],[79.554551,28.683552],[79.554884,28.683604],[79.555097,28.683597],[79.555281,28.683612],[79.555482,28.683718],[79.555545,28.683708],[79.555635,28.683642],[79.555674,28.683533],[79.555851,28.683158],[79.555964,28.683024],[79.556143,28.682868],[79.556304,28.682755],[79.556752,28.682506],[79.557036,28.682285],[79.557255,28.682147],[79.55768,28.682009],[79.557815,28.681877],[79.558114,28.681405],[79.558249,28.681258],[79.558476,28.680926],[79.558662,28.680598],[79.558801,28.680399],[79.558915,28.680036],[79.558926,28.679586],[79.559044,28.679264],[79.559012,28.679094],[79.55893,28.678889],[79.558984,28.678537],[79.558972,28.6783],[79.559304,28.677724],[79.559413,28.677634],[79.55951,28.677625],[79.559613,28.677643],[79.559873,28.677753],[79.560018,28.677761],[79.560211,28.677857],[79.560294,28.677927],[79.560483,28.67806],[79.560749,28.678191],[79.560922,28.678325],[79.561055,28.678454],[79.56112,28.678612],[79.56118,28.678704],[79.561285,28.678787],[79.561446,28.678871],[79.561834,28.679038],[79.562127,28.679085],[79.562427,28.679085],[79.562718,28.679036],[79.562865,28.678953],[79.562935,28.678841],[79.562967,28.678668],[79.562979,28.678502],[79.562879,28.678385],[79.562667,28.67821],[79.562532,28.678069],[79.562411,28.67783],[79.561942,28.677487],[79.561748,28.677282],[79.561636,28.677063],[79.561507,28.676731],[79.561487,28.676444],[79.561497,28.676351],[79.561583,28.676225],[79.561786,28.676086],[79.561979,28.67582],[79.56211,28.675492],[79.56222,28.674977],[79.562239,28.674845],[79.562184,28.67474],[79.562061,28.674631],[79.56196,28.674463],[79.561793,28.674305],[79.561588,28.674166],[79.561441,28.674129],[79.561342,28.674152],[79.561245,28.674258],[79.561112,28.674351],[79.560899,28.674357],[79.559998,28.674087],[79.559422,28.6733],[79.558309,28.673158],[79.557304,28.672453],[79.556379,28.671089],[79.554114,28.670289],[79.553364,28.669842],[79.552452,28.669454],[79.55193,28.66949],[79.551407,28.668866],[79.552533,28.668208],[79.552372,28.667608],[79.551313,28.667114],[79.550402,28.66602],[79.54886,28.665327],[79.548525,28.665609],[79.548498,28.666832],[79.548981,28.666973],[79.549959,28.667138],[79.550522,28.66749],[79.549825,28.667902],[79.549075,28.667773],[79.548405,28.668243],[79.547547,28.667843],[79.54677,28.666938],[79.545603,28.66622],[79.543539,28.66388],[79.543539,28.662645],[79.54366,28.660975],[79.543834,28.659964],[79.543513,28.659564],[79.542534,28.659917],[79.541543,28.659517],[79.540417,28.659258],[79.539907,28.658306],[79.540953,28.657941],[79.541006,28.657435],[79.540604,28.656636],[79.539484,28.657051],[79.539353,28.657058],[79.539087,28.657042],[79.538417,28.656941],[79.537928,28.65679],[79.537183,28.656696],[79.536914,28.656616],[79.536783,28.656512],[79.53674,28.656423],[79.536738,28.656284],[79.536748,28.656192],[79.536794,28.656103],[79.536864,28.656034],[79.53707,28.655942],[79.537306,28.655895],[79.537727,28.655928],[79.538092,28.655891],[79.538578,28.655801],[79.538902,28.655688],[79.539146,28.655533],[79.539189,28.655437],[79.539208,28.655342],[79.539178,28.655239],[79.539066,28.655145],[79.538907,28.654912],[79.538905,28.654737],[79.538782,28.654554],[79.538259,28.654272],[79.537522,28.653837],[79.537709,28.652613],[79.537227,28.651766],[79.536338,28.651496],[79.536114,28.651355],[79.535919,28.651197],[79.535539,28.650814],[79.535257,28.650355],[79.535158,28.65015],[79.535008,28.649616],[79.53497,28.649296],[79.534975,28.649073],[79.535048,28.648804],[79.535192,28.648469],[79.5353,28.648368],[79.535479,28.648298],[79.535759,28.648166],[79.535877,28.648074],[79.536019,28.647871],[79.536099,28.647572],[79.536115,28.647445],[79.536086,28.647389],[79.535978,28.647351],[79.53564,28.647328],[79.535557,28.647297],[79.535461,28.647179],[79.535353,28.646949],[79.535313,28.646749],[79.535211,28.64636],[79.535032,28.645965],[79.53501,28.645739],[79.535072,28.645558],[79.535171,28.645409],[79.535305,28.645289],[79.535426,28.645249],[79.535525,28.645252],[79.5356,28.645277],[79.535726,28.645421],[79.535995,28.645623],[79.536282,28.645798],[79.53641,28.645932],[79.536496,28.645958],[79.536571,28.64596],[79.536646,28.645955],[79.536678,28.645932],[79.5367,28.645885],[79.5367,28.645805],[79.536638,28.645725],[79.536598,28.645598],[79.536595,28.645263],[79.536558,28.644308],[79.536469,28.643943],[79.536134,28.643324],[79.535895,28.643053],[79.535673,28.642881],[79.535506,28.642836],[79.535343,28.642834],[79.535206,28.642879],[79.535074,28.642982],[79.534876,28.643192],[79.534466,28.643413],[79.534109,28.643531],[79.533567,28.643594],[79.533143,28.64359],[79.532982,28.643524],[79.532838,28.643385],[79.532736,28.643211],[79.532604,28.643062],[79.532449,28.642978],[79.532178,28.642902],[79.53195,28.642778],[79.531751,28.642488],[79.531751,28.642391],[79.531789,28.642307],[79.531851,28.642243],[79.532481,28.641956],[79.533586,28.641344],[79.533929,28.641123],[79.534036,28.64093],[79.533999,28.640798],[79.533902,28.640699],[79.533731,28.640563],[79.533328,28.63972],[79.53298,28.63887],[79.532728,28.638543],[79.532543,28.638373],[79.532288,28.638011],[79.532092,28.637683],[79.532097,28.637495],[79.532189,28.637283],[79.532167,28.637116],[79.532076,28.63681],[79.531896,28.636655],[79.531362,28.636464],[79.530772,28.636231],[79.530311,28.636066],[79.530002,28.63589],[79.529868,28.635718],[79.529772,28.63548],[79.529367,28.635021],[79.529233,28.6348],[79.52901,28.634602],[79.528291,28.6341],[79.528071,28.633877],[79.527859,28.633486],[79.527605,28.632789],[79.527355,28.632408],[79.52709,28.632179],[79.526414,28.631718],[79.525858,28.631367],[79.525437,28.631075],[79.524608,28.630225],[79.524407,28.629945],[79.524035,28.629145],[79.523788,28.628443],[79.523683,28.627921],[79.523541,28.627443],[79.523461,28.626946],[79.523308,28.62659],[79.522951,28.626282],[79.522457,28.625908],[79.522192,28.625828],[79.521932,28.625811],[79.52154,28.625813],[79.521304,28.62575],[79.521025,28.625606],[79.520864,28.62534],[79.520754,28.625058],[79.520703,28.624876],[79.520827,28.624208],[79.52095,28.623711],[79.521065,28.623556],[79.521242,28.623428],[79.521575,28.623313],[79.522211,28.622955],[79.522433,28.622856],[79.522752,28.622793],[79.523257,28.622635],[79.523608,28.622409],[79.523702,28.622263],[79.523911,28.622093],[79.524445,28.621458],[79.524517,28.621326],[79.524525,28.621161],[79.524515,28.621086],[79.524458,28.621025],[79.52437,28.620977],[79.52422,28.620933],[79.523989,28.620928],[79.523777,28.620954],[79.523504,28.621003],[79.523058,28.621201],[79.522954,28.621236],[79.522696,28.62122],[79.522479,28.621156],[79.521972,28.62077],[79.521698,28.620455],[79.521516,28.620304],[79.52136,28.620205],[79.521103,28.620099],[79.521001,28.620097],[79.52081,28.620111],[79.519877,28.619482],[79.519676,28.619214],[79.519539,28.618972],[79.519502,28.618809],[79.519499,28.61871],[79.519531,28.618606],[79.51962,28.618496],[79.519789,28.618432],[79.519909,28.61842],[79.520041,28.618444],[79.520341,28.61875],[79.520526,28.618986],[79.52087,28.619296],[79.521065,28.619402],[79.521205,28.619428],[79.521317,28.619431],[79.521382,28.619409],[79.521449,28.619327],[79.521476,28.619082],[79.521358,28.618708],[79.521165,28.618336],[79.52103,28.618204],[79.52073,28.618084],[79.520497,28.618074],[79.520271,28.617997],[79.520169,28.617917],[79.520078,28.617756],[79.520068,28.61758],[79.52,28.617434],[79.51955,28.616864],[79.519341,28.616676],[79.519051,28.616546],[79.518831,28.616497],[79.518721,28.616518],[79.518214,28.616711],[79.517951,28.616765],[79.517538,28.616812],[79.517205,28.616899],[79.516956,28.616949],[79.516857,28.616942],[79.516803,28.616918],[79.516726,28.616843],[79.516624,28.616808],[79.516342,28.616798],[79.515988,28.616824],[79.515631,28.616972],[79.515108,28.61725],[79.514497,28.61747],[79.514076,28.617582],[79.513611,28.617827],[79.51341,28.617971],[79.513287,28.618032],[79.51315,28.618018],[79.512954,28.617957],[79.512579,28.617761],[79.512517,28.617615],[79.51252,28.617455],[79.512587,28.617337],[79.512587,28.617038],[79.512378,28.61645],[79.512394,28.616351],[79.512281,28.616014],[79.512171,28.615809],[79.511973,28.61568],[79.51097,28.615378],[79.510739,28.615364],[79.510626,28.615301],[79.510143,28.61478],[79.509915,28.614439],[79.509846,28.614116],[79.509827,28.613799],[79.509843,28.613306],[79.509779,28.612544],[79.509693,28.612367],[79.509398,28.612139],[79.509138,28.612007],[79.508537,28.611926],[79.508395,28.611872],[79.508336,28.611799],[79.508314,28.61155],[79.508242,28.611392],[79.50837,28.609867],[79.507879,28.608993],[79.507866,28.608464],[79.507571,28.608395],[79.507453,28.608027],[79.507054,28.607722],[79.506641,28.607872],[79.505993,28.608441],[79.506071,28.609068],[79.505986,28.609574],[79.50558,28.6097],[79.505344,28.609384],[79.505318,28.608901],[79.505043,28.608573],[79.504702,28.608619],[79.504303,28.608447],[79.503451,28.608378],[79.503294,28.608119],[79.502849,28.608016],[79.501932,28.607648],[79.501008,28.607596],[79.499784,28.607855],[79.499312,28.608102],[79.499443,28.608464],[79.500046,28.608838],[79.500622,28.6087],[79.501303,28.608608],[79.502246,28.608389],[79.502829,28.608361],[79.503157,28.608579],[79.503019,28.608849],[79.503051,28.609264],[79.502843,28.609646],[79.502811,28.609992],[79.502866,28.610683],[79.503005,28.610768],[79.503204,28.610569],[79.503445,28.610219],[79.503598,28.610394],[79.503584,28.61076],[79.50338,28.611061],[79.502987,28.610959],[79.502278,28.610955],[79.502037,28.610764],[79.501685,28.610524],[79.501287,28.61002],[79.501366,28.60939],[79.501361,28.609162],[79.500912,28.609203],[79.500467,28.609504],[79.499643,28.609524],[79.499499,28.610045],[79.499499,28.610529],[79.499055,28.610679],[79.498476,28.610045],[79.497869,28.609272],[79.497642,28.60926],[79.497716,28.609463],[79.497628,28.609646],[79.497466,28.609536],[79.497031,28.609093],[79.496369,28.608467],[79.495498,28.608455],[79.494586,28.608573],[79.494229,28.608882],[79.493937,28.608797],[79.493789,28.60828],[79.494016,28.607894],[79.494479,28.607292],[79.4944,28.606946],[79.494021,28.60682],[79.493976,28.606232],[79.49392,28.606097],[79.493763,28.605944],[79.493229,28.605711],[79.492934,28.605603],[79.492863,28.605524],[79.492752,28.605279],[79.492592,28.605165],[79.492397,28.605071],[79.492248,28.605024],[79.492182,28.605028],[79.49215,28.605046],[79.492085,28.605182],[79.492017,28.605425],[79.491981,28.605467],[79.491916,28.605492],[79.491805,28.605476],[79.491682,28.605387],[79.491678,28.60529],[79.49176,28.605081],[79.491714,28.604912],[79.491668,28.604815],[79.491534,28.604679],[79.49125,28.604139],[79.491226,28.603989],[79.491236,28.603727],[79.491381,28.603539],[79.49151,28.603452],[79.491612,28.603414],[79.491853,28.603419],[79.492103,28.603492],[79.492154,28.603485],[79.492175,28.603405],[79.49213,28.603332],[79.492052,28.603249],[79.491931,28.603084],[79.491875,28.602889],[79.491856,28.602635],[79.491872,28.60255],[79.491918,28.602496],[79.492052,28.602418],[79.492065,28.602321],[79.492022,28.602218],[79.491961,28.602138],[79.491845,28.602093],[79.491738,28.602105],[79.491628,28.602164],[79.491499,28.602211],[79.491427,28.602204],[79.491363,28.602152],[79.491328,28.602044],[79.491371,28.601897],[79.491424,28.60181],[79.491502,28.601742],[79.491733,28.601737],[79.492014,28.601777],[79.4921,28.601754],[79.492409,28.601497],[79.492795,28.601233],[79.493036,28.601036],[79.493243,28.600767],[79.493342,28.60052],[79.49335,28.600277],[79.493296,28.600122],[79.493347,28.599646],[79.493267,28.599479],[79.493181,28.599441],[79.493047,28.599448],[79.492886,28.599495],[79.492814,28.59946],[79.492744,28.599375],[79.492765,28.59926],[79.492827,28.599149],[79.492966,28.599039],[79.493135,28.598951],[79.493259,28.598775],[79.493366,28.598667],[79.493439,28.598645],[79.493535,28.598636],[79.493621,28.598641],[79.493712,28.598664],[79.493795,28.598744],[79.493833,28.598824],[79.493892,28.599069],[79.493921,28.599328],[79.494133,28.599773],[79.494206,28.599856],[79.494477,28.599936],[79.494659,28.59995],[79.494844,28.599877],[79.494933,28.599781],[79.495083,28.599538],[79.495429,28.598867],[79.495437,28.59878],[79.495394,28.598492],[79.49526,28.598318],[79.495096,28.598229],[79.494914,28.598191],[79.494646,28.598181],[79.494463,28.59821],[79.494332,28.598179],[79.494101,28.598054],[79.493849,28.597863],[79.493683,28.597548],[79.493658,28.597371],[79.493669,28.597228],[79.493715,28.59707],[79.493726,28.596957],[79.493632,28.596695],[79.493498,28.596418],[79.493369,28.596333],[79.493197,28.59629],[79.493084,28.596297],[79.492926,28.596323],[79.492824,28.596293],[79.492524,28.596109],[79.492312,28.596027],[79.491987,28.595958],[79.491749,28.595824],[79.491529,28.595516],[79.491354,28.595356],[79.491019,28.595129],[79.490877,28.594983],[79.490826,28.594811],[79.490866,28.594543],[79.490936,28.594249],[79.491046,28.593968],[79.491175,28.593825],[79.491405,28.593636],[79.491537,28.593478],[79.491741,28.59329],[79.49235,28.592946],[79.492677,28.592697],[79.492749,28.592616],[79.492765,28.592506],[79.492655,28.592416],[79.492629,28.59231],[79.492666,28.592226],[79.492765,28.592138],[79.493015,28.592042],[79.493109,28.591969],[79.493178,28.591804],[79.493162,28.591608],[79.493095,28.591559],[79.492926,28.591477],[79.492699,28.591289],[79.49269,28.591194],[79.492747,28.59102],[79.492782,28.590723],[79.492604,28.590238],[79.492564,28.590061],[79.492572,28.589647],[79.49265,28.589494],[79.49273,28.589425],[79.492736,28.589338],[79.492497,28.589279],[79.492486,28.589216],[79.492511,28.589173],[79.492613,28.589129],[79.492698,28.589074],[79.492768,28.588964],[79.492816,28.588731],[79.492848,28.588172],[79.492814,28.587652],[79.492739,28.587513],[79.49265,28.587473],[79.492529,28.587456],[79.49246,28.587433],[79.492411,28.58735],[79.492194,28.587256],[79.49143,28.586988],[79.491255,28.586952],[79.491215,28.586919],[79.49122,28.58683],[79.491279,28.586729],[79.491304,28.58659],[79.491223,28.586159],[79.491365,28.585815],[79.491499,28.585532],[79.491743,28.585374],[79.491786,28.585179],[79.491711,28.584934],[79.491591,28.584809],[79.491537,28.584701],[79.491507,28.584567],[79.49129,28.584178],[79.491118,28.584027],[79.490952,28.583985],[79.490534,28.583902],[79.490212,28.583881],[79.489922,28.5839],[79.489743,28.583881],[79.489582,28.583841],[79.489445,28.583778],[79.489389,28.583688],[79.489391,28.583563],[79.489517,28.583436],[79.489582,28.583276],[79.489552,28.58316],[79.489544,28.582984],[79.489579,28.58292],[79.489702,28.582779],[79.489831,28.582355],[79.489979,28.581919],[79.489973,28.581816],[79.489917,28.581773],[79.489641,28.581818],[79.489437,28.581743],[79.488882,28.580977],[79.489275,28.579677],[79.489719,28.579377],[79.490266,28.579049],[79.490607,28.578863],[79.490343,28.578563],[79.490446,28.578077],[79.490549,28.577302],[79.490073,28.576245],[79.489571,28.576149],[79.489255,28.576449],[79.489011,28.577093],[79.488734,28.57763],[79.488399,28.578116],[79.488065,28.577755],[79.487807,28.577065],[79.487421,28.576398],[79.48762,28.576093],[79.487987,28.575934],[79.487794,28.575499],[79.48818,28.574826],[79.488567,28.57486],[79.488715,28.574611],[79.489114,28.574657],[79.488985,28.574351],[79.488618,28.574493],[79.48838,28.574538],[79.487472,28.574069],[79.486359,28.572672],[79.486211,28.572017],[79.486449,28.571661],[79.487929,28.571434],[79.488618,28.571417],[79.48867,28.571146],[79.488039,28.570988],[79.487421,28.570609],[79.487086,28.569925],[79.48717,28.569269],[79.48726,28.569054],[79.486346,28.568534],[79.485953,28.568664],[79.485586,28.569495],[79.485039,28.569591],[79.483095,28.569704],[79.481756,28.569416],[79.48126,28.569179],[79.480372,28.569116],[79.479181,28.568105],[79.478994,28.567567],[79.478737,28.56746],[79.478415,28.567765],[79.478055,28.567963],[79.477514,28.56763],[79.47761,28.567398],[79.477874,28.567217],[79.477681,28.566912],[79.477385,28.567053],[79.476947,28.567183],[79.476143,28.566612],[79.475634,28.566199],[79.474926,28.566403],[79.47398,28.565866],[79.473368,28.565905],[79.472641,28.565583],[79.472821,28.56504],[79.4721,28.564124],[79.47181,28.563842],[79.471733,28.563231],[79.471958,28.563095],[79.472441,28.563231],[79.472538,28.562581],[79.472061,28.562383],[79.471186,28.561863],[79.470838,28.561931],[79.4706,28.561936],[79.470793,28.561286],[79.470626,28.560596],[79.47013,28.560251],[79.469538,28.560087],[79.469384,28.559827],[79.469744,28.559624],[79.47024,28.559652],[79.470581,28.559771],[79.470619,28.559381],[79.469757,28.558838],[79.468637,28.558742],[79.467935,28.557826],[79.466519,28.557012],[79.465631,28.556084],[79.465199,28.55488],[79.464942,28.553964],[79.464073,28.553659],[79.463596,28.55328],[79.46274,28.553455],[79.46229,28.553483],[79.462315,28.55315],[79.462695,28.552669],[79.462978,28.552398],[79.463616,28.552228],[79.464298,28.552104],[79.464562,28.551861],[79.464369,28.55134],[79.464169,28.55112],[79.464375,28.550673],[79.464131,28.550085],[79.463538,28.549729],[79.463165,28.549197],[79.463378,28.548869],[79.463686,28.548507],[79.463674,28.548027],[79.463165,28.547835],[79.462399,28.547727],[79.462077,28.547354],[79.462026,28.54706],[79.461968,28.546732],[79.46153,28.54503],[79.46173,28.543333],[79.461676,28.542344],[79.461695,28.542083],[79.461799,28.541621],[79.461982,28.541369],[79.462226,28.540843],[79.462279,28.540667],[79.462294,28.540453],[79.462266,28.5403],[79.462188,28.540185],[79.462139,28.540149],[79.461849,28.540041],[79.461099,28.539681],[79.460859,28.539582],[79.460739,28.53954],[79.460488,28.539452],[79.460105,28.539339],[79.459977,28.539282],[79.459895,28.539194],[79.459948,28.539001],[79.460147,28.538732],[79.460305,28.538618],[79.460375,28.538643],[79.460422,28.538701],[79.460442,28.53876],[79.460478,28.538811],[79.460548,28.538825],[79.460634,28.538782],[79.460728,28.53867],[79.460812,28.538595],[79.460902,28.538563],[79.460985,28.538552],[79.461158,28.538591],[79.461422,28.538677],[79.461528,28.538745],[79.461656,28.538908],[79.461865,28.539017],[79.461972,28.53905],[79.462096,28.539036],[79.46214,28.539005],[79.462163,28.53891],[79.462156,28.538858],[79.462121,28.538805],[79.462037,28.538722],[79.461897,28.538427],[79.461834,28.538335],[79.461727,28.538242],[79.461617,28.538201],[79.461503,28.538178],[79.461349,28.538177],[79.461188,28.538151],[79.460624,28.537922],[79.459818,28.537282],[79.459649,28.537159],[79.459615,28.537094],[79.45962,28.537027],[79.459656,28.536898],[79.459746,28.536726],[79.459852,28.536597],[79.460033,28.536436],[79.460146,28.536368],[79.460182,28.536355],[79.46023,28.536352],[79.460358,28.536363],[79.460528,28.536481],[79.460571,28.536575],[79.460608,28.536614],[79.460666,28.536633],[79.460744,28.536633],[79.460789,28.536615],[79.460918,28.536485],[79.460981,28.536483],[79.461188,28.536542],[79.46144,28.536646],[79.461467,28.536669],[79.461485,28.536695],[79.461489,28.536731],[79.461476,28.53678],[79.461445,28.536817],[79.461358,28.536881],[79.461243,28.536915],[79.461147,28.536919],[79.461017,28.536948],[79.460844,28.537067],[79.46078,28.537157],[79.460767,28.537284],[79.460777,28.537323],[79.460809,28.537351],[79.460852,28.537368],[79.460953,28.537371],[79.461094,28.537278],[79.461247,28.537232],[79.461327,28.537239],[79.461378,28.537269],[79.461409,28.537314],[79.461412,28.537441],[79.461398,28.537477],[79.461304,28.537591],[79.461302,28.537625],[79.461323,28.537713],[79.461369,28.53779],[79.461431,28.537864],[79.461489,28.537909],[79.461558,28.537916],[79.461605,28.537904],[79.461652,28.537873],[79.461705,28.53777],[79.461795,28.537666],[79.462042,28.537473]]}},{"type":"Feature","properties":{"osm_way":1008919736,"waterway":"river"},"geometry":{"type":"LineString","coordinates":[[79.389146,28.360398],[79.389031,28.360285],[79.388763,28.360063],[79.388513,28.359961],[79.388379,28.359897],[79.388004,28.359628],[79.387336,28.359071],[79.387137,28.358953],[79.386762,28.358746],[79.386314,28.358587],[79.386121,28.358446],[79.38596,28.35829],[79.385818,28.358089],[79.385571,28.357714],[79.385418,28.357565],[79.384892,28.35728],[79.38475,28.357235],[79.384584,28.357261],[79.384391,28.357339],[79.384214,28.357457],[79.384074,28.35761],[79.383954,28.357766],[79.383811,28.357839],[79.38365,28.357884],[79.383527,28.357884],[79.383425,28.357865],[79.383329,28.357743],[79.383286,28.357589],[79.38331,28.357422],[79.383468,28.356999],[79.383559,28.356782],[79.38357,28.356683],[79.383554,28.356541],[79.383481,28.356418],[79.383323,28.356234],[79.383087,28.356137],[79.382741,28.35593],[79.382175,28.35554],[79.381907,28.355217],[79.38173,28.354868],[79.381636,28.35454],[79.381531,28.354237],[79.38132,28.353956],[79.38103,28.353676],[79.380636,28.353321],[79.380314,28.353015],[79.380097,28.352718],[79.379721,28.351695],[79.379447,28.35097],[79.379206,28.350633],[79.378914,28.3503],[79.378544,28.349963],[79.378192,28.349545],[79.377623,28.349176],[79.377189,28.348938],[79.376891,28.348813],[79.376714,28.348763],[79.376607,28.348756],[79.376269,28.34883],[79.375995,28.348983],[79.3758,28.349125],[79.375397,28.349375],[79.374957,28.349559],[79.374341,28.349731],[79.373555,28.349977],[79.373286,28.35005],[79.372903,28.350109],[79.372431,28.350201],[79.371237,28.350498],[79.370263,28.35073],[79.36933,28.3509],[79.36841,28.350987],[79.367807,28.350985],[79.367161,28.350935],[79.366811,28.350815],[79.366297,28.35052],[79.365634,28.350227],[79.365031,28.350029],[79.364422,28.349939],[79.363325,28.349965],[79.363126,28.349939],[79.363035,28.34988],[79.363035,28.349812],[79.363064,28.349708],[79.363124,28.349601],[79.363239,28.349512],[79.363534,28.349339],[79.363689,28.349155],[79.364215,28.3489],[79.364805,28.348749],[79.365063,28.348744],[79.365379,28.348674],[79.365503,28.348537],[79.365781,28.348376],[79.367402,28.34798],[79.36789,28.347819],[79.368671,28.347371],[79.36944,28.346889],[79.370341,28.346105],[79.37077,28.34536],[79.370878,28.344906],[79.370878,28.344283],[79.370642,28.34348],[79.370052,28.342536],[79.367895,28.339458],[79.36708,28.338022],[79.366779,28.336549],[79.366779,28.335001],[79.366929,28.333263],[79.367509,28.331506],[79.369609,28.326241]]}},{"type":"Feature","properties":{"osm_way":1009094705,"waterway":"river"},"geometry":{"type":"LineString","coordinates":[[79.416636,28.425541],[79.416456,28.42542],[79.416231,28.425307],[79.416159,28.42521],[79.416143,28.425083],[79.416172,28.42496],[79.416226,28.42484],[79.416341,28.424753],[79.416679,28.424618],[79.416792,28.424529],[79.416896,28.424415],[79.416985,28.424295],[79.417023,28.424106],[79.416972,28.423797],[79.416854,28.423606],[79.416623,28.423163],[79.416449,28.42267],[79.416349,28.422236],[79.416162,28.421908],[79.415864,28.421648],[79.41566,28.42158],[79.415381,28.421542],[79.415288,28.421505],[79.415255,28.421415],[79.415298,28.421259],[79.415464,28.421174],[79.415706,28.421094],[79.416499,28.420769],[79.416762,28.420761],[79.417154,28.420766],[79.417293,28.420728],[79.417377,28.420639],[79.417446,28.420497],[79.417484,28.42036],[79.417441,28.420037],[79.41735,28.419632],[79.417248,28.419476],[79.41709,28.419429],[79.416958,28.41944],[79.416752,28.419551],[79.416583,28.419747],[79.416389,28.419931],[79.416194,28.420016],[79.416011,28.42003],[79.415703,28.419943],[79.415453,28.419785],[79.415008,28.419655],[79.414794,28.419679],[79.41419,28.419719],[79.413774,28.419797],[79.413554,28.41987],[79.413284,28.420023],[79.413235,28.42012],[79.413227,28.420224],[79.413235,28.420316],[79.413278,28.420412],[79.413342,28.42049],[79.413402,28.42057],[79.413423,28.420698],[79.413399,28.420863],[79.413329,28.421061],[79.413179,28.421186],[79.413047,28.42121],[79.412811,28.421198],[79.412634,28.421148],[79.412363,28.420945],[79.411924,28.420811],[79.411607,28.420724],[79.411092,28.420485],[79.410971,28.420474],[79.410872,28.4205],[79.410821,28.420528],[79.410792,28.420559],[79.410773,28.42062],[79.410784,28.420707],[79.410816,28.420806],[79.410939,28.421019],[79.411095,28.421276],[79.411199,28.421446],[79.411221,28.421568],[79.411221,28.42166],[79.411191,28.421778],[79.411148,28.421872],[79.411052,28.421962],[79.41087,28.422016],[79.40996,28.422248],[79.409571,28.42237],[79.409397,28.422356],[79.409123,28.422233],[79.408697,28.421924],[79.40852,28.421651],[79.408402,28.421627],[79.408203,28.421651],[79.407855,28.421698],[79.407602,28.42158],[79.407045,28.420811],[79.406519,28.419962],[79.405918,28.418811],[79.405548,28.418141],[79.405535,28.417808],[79.40558,28.417563],[79.405666,28.417433],[79.405991,28.417176],[79.406361,28.416909],[79.406712,28.416527],[79.406876,28.4164],[79.406959,28.416386],[79.407042,28.4164],[79.407136,28.416452],[79.407192,28.416697],[79.407101,28.41719],[79.407093,28.417464],[79.407109,28.4176],[79.407315,28.417893],[79.40771,28.418122],[79.408051,28.418204],[79.408246,28.418214],[79.408507,28.418164],[79.408812,28.417985],[79.409078,28.417702],[79.409453,28.417268],[79.409743,28.416905],[79.409821,28.416647],[79.409853,28.41643],[79.409831,28.4161],[79.409845,28.415893],[79.409971,28.415657],[79.410006,28.415555],[79.410022,28.415277],[79.409982,28.415055],[79.409872,28.414897],[79.409657,28.414793],[79.409437,28.414781],[79.409298,28.414791],[79.409078,28.414857],[79.40896,28.414932],[79.408893,28.415024],[79.408866,28.415145],[79.408839,28.415211],[79.408807,28.415274],[79.408726,28.41534],[79.408595,28.415343],[79.408429,28.41531],[79.408176,28.415145],[79.408034,28.414951],[79.407922,28.414668],[79.407911,28.414534],[79.407967,28.414295],[79.408088,28.413947],[79.408051,28.413861],[79.407626,28.413755],[79.407522,28.413797],[79.407184,28.414238],[79.407069,28.414238],[79.406961,28.414159],[79.406885,28.413642],[79.406842,28.413398],[79.40664,28.413156],[79.405991,28.412902],[79.405382,28.412902],[79.405053,28.412895],[79.404896,28.412859],[79.404877,28.41281],[79.404901,28.412705],[79.405366,28.412204],[79.40555,28.411555],[79.405606,28.411005],[79.405674,28.4106],[79.405653,28.410515],[79.405582,28.410445],[79.40547,28.410404],[79.405193,28.410321],[79.404464,28.410256],[79.404319,28.410223],[79.403394,28.409673],[79.402785,28.409204],[79.402688,28.40919],[79.402137,28.409218],[79.402063,28.409193],[79.401514,28.408756],[79.401197,28.408308],[79.401142,28.408082],[79.401188,28.407848],[79.402044,28.406566],[79.402429,28.406157],[79.402592,28.405992],[79.402666,28.405815],[79.402689,28.405657],[79.402704,28.405466],[79.402898,28.405091],[79.402915,28.404906],[79.402997,28.404653],[79.403064,28.404427],[79.4028,28.403767],[79.402491,28.40336],[79.401806,28.402603],[79.402015,28.402353],[79.402452,28.402597],[79.402503,28.402707],[79.402826,28.402273],[79.403483,28.40169],[79.40307,28.401027],[79.402457,28.400533],[79.401845,28.400095],[79.401528,28.39977],[79.401789,28.399332],[79.401998,28.398863],[79.401862,28.398464],[79.402157,28.397537],[79.402151,28.396823],[79.401579,28.396345],[79.400629,28.396122],[79.400271,28.395884],[79.400035,28.395998],[79.400129,28.396603],[79.399947,28.396991],[79.399541,28.397105],[79.399582,28.397478],[79.399553,28.39783],[79.399235,28.397835],[79.398764,28.397431],[79.398017,28.397234],[79.397741,28.396738],[79.397347,28.395754],[79.397252,28.395206],[79.397111,28.394781],[79.395817,28.394],[79.395317,28.393477],[79.39524,28.392939],[79.395341,28.392629],[79.394829,28.392411],[79.394193,28.391966],[79.393364,28.391231],[79.393299,28.390693],[79.393581,28.390325],[79.393811,28.390274],[79.394234,28.390424],[79.394623,28.390522],[79.394576,28.390853],[79.394635,28.391159],[79.394929,28.390952],[79.395417,28.39046],[79.395052,28.39018],[79.394364,28.389937],[79.393923,28.389565],[79.393629,28.389497],[79.393264,28.389627],[79.392605,28.38944],[79.392058,28.389808],[79.391128,28.389922],[79.39075,28.389675],[79.390683,28.388787],[79.390021,28.388552],[79.389583,28.3886],[79.389534,28.388183],[79.389838,28.387717],[79.389583,28.38692],[79.390021,28.386322],[79.390027,28.385926],[79.389607,28.385578],[79.389954,28.385279],[79.390616,28.384792],[79.390635,28.384525],[79.391157,28.384209],[79.391048,28.383829],[79.390507,28.383706],[79.390185,28.383535],[79.389449,28.383294],[79.388604,28.383289],[79.387632,28.383492],[79.387601,28.382781],[79.387486,28.382027],[79.387607,28.381497],[79.389507,28.379768],[79.390248,28.378806],[79.390939,28.378613],[79.391454,28.379575],[79.392151,28.379818],[79.392798,28.38005],[79.393156,28.380155],[79.393985,28.379182],[79.394086,28.378552],[79.394469,28.37816],[79.395122,28.377635],[79.395927,28.376778],[79.396417,28.377021],[79.397378,28.376778],[79.398062,28.376717],[79.398269,28.377021],[79.398125,28.377325],[79.397792,28.377579],[79.397955,28.378116],[79.39837,28.378469],[79.399262,28.378641],[79.400217,28.377353],[79.400757,28.376341],[79.401555,28.376231],[79.402196,28.376574],[79.402472,28.376927],[79.403245,28.377088],[79.403766,28.376927],[79.403904,28.376248],[79.404231,28.375877],[79.404664,28.375971],[79.404815,28.376424],[79.404721,28.376811],[79.405318,28.377088],[79.406078,28.377309],[79.406423,28.376878],[79.406612,28.376148],[79.406629,28.376062],[79.406692,28.375445],[79.406043,28.374733],[79.405999,28.374171],[79.404995,28.373264],[79.404666,28.373377],[79.404302,28.373787],[79.403924,28.373889],[79.403689,28.373604],[79.403955,28.373162],[79.40424,28.372846],[79.404866,28.372603],[79.405292,28.372369],[79.405168,28.371935],[79.404644,28.37172],[79.404084,28.37181],[79.403818,28.372115],[79.403995,28.372514],[79.403676,28.372799],[79.403058,28.372599],[79.402574,28.372951],[79.40245,28.373459],[79.402485,28.373909],[79.402219,28.374046],[79.401792,28.373877],[79.40117,28.373807],[79.401148,28.373393],[79.401499,28.37247],[79.401375,28.371622],[79.401157,28.370786],[79.400984,28.370407],[79.400229,28.370239],[79.399305,28.370317],[79.398892,28.369817],[79.398394,28.368965],[79.398252,28.368308],[79.39779,28.36753],[79.397204,28.367288],[79.396746,28.367358],[79.396533,28.367917],[79.39616,28.368191],[79.395201,28.368062],[79.393828,28.368547],[79.393224,28.368781],[79.392771,28.369254],[79.392766,28.369555],[79.392304,28.369504],[79.391638,28.369113],[79.391003,28.36864],[79.390497,28.368417],[79.389657,28.368324],[79.389204,28.368128],[79.389001,28.367894],[79.388913,28.367698],[79.388913,28.367538],[79.389197,28.366895],[79.389345,28.36673],[79.389546,28.366702],[79.389865,28.366702],[79.390241,28.366726],[79.390632,28.366721],[79.390737,28.366662],[79.390748,28.366518],[79.39063,28.366032],[79.390565,28.365687],[79.390485,28.365092],[79.39053,28.364842],[79.390563,28.364309],[79.390487,28.364035],[79.390391,28.363679],[79.38994,28.362782],[79.389685,28.362371],[79.389586,28.362277],[79.389519,28.362274],[79.389457,28.362329],[79.389406,28.362432],[79.389307,28.362567],[79.389082,28.362642],[79.388926,28.362657],[79.388787,28.362633],[79.388583,28.362489],[79.388462,28.362305],[79.388497,28.362173],[79.388571,28.362044],[79.388751,28.361912],[79.388912,28.361796],[79.389038,28.36161],[79.389166,28.361273],[79.389201,28.361064],[79.389208,28.360775],[79.389186,28.360551],[79.389146,28.360398]]}},{"type":"Feature","properties":{"osm_way":1022981980,"waterway":"river"},"geometry":{"type":"LineString","coordinates":[[79.462042,28.537473],[79.462116,28.537391],[79.462164,28.537236],[79.462226,28.536951],[79.462253,28.536637],[79.462161,28.536435],[79.46207,28.536357],[79.46173,28.536239],[79.461614,28.536152],[79.46152,28.536006],[79.461349,28.535655],[79.461287,28.53545],[79.461311,28.535261],[79.461357,28.535042],[79.461459,28.534922],[79.461534,28.534896],[79.4617,28.53491],[79.461772,28.534875],[79.461869,28.534736],[79.46218,28.534151],[79.462215,28.53401],[79.462191,28.533788],[79.462102,28.533499],[79.462008,28.533407],[79.461856,28.53339],[79.461772,28.53335],[79.461732,28.533287],[79.461743,28.533221],[79.461834,28.533152],[79.462052,28.533075],[79.462175,28.533044],[79.462349,28.533027],[79.462714,28.533046],[79.463012,28.533044],[79.463122,28.533016],[79.463175,28.53291],[79.463202,28.532806],[79.463178,28.532719],[79.463135,28.532672],[79.462958,28.532601],[79.462915,28.532537],[79.462797,28.532415],[79.462711,28.532401],[79.462507,28.532422],[79.462357,28.532391],[79.462263,28.532335],[79.46214,28.532153],[79.461982,28.532021],[79.461754,28.531988],[79.461719,28.531972],[79.461678,28.531904],[79.4617,28.531849],[79.461743,28.531823],[79.461786,28.531802],[79.461893,28.531786],[79.461992,28.531753],[79.462075,28.531705],[79.462108,28.531647],[79.462073,28.531437],[79.461963,28.531255],[79.461842,28.531196],[79.461724,28.531171],[79.461684,28.53114],[79.461689,28.531081],[79.461716,28.531006],[79.461909,28.530628],[79.462721,28.529178],[79.462695,28.528692],[79.462058,28.527889],[79.461343,28.527148],[79.461028,28.526492],[79.461311,28.526084],[79.461054,28.525632],[79.461343,28.524931],[79.462045,28.524405],[79.462708,28.524088],[79.463011,28.524297],[79.463378,28.524614],[79.463333,28.524953],[79.462863,28.524942],[79.462335,28.525219],[79.462148,28.525592],[79.462167,28.525955],[79.462361,28.526124],[79.462618,28.526215],[79.462599,28.526424],[79.462463,28.526701],[79.462579,28.527006],[79.462908,28.527006],[79.463268,28.526605],[79.463654,28.525768],[79.463893,28.52531],[79.46435,28.52484],[79.464208,28.524314],[79.463596,28.523851],[79.463815,28.523703],[79.464131,28.523664],[79.464073,28.523387],[79.463719,28.523121],[79.464015,28.522465],[79.464401,28.522255],[79.464304,28.521995],[79.463963,28.521786],[79.463551,28.521237],[79.463783,28.520875],[79.464028,28.520055],[79.463751,28.518907],[79.463436,28.518449],[79.463011,28.518347],[79.462708,28.518845],[79.462103,28.51906],[79.461266,28.518896],[79.460635,28.51833],[79.460481,28.517872],[79.460629,28.517657],[79.460951,28.517799],[79.461208,28.518093],[79.461697,28.518127],[79.461575,28.517634],[79.461781,28.517261],[79.461845,28.516758],[79.461717,28.516616],[79.461388,28.516809],[79.460745,28.517012],[79.460519,28.516859],[79.460996,28.51596],[79.461498,28.515756],[79.461903,28.515344],[79.462277,28.514851],[79.462071,28.514473],[79.461665,28.514456],[79.46023,28.513375],[79.460262,28.51294],[79.460429,28.512708],[79.459766,28.512623],[79.459393,28.512453],[79.459322,28.511972],[79.459438,28.511718],[79.459708,28.511831],[79.460552,28.512374],[79.461124,28.512142],[79.461253,28.51161],[79.460738,28.511141],[79.460165,28.510949],[79.459412,28.509523],[79.458794,28.509167],[79.457796,28.509167],[79.45676,28.509195],[79.456264,28.509529],[79.456342,28.509846],[79.456844,28.509721],[79.457397,28.509766],[79.457732,28.510015],[79.457655,28.510445],[79.45694,28.510581],[79.456322,28.511226],[79.455737,28.511893],[79.455569,28.512419],[79.455472,28.512776],[79.454546,28.512035],[79.454031,28.512193],[79.453857,28.511837],[79.45347,28.510903],[79.452968,28.510813],[79.45237,28.510564],[79.451784,28.510473],[79.451488,28.509959],[79.450928,28.509557],[79.45096,28.508952],[79.450844,28.508697],[79.450187,28.508499],[79.449119,28.508137],[79.447284,28.507447],[79.445965,28.507158],[79.445257,28.507458],[79.444864,28.508409],[79.444446,28.50859],[79.44404,28.508171],[79.444098,28.507605],[79.444658,28.507153],[79.444581,28.506751],[79.443686,28.506683],[79.442849,28.506983],[79.442083,28.507368],[79.44142,28.50734],[79.441034,28.506932],[79.440808,28.506429],[79.441227,28.505603],[79.441227,28.504347],[79.441922,28.503091],[79.442077,28.501937],[79.442125,28.50167],[79.442176,28.501505],[79.442217,28.501442],[79.442297,28.501395],[79.442436,28.501409],[79.442616,28.501399],[79.442769,28.501449],[79.442892,28.50156],[79.443236,28.501868],[79.443442,28.50204],[79.443753,28.50218],[79.444148,28.50242],[79.444298,28.502512],[79.444405,28.502594],[79.444453,28.502599],[79.444499,28.502594],[79.444558,28.502547],[79.444593,28.50242],[79.44455,28.502246],[79.444451,28.501908],[79.444298,28.501684],[79.444078,28.501522],[79.443568,28.501387],[79.443051,28.50114],[79.442898,28.501046],[79.44286,28.500985],[79.442815,28.50077],[79.442769,28.500638],[79.442627,28.500466],[79.442485,28.500296],[79.442308,28.500001],[79.442203,28.499693],[79.4422,28.499528],[79.442227,28.499377],[79.442391,28.499186],[79.442587,28.499004],[79.442801,28.49887],[79.44286,28.498811],[79.442906,28.498748],[79.442933,28.498686],[79.442938,28.498637],[79.44293,28.498557],[79.442839,28.498448],[79.442663,28.498309],[79.442601,28.498224],[79.442573,28.498161],[79.442583,28.49808],[79.442607,28.498039],[79.442635,28.498009],[79.442667,28.497994],[79.442706,28.497985],[79.442745,28.497981],[79.44286,28.49799],[79.443193,28.498062],[79.443271,28.498072],[79.443352,28.498072],[79.443419,28.498058],[79.443497,28.49803],[79.443559,28.497978],[79.443571,28.497931],[79.443595,28.497899],[79.443661,28.497834],[79.44381,28.497756],[79.443956,28.497655],[79.444026,28.497595],[79.444095,28.497521],[79.444118,28.497485],[79.444129,28.497442],[79.444132,28.497405],[79.444132,28.497366],[79.444098,28.497314],[79.44402,28.497271],[79.443968,28.497221],[79.443858,28.497145],[79.443787,28.497112],[79.443701,28.497097],[79.443594,28.497101],[79.443536,28.497101],[79.443389,28.497074],[79.443024,28.496991],[79.442829,28.49696],[79.442663,28.496963],[79.442569,28.496984],[79.442505,28.497008],[79.442412,28.497069],[79.442325,28.497162],[79.442261,28.497258],[79.442246,28.497324],[79.442245,28.497386],[79.442241,28.497423],[79.442218,28.497482],[79.442192,28.497514],[79.442145,28.497537],[79.442066,28.497565],[79.442017,28.49758],[79.441968,28.497621],[79.441886,28.497847],[79.441818,28.497966],[79.441755,28.497994],[79.441637,28.497987],[79.441562,28.497978],[79.441474,28.497908],[79.44117,28.497626],[79.440933,28.497467],[79.440834,28.497359],[79.440776,28.497295],[79.440729,28.497191],[79.440694,28.497073],[79.440694,28.497002],[79.440706,28.496956],[79.440749,28.49691],[79.440818,28.496877],[79.440945,28.496873],[79.441059,28.496886],[79.441165,28.496884],[79.44127,28.496859],[79.441397,28.49681],[79.441461,28.496759],[79.441561,28.496634],[79.441579,28.496576],[79.441581,28.496474],[79.441557,28.496269],[79.44151,28.496094],[79.441453,28.495955],[79.441362,28.495855],[79.441189,28.495716],[79.440997,28.495525],[79.440698,28.49518],[79.440513,28.494988],[79.440304,28.494851],[79.440049,28.494746],[79.439836,28.494739],[79.4398,28.494753],[79.439744,28.494786],[79.439703,28.494804],[79.439623,28.494802],[79.439483,28.494734],[79.439338,28.494666],[79.439112,28.494502],[79.438901,28.494291],[79.438707,28.494014],[79.438636,28.493853],[79.438598,28.493716],[79.438596,28.49361],[79.438598,28.493496],[79.438589,28.493418],[79.438573,28.493364],[79.438531,28.493283],[79.438406,28.493141],[79.438016,28.492912],[79.437759,28.492782],[79.437488,28.492656],[79.437336,28.492603],[79.437068,28.49261],[79.436918,28.492593],[79.436737,28.492495],[79.436681,28.492342],[79.43672,28.492216],[79.436993,28.492042],[79.43698,28.491817],[79.436846,28.49167],[79.436627,28.49161],[79.436337,28.49157],[79.436093,28.491557],[79.435785,28.49157],[79.435745,28.491506],[79.435758,28.491448],[79.436064,28.49086],[79.436199,28.490147],[79.436419,28.489991],[79.436631,28.489983],[79.43686,28.490144],[79.436953,28.490323],[79.436963,28.490386],[79.437054,28.490407],[79.437122,28.490332],[79.437125,28.490165],[79.4371,28.489972],[79.436882,28.488472],[79.436708,28.487709],[79.436772,28.487519],[79.436933,28.487443],[79.437364,28.487339],[79.437508,28.487265],[79.437847,28.486311],[79.43787,28.485772],[79.437945,28.485689],[79.438175,28.485655],[79.438264,28.485721],[79.438379,28.486165],[79.438447,28.486361],[79.438787,28.486929],[79.438889,28.486953],[79.438983,28.486907],[79.439031,28.486781],[79.439193,28.485943],[79.439328,28.484823],[79.439239,28.484233],[79.439102,28.484],[79.43888,28.483757],[79.438498,28.483376],[79.43826,28.483064],[79.438035,28.482658],[79.437885,28.482277],[79.437812,28.481859],[79.437815,28.48139],[79.43786,28.481025],[79.437905,28.480964],[79.437954,28.48094],[79.438046,28.480954],[79.43851,28.481116],[79.438759,28.481239],[79.439502,28.481996],[79.439644,28.482095],[79.439819,28.482177],[79.440006,28.482229],[79.440149,28.482243],[79.440328,28.48222],[79.440441,28.482161],[79.440537,28.482074],[79.440551,28.482038],[79.440564,28.481951],[79.440556,28.481862],[79.44028,28.481543],[79.440181,28.481331],[79.440103,28.481003],[79.44002,28.480204],[79.439982,28.480054],[79.439892,28.479951],[79.439596,28.479781],[79.439444,28.47965],[79.439348,28.479498],[79.439328,28.479371],[79.439353,28.479218],[79.439408,28.479075],[79.439553,28.478881],[79.440181,28.478125],[79.440588,28.477568],[79.44068,28.477337],[79.440736,28.477024],[79.440693,28.476852],[79.440594,28.476658],[79.440484,28.476569],[79.440344,28.476526],[79.440272,28.476531],[79.440186,28.476522],[79.440001,28.476342],[79.439773,28.476081],[79.439624,28.475815],[79.439532,28.475588],[79.439384,28.475331],[79.439145,28.475145],[79.438729,28.474893],[79.438405,28.474777],[79.437185,28.474633],[79.43701,28.474633],[79.436881,28.474579],[79.436734,28.474444],[79.43649,28.47419],[79.435905,28.473798],[79.434693,28.473369],[79.434423,28.473235],[79.434132,28.473129],[79.43366,28.473044],[79.433177,28.472891],[79.432928,28.472784],[79.432735,28.472752],[79.43256,28.472749],[79.432391,28.47277],[79.432113,28.47278],[79.431539,28.472697],[79.431243,28.472704],[79.430809,28.472766],[79.430356,28.47274],[79.430029,28.472615],[79.429658,28.472537],[79.429446,28.472556],[79.428939,28.472674],[79.428572,28.472841],[79.428371,28.472994],[79.428247,28.473105],[79.427362,28.473398],[79.427215,28.473464],[79.426252,28.474239],[79.426083,28.474284],[79.425893,28.474303],[79.425683,28.474272],[79.425445,28.474169],[79.425265,28.474025],[79.425058,28.473553],[79.424989,28.473454],[79.424844,28.473419],[79.42475,28.473419],[79.424627,28.47344],[79.424498,28.47343],[79.424079,28.473284],[79.423648,28.473183],[79.423409,28.473155],[79.423304,28.473174],[79.423248,28.473214],[79.42321,28.473273],[79.423183,28.473728],[79.423208,28.473926],[79.42331,28.474329],[79.423428,28.474491],[79.42361,28.474664],[79.424066,28.474892],[79.424085,28.474947],[79.424079,28.475053],[79.423948,28.475225],[79.423768,28.475352],[79.423669,28.475359],[79.423575,28.475317],[79.423393,28.47509],[79.423232,28.475003],[79.423108,28.474998],[79.422993,28.475029],[79.422661,28.475062],[79.422583,28.475123],[79.4225,28.475307],[79.4224,28.475637],[79.422339,28.475904],[79.422328,28.476088],[79.422408,28.476364],[79.422419,28.476514],[79.422384,28.476637],[79.422306,28.476727],[79.422148,28.476783],[79.422062,28.476767],[79.421837,28.476642],[79.421311,28.476453],[79.421121,28.476439],[79.420837,28.476524],[79.420474,28.476602],[79.420303,28.476613],[79.42022,28.476604],[79.420145,28.47658],[79.420096,28.476519],[79.420067,28.476432],[79.420078,28.476272],[79.420204,28.476029],[79.420279,28.475694],[79.420252,28.475536],[79.420104,28.475347],[79.419804,28.475161],[79.419361,28.474798],[79.41925,28.474694],[79.419147,28.474651],[79.419029,28.474634],[79.418813,28.4747],[79.418653,28.474732],[79.418543,28.47472],[79.418417,28.474675],[79.41809,28.474462],[79.418048,28.474395],[79.418044,28.474249],[79.418073,28.474161],[79.418535,28.47382],[79.418657,28.473589],[79.418655,28.473475],[79.418618,28.473378],[79.418545,28.473322],[79.418358,28.473271],[79.418233,28.473281],[79.418066,28.47333],[79.417854,28.473495],[79.417669,28.473691],[79.417394,28.474269],[79.417275,28.474474],[79.417201,28.4747],[79.417146,28.474793],[79.41708,28.474845],[79.41691,28.474915],[79.416785,28.474923],[79.41667,28.474905],[79.416485,28.474859],[79.415879,28.47479],[79.415711,28.474739],[79.415605,28.474686],[79.415481,28.47466],[79.415372,28.474674],[79.415211,28.47473],[79.415099,28.474849],[79.414972,28.475183],[79.414887,28.4753],[79.414765,28.475366],[79.414556,28.4754],[79.414352,28.47536],[79.414304,28.475298],[79.414293,28.475251],[79.414305,28.475199],[79.41435,28.475137],[79.414378,28.475058],[79.414411,28.474877],[79.414421,28.474697],[79.414359,28.474393],[79.41419,28.474226],[79.41409,28.474198],[79.41382,28.47423],[79.413762,28.474226],[79.413695,28.474179],[79.413613,28.474026],[79.413529,28.473771],[79.413537,28.473665],[79.413585,28.473585],[79.413676,28.473538],[79.413789,28.473453],[79.414229,28.472976],[79.414288,28.472879],[79.414289,28.472787],[79.414249,28.472638],[79.414241,28.472497],[79.414268,28.472366],[79.41434,28.472242],[79.414348,28.472124],[79.414296,28.472049],[79.414045,28.471962],[79.413676,28.471915],[79.413411,28.471903],[79.41288,28.471785],[79.412429,28.471628],[79.412317,28.471546],[79.412228,28.471419],[79.412223,28.471346],[79.412235,28.471238],[79.41229,28.470956],[79.412322,28.47065],[79.412299,28.470478],[79.412239,28.470382],[79.41215,28.470318],[79.412031,28.470284],[79.411912,28.470272],[79.411819,28.470296],[79.411791,28.470332],[79.411777,28.470376],[79.411717,28.470412],[79.411647,28.470412],[79.411549,28.470371],[79.411509,28.470325],[79.411501,28.470275],[79.411541,28.470134],[79.411706,28.469689],[79.411937,28.469284],[79.412078,28.46908],[79.412237,28.468948],[79.412272,28.468896],[79.412272,28.468802],[79.412259,28.468746],[79.412211,28.468691],[79.412152,28.46868],[79.412071,28.468692],[79.411942,28.468764],[79.411741,28.468786],[79.411623,28.468778],[79.41146,28.468698],[79.411183,28.468529],[79.411049,28.468481],[79.410969,28.468488],[79.410928,28.468519],[79.410896,28.468566],[79.41087,28.468889],[79.410768,28.468993],[79.410577,28.46909],[79.410336,28.469231],[79.410041,28.469344],[79.409775,28.469472],[79.409569,28.469512],[79.4094,28.469483],[79.409343,28.469429],[79.409279,28.469293],[79.409271,28.469229],[79.409287,28.469161],[79.409327,28.469127],[79.40941,28.469097],[79.409491,28.46904],[79.40951,28.468868],[79.409121,28.468132],[79.40911,28.467927],[79.409633,28.467407],[79.409517,28.466717],[79.410251,28.466004],[79.411281,28.466479],[79.411139,28.465766],[79.410688,28.464804],[79.411525,28.46477],[79.411177,28.464204],[79.410598,28.463412],[79.409414,28.463887],[79.409092,28.463582],[79.409324,28.462925],[79.409079,28.462291],[79.409027,28.460922],[79.409929,28.459948],[79.410997,28.458918],[79.410972,28.458273],[79.410263,28.457775],[79.410019,28.457051],[79.409954,28.456372],[79.410438,28.456147],[79.411191,28.455904],[79.411419,28.455852],[79.411615,28.455897],[79.412001,28.456055],[79.412602,28.456191],[79.412849,28.456227],[79.41298,28.456215],[79.413096,28.456156],[79.413125,28.456057],[79.41301,28.454762],[79.413039,28.454555],[79.413093,28.454458],[79.41319,28.454411],[79.413375,28.454453],[79.413546,28.454611],[79.413761,28.454843],[79.41393,28.455194],[79.414254,28.455628],[79.414466,28.455795],[79.414619,28.455859],[79.414744,28.455885],[79.414925,28.455871],[79.415094,28.455819],[79.415343,28.455585],[79.415475,28.455333],[79.415507,28.455093],[79.415461,28.454734],[79.415472,28.454654],[79.415588,28.454498],[79.415663,28.454376],[79.415657,28.454286],[79.415614,28.454173],[79.415397,28.454069],[79.415223,28.454055],[79.414828,28.454086],[79.414598,28.454123],[79.414359,28.454253],[79.41415,28.454331],[79.414061,28.454328],[79.413997,28.454312],[79.413962,28.454281],[79.413946,28.454178],[79.413992,28.454095],[79.414437,28.453824],[79.414665,28.45355],[79.414866,28.453211],[79.415129,28.452831],[79.415528,28.452465],[79.41581,28.452286],[79.416049,28.452216],[79.416486,28.452159],[79.417422,28.452249],[79.417816,28.452253],[79.418205,28.452192],[79.418366,28.452098],[79.418468,28.452008],[79.418532,28.451862],[79.418562,28.451135],[79.418586,28.450949],[79.418731,28.450671],[79.419015,28.450397],[79.419447,28.450145],[79.419917,28.450041],[79.420305,28.449902],[79.42059,28.449697],[79.420737,28.449447],[79.420821,28.449086],[79.420863,28.448784],[79.420794,28.448162],[79.420778,28.44735],[79.420831,28.447013],[79.420946,28.446744],[79.421027,28.446681],[79.421164,28.446657],[79.421317,28.446688],[79.421467,28.446879],[79.421596,28.446973],[79.421845,28.447004],[79.422105,28.447001],[79.42247,28.446912],[79.422636,28.446787],[79.422754,28.446582],[79.422827,28.446209],[79.422851,28.445655],[79.422907,28.445405],[79.422996,28.445157],[79.423006,28.444763],[79.422956,28.444612],[79.42291,28.444518],[79.422824,28.444473],[79.422577,28.44449],[79.422387,28.444608],[79.422116,28.44474],[79.421888,28.444775],[79.421625,28.444796],[79.421295,28.444744],[79.421,28.444601],[79.420874,28.44448],[79.420861,28.444405],[79.420861,28.444318],[79.420992,28.444167],[79.421008,28.443933],[79.420839,28.44382],[79.420563,28.443657],[79.420413,28.443476],[79.420322,28.443346],[79.420319,28.443148],[79.420399,28.442912],[79.420466,28.442841],[79.420659,28.442754],[79.420821,28.442751],[79.421091,28.442803],[79.421295,28.442858],[79.421478,28.443063],[79.421631,28.44332],[79.421918,28.44362],[79.422116,28.443735],[79.4224,28.443799],[79.422585,28.443789],[79.422658,28.443735],[79.422709,28.443645],[79.422719,28.443494],[79.422693,28.443278],[79.422701,28.443098],[79.422931,28.442124],[79.42298,28.441289],[79.42287,28.440584],[79.42273,28.439966],[79.422508,28.439341],[79.422159,28.438506],[79.421899,28.438131],[79.420962,28.437478],[79.420988,28.436675],[79.420447,28.436686],[79.419688,28.437082],[79.418735,28.437376],[79.418336,28.436912],[79.418632,28.436222],[79.419211,28.435565],[79.41925,28.435044],[79.418876,28.434727],[79.417924,28.434648],[79.41795,28.434252],[79.418246,28.434071],[79.419366,28.434048],[79.420061,28.433991],[79.420318,28.433652],[79.419392,28.433052],[79.419314,28.432248],[79.419083,28.431229],[79.41813,28.431263],[79.417422,28.431354],[79.416379,28.430991],[79.415735,28.431455],[79.4154,28.431772],[79.414525,28.43167],[79.413958,28.431342],[79.414306,28.430674],[79.41477,28.43047],[79.415323,28.430697],[79.416005,28.430448],[79.416263,28.430006],[79.415903,28.42935],[79.416083,28.428681],[79.416585,28.428274],[79.41728,28.428319],[79.417357,28.428693],[79.417473,28.429655],[79.41804,28.429666],[79.41849,28.429157],[79.41934,28.429236],[79.419559,28.428715],[79.419379,28.428149],[79.419057,28.42764],[79.418409,28.427494],[79.418136,28.427489],[79.41784,28.427541],[79.417599,28.427534],[79.417363,28.427494],[79.41725,28.427425],[79.416963,28.427204],[79.416848,28.426942],[79.416794,28.426597],[79.416784,28.42593],[79.416636,28.425541]]}}],"retrieved":"2026-09-27"}