{"type":"FeatureCollection","name":"rohilkhand_adm2","attribution":"geoBoundaries gbOpen IND ADM2 (build Dec 12, 2023; source Pathways Data Pvt. Ltd., lgdirectory.gov.in), ODbL 1.0","features":[{"type":"Feature","properties":{"district":"Budaun","shapeID":"76128533B84679668760735"},"geometry":{"type":"Polygon","coordinates":[[[78.54513,28.01489],[78.56029,28.0121],[78.57018,28.0152],[78.58905,28.02509],[78.60927,28.02973],[78.61489,28.03539],[78.62108,28.03881],[78.63133,28.03796],[78.63935,28.04554],[78.65096,28.0388],[78.66389,28.03751],[78.67202,28.03493],[78.66867,28.03187],[78.67016,28.0288],[78.67693,28.0259],[78.6807,28.00065],[78.70311,27.99222],[78.70607,27.98281],[78.71883,27.97013],[78.72199,27.96459],[78.72823,27.96104],[78.73311,27.96009],[78.73733,27.96131],[78.74196,27.95655],[78.74872,27.95755],[78.76203,27.94958],[78.76892,27.96178],[78.77326,27.96183],[78.78975,27.95163],[78.8012,27.95061],[78.80713,27.95514],[78.81829,27.95216],[78.82894,27.93627],[78.84014,27.93223],[78.85204,27.92523],[78.85498,27.91922],[78.86006,27.91532],[78.87181,27.91043],[78.88988,27.91677],[78.91363,27.88428],[78.92364,27.87542],[78.92411,27.87012],[78.91976,27.86055],[78.92139,27.85102],[78.9321,27.84906],[78.93702,27.8465],[78.94775,27.85185],[78.95852,27.84994],[78.9656,27.85066],[78.97295,27.85807],[78.97585,27.86658],[78.98769,27.87308],[79.01686,27.85791],[79.00681,27.84523],[79.00422,27.83302],[79.01641,27.83352],[79.01685,27.84136],[79.02457,27.84164],[79.03338,27.83792],[79.04705,27.83683],[79.07299,27.84338],[79.0749,27.84302],[79.07844,27.83843],[79.08536,27.83886],[79.09278,27.83668],[79.09681,27.83163],[79.09975,27.83116],[79.12359,27.84713],[79.1278,27.84527],[79.14769,27.82924],[79.14035,27.81858],[79.14338,27.81627],[79.14855,27.81626],[79.15374,27.82134],[79.1607,27.82233],[79.16328,27.81895],[79.16584,27.80886],[79.1695,27.78201],[79.17186,27.77746],[79.17572,27.77626],[79.17366,27.77264],[79.18858,27.7639],[79.19703,27.75084],[79.21221,27.7393],[79.21374,27.7347],[79.21066,27.72418],[79.21103,27.70978],[79.20971,27.70698],[79.21781,27.70461],[79.22225,27.69917],[79.22844,27.6959],[79.23732,27.7074],[79.24556,27.69767],[79.26139,27.69296],[79.26038,27.68378],[79.27517,27.67999],[79.27819,27.67561],[79.29012,27.67039],[79.30175,27.66778],[79.29428,27.67524],[79.29199,27.68016],[79.29398,27.68322],[79.2982,27.68251],[79.31038,27.67619],[79.30993,27.67403],[79.31208,27.67026],[79.31667,27.66712],[79.33497,27.65765],[79.35277,27.65158],[79.35611,27.66219],[79.35475,27.66948],[79.35313,27.67254],[79.34449,27.67862],[79.34341,27.69386],[79.3386,27.6996],[79.34063,27.7097],[79.33786,27.71608],[79.33203,27.72318],[79.33187,27.72794],[79.33836,27.73399],[79.34596,27.7361],[79.35403,27.73502],[79.35946,27.73745],[79.35777,27.75209],[79.34991,27.75424],[79.35063,27.76297],[79.35399,27.77158],[79.35711,27.79006],[79.36743,27.80286],[79.37513,27.80421],[79.37369,27.80703],[79.37538,27.81698],[79.38121,27.82042],[79.38696,27.82163],[79.38868,27.81805],[79.39275,27.81723],[79.40281,27.82339],[79.40602,27.82633],[79.40452,27.83661],[79.40766,27.84149],[79.414,27.84165],[79.42132,27.83705],[79.42354,27.83322],[79.441,27.84367],[79.44963,27.83573],[79.45668,27.84015],[79.45656,27.84347],[79.46023,27.84863],[79.46941,27.84783],[79.47411,27.84337],[79.47815,27.84202],[79.48689,27.84257],[79.48553,27.84871],[79.47765,27.85684],[79.47634,27.85557],[79.47522,27.85845],[79.47634,27.86635],[79.47454,27.86016],[79.47032,27.87089],[79.46669,27.87594],[79.46102,27.89598],[79.46808,27.92337],[79.47016,27.92683],[79.48617,27.92891],[79.48813,27.93231],[79.48646,27.93858],[79.48787,27.94172],[79.49076,27.94244],[79.4835,27.95139],[79.47941,27.95933],[79.47521,27.96239],[79.47238,27.96161],[79.46981,27.96707],[79.47282,27.97076],[79.47708,27.98442],[79.49642,27.99958],[79.5017,28.0167],[79.50052,28.02122],[79.4979,28.02044],[79.48441,28.03767],[79.48703,28.03934],[79.48158,28.04475],[79.48469,28.0533],[79.49624,28.06153],[79.50114,28.06978],[79.50199,28.08592],[79.49952,28.09366],[79.4993,28.10767],[79.4938,28.11427],[79.48355,28.12229],[79.47038,28.12733],[79.4593,28.13497],[79.44674,28.1505],[79.42912,28.15974],[79.42533,28.16493],[79.42432,28.17096],[79.4209,28.16803],[79.41269,28.16856],[79.40725,28.16612],[79.38795,28.17544],[79.37732,28.17456],[79.37457,28.16861],[79.37052,28.17014],[79.35953,28.16248],[79.35682,28.16218],[79.35118,28.16541],[79.34564,28.16298],[79.33529,28.1528],[79.32843,28.15695],[79.32716,28.16966],[79.3201,28.17572],[79.31483,28.17672],[79.30745,28.17306],[79.29872,28.17424],[79.28992,28.17173],[79.27669,28.16596],[79.27151,28.1614],[79.27216,28.16417],[79.26462,28.16835],[79.26294,28.17118],[79.25493,28.1726],[79.24233,28.18172],[79.23563,28.18436],[79.20953,28.18853],[79.20357,28.18675],[79.19635,28.17489],[79.18833,28.17261],[79.17801,28.17914],[79.17253,28.18023],[79.1612,28.17422],[79.15676,28.17736],[79.14786,28.19057],[79.13418,28.1905],[79.12965,28.18901],[79.11744,28.20611],[79.12002,28.21031],[79.12287,28.21041],[79.12721,28.21636],[79.12547,28.22074],[79.12539,28.22798],[79.11561,28.23584],[79.10766,28.23907],[79.09567,28.24692],[79.09355,28.25669],[79.09543,28.25823],[79.09546,28.26265],[79.09317,28.26667],[79.10191,28.27652],[79.10231,28.27884],[79.09759,28.29232],[79.0929,28.298],[79.09511,28.30694],[79.09408,28.31056],[79.08626,28.3126],[79.08162,28.3098],[79.07839,28.31104],[79.07365,28.31868],[79.07406,28.32674],[79.07874,28.32786],[79.08158,28.33122],[79.07924,28.34033],[79.08036,28.34891],[79.08312,28.35337],[79.0757,28.35711],[79.07424,28.35546],[79.06809,28.36109],[79.06737,28.36454],[79.05736,28.36885],[79.05136,28.3744],[79.04592,28.37667],[79.01704,28.38249],[79.00863,28.38622],[79.0049,28.38432],[79.00056,28.38471],[78.98134,28.40495],[78.97803,28.42034],[78.95516,28.43727],[78.94807,28.43745],[78.94635,28.43402],[78.9372,28.43787],[78.93798,28.44914],[78.93351,28.45272],[78.92972,28.45961],[78.92648,28.47758],[78.92083,28.47937],[78.911,28.47425],[78.90411,28.47864],[78.89998,28.47679],[78.89683,28.48037],[78.8918,28.4823],[78.88629,28.47407],[78.87123,28.48081],[78.86575,28.4746],[78.8587,28.47478],[78.85792,28.4715],[78.85447,28.46954],[78.8538,28.46485],[78.84976,28.46335],[78.84834,28.45748],[78.84618,28.45525],[78.84145,28.45926],[78.83372,28.45351],[78.82517,28.4532],[78.8184,28.44515],[78.80586,28.44976],[78.7948,28.43868],[78.79826,28.4268],[78.78841,28.41597],[78.79213,28.40844],[78.78795,28.40411],[78.7827,28.40102],[78.77815,28.40603],[78.76318,28.41026],[78.75713,28.40131],[78.76724,28.39372],[78.75848,28.38388],[78.75846,28.3801],[78.75555,28.37637],[78.75052,28.37557],[78.74049,28.3771],[78.73206,28.38466],[78.72979,28.38207],[78.71906,28.37725],[78.70752,28.37676],[78.69668,28.36842],[78.69206,28.35627],[78.68721,28.35328],[78.6808,28.34596],[78.67156,28.34761],[78.66551,28.3445],[78.66362,28.3454],[78.66846,28.34273],[78.66862,28.34083],[78.65702,28.32405],[78.66418,28.31757],[78.66433,28.31511],[78.66051,28.31164],[78.65776,28.30424],[78.64752,28.29048],[78.65481,28.27416],[78.64424,28.26501],[78.64406,28.25812],[78.63952,28.25491],[78.63716,28.25064],[78.6366,28.24461],[78.63818,28.2386],[78.63402,28.23262],[78.63842,28.22655],[78.63851,28.22249],[78.6339,28.21763],[78.62354,28.21502],[78.62073,28.21185],[78.61722,28.21083],[78.61325,28.20354],[78.60561,28.20383],[78.59881,28.19526],[78.59978,28.1896],[78.61386,28.17554],[78.61625,28.16928],[78.61463,28.16733],[78.61003,28.16637],[78.59928,28.16877],[78.59577,28.16516],[78.59491,28.15865],[78.58575,28.15998],[78.58408,28.1576],[78.58556,28.14984],[78.59435,28.14999],[78.60245,28.14235],[78.60078,28.13889],[78.59356,28.13584],[78.59435,28.1318],[78.59857,28.12748],[78.59875,28.12444],[78.59305,28.11906],[78.59274,28.11623],[78.58703,28.11593],[78.5863,28.11465],[78.58807,28.11157],[78.59691,28.1075],[78.60185,28.10167],[78.60417,28.09665],[78.60424,28.0903],[78.59751,28.08148],[78.58974,28.08185],[78.57745,28.07802],[78.56956,28.05695],[78.56152,28.04273],[78.5609,28.03406],[78.55534,28.02726],[78.55101,28.01736],[78.54513,28.01489]]]}},{"type":"Feature","properties":{"district":"Rampur","shapeID":"76128533B46682008877369"},"geometry":{"type":"Polygon","coordinates":[[[79.01128,29.1243],[79.00392,29.11814],[78.99906,29.10989],[78.9938,29.09365],[78.98251,29.08607],[78.96751,29.06117],[78.95313,29.01477],[78.93719,29.00132],[78.92853,28.99606],[78.92544,28.98863],[78.92731,28.98157],[78.92466,28.96812],[78.92833,28.96219],[78.93925,28.95859],[78.94204,28.95609],[78.95227,28.94069],[78.95405,28.93272],[78.94293,28.92632],[78.9389,28.9062],[78.9389,28.8963],[78.94385,28.88826],[78.95127,28.88455],[78.95746,28.87403],[78.95251,28.86537],[78.95313,28.85918],[78.98035,28.85114],[78.98529,28.84743],[78.98529,28.84248],[78.97787,28.83753],[78.97663,28.83196],[78.98344,28.82578],[79.00818,28.81835],[79.01004,28.8165],[79.01004,28.80474],[79.00262,28.79237],[78.99767,28.77876],[79.00664,28.75989],[79.00478,28.75309],[79.00107,28.74721],[78.9689,28.72432],[78.96612,28.70762],[78.96179,28.70298],[78.95498,28.69648],[78.94477,28.69462],[78.92796,28.69609],[78.92083,28.7046],[78.90597,28.70606],[78.87956,28.69026],[78.86389,28.6997],[78.86173,28.70662],[78.86726,28.71248],[78.86558,28.72034],[78.86085,28.72553],[78.85267,28.72795],[78.84913,28.72654],[78.84724,28.72407],[78.84866,28.70865],[78.85412,28.70475],[78.83906,28.68053],[78.84678,28.67232],[78.8397,28.66008],[78.8443,28.65741],[78.85697,28.64437],[78.8609,28.64322],[78.87897,28.62921],[78.88065,28.62206],[78.88434,28.61532],[78.89005,28.61217],[78.89545,28.61132],[78.89627,28.60749],[78.90558,28.60342],[78.90475,28.59289],[78.90732,28.58993],[78.91722,28.58689],[78.92177,28.58051],[78.9194,28.57701],[78.92054,28.57439],[78.93811,28.56246],[78.93997,28.54355],[78.9301,28.54455],[78.92782,28.53983],[78.92911,28.53284],[78.93837,28.52312],[78.94135,28.51691],[78.94118,28.51283],[78.93863,28.51003],[78.93502,28.51106],[78.93226,28.50866],[78.93338,28.50449],[78.9224,28.48658],[78.92083,28.47937],[78.92648,28.47758],[78.92972,28.45961],[78.93351,28.45272],[78.93798,28.44914],[78.9372,28.43787],[78.94635,28.43402],[78.94807,28.43745],[78.95516,28.43727],[78.97803,28.42034],[78.98134,28.40495],[79.00056,28.38471],[79.00055,28.43142],[79.00773,28.43481],[79.01735,28.43147],[79.02393,28.43285],[79.02664,28.43501],[79.03331,28.43403],[79.03871,28.43809],[79.03532,28.44462],[79.0424,28.44769],[79.05641,28.44873],[79.05941,28.45548],[79.05155,28.46249],[79.05162,28.46513],[79.06713,28.46416],[79.07201,28.46197],[79.07871,28.46413],[79.0837,28.46971],[79.07892,28.48294],[79.09871,28.48602],[79.11771,28.48183],[79.12568,28.48473],[79.12793,28.48709],[79.14085,28.48981],[79.15544,28.50339],[79.15815,28.50964],[79.16434,28.51708],[79.16634,28.52185],[79.16309,28.53607],[79.16752,28.54021],[79.17231,28.54186],[79.18371,28.55691],[79.19068,28.55455],[79.19647,28.55728],[79.20226,28.56345],[79.20915,28.57933],[79.22233,28.57239],[79.22861,28.59034],[79.23903,28.59739],[79.24239,28.60331],[79.24271,28.60714],[79.23646,28.61417],[79.23926,28.62691],[79.23772,28.63711],[79.25054,28.64041],[79.25549,28.64389],[79.27719,28.66694],[79.2863,28.6802],[79.29563,28.69878],[79.30198,28.71583],[79.30477,28.71873],[79.32411,28.72516],[79.32936,28.72321],[79.33615,28.72792],[79.34361,28.72537],[79.34709,28.72629],[79.35077,28.73289],[79.36537,28.73976],[79.36852,28.74326],[79.36886,28.75035],[79.35826,28.75809],[79.35904,28.7654],[79.36141,28.76698],[79.3718,28.75986],[79.38845,28.75723],[79.39213,28.76053],[79.39244,28.76624],[79.38981,28.77037],[79.38612,28.77219],[79.38441,28.7777],[79.38483,28.78421],[79.38676,28.78788],[79.38563,28.79388],[79.37833,28.80255],[79.37787,28.80871],[79.37292,28.81675],[79.37454,28.81981],[79.38046,28.82212],[79.38799,28.81606],[79.40517,28.81949],[79.4057,28.82395],[79.40871,28.82669],[79.40742,28.83697],[79.39374,28.83696],[79.3876,28.84165],[79.38939,28.846],[79.39168,28.84677],[79.39944,28.84436],[79.41002,28.84911],[79.40966,28.85113],[79.39295,28.85733],[79.38716,28.86144],[79.38343,28.86613],[79.38297,28.87066],[79.38464,28.87446],[79.38847,28.87363],[79.39024,28.87495],[79.40271,28.87108],[79.40501,28.87267],[79.4054,28.87646],[79.40777,28.87924],[79.43438,28.87222],[79.43424,28.87806],[79.43713,28.88093],[79.44042,28.89061],[79.43708,28.89749],[79.43251,28.89784],[79.4338,28.90198],[79.43149,28.90464],[79.43184,28.90733],[79.43443,28.90955],[79.43364,28.91304],[79.43638,28.9156],[79.43465,28.91663],[79.43709,28.9172],[79.43454,28.91814],[79.43647,28.91963],[79.43447,28.92161],[79.43641,28.92073],[79.43735,28.92422],[79.43465,28.92753],[79.42522,28.93219],[79.42846,28.93774],[79.42823,28.94436],[79.42493,28.94573],[79.42485,28.94885],[79.41715,28.95659],[79.41521,28.95636],[79.41566,28.95449],[79.41372,28.95493],[79.41387,28.9537],[79.41231,28.95454],[79.39984,28.95193],[79.39457,28.95607],[79.39563,28.95759],[79.39114,28.96926],[79.39239,28.97208],[79.39041,28.97464],[79.38654,28.97596],[79.38703,28.98027],[79.38143,28.98919],[79.38168,28.9917],[79.37713,28.99106],[79.37172,28.98592],[79.37258,28.98249],[79.37042,28.97637],[79.37465,28.97515],[79.37415,28.97256],[79.36532,28.97228],[79.34774,28.97651],[79.33026,28.97646],[79.32172,28.98154],[79.3205,28.98018],[79.3222,28.97956],[79.31951,28.9761],[79.32207,28.97571],[79.32224,28.97366],[79.32037,28.97441],[79.31977,28.97248],[79.31651,28.97105],[79.30758,28.97761],[79.30131,28.97853],[79.26827,28.99701],[79.25725,29.00767],[79.26047,29.01324],[79.25804,29.0116],[79.25687,29.01306],[79.25404,29.01254],[79.23851,29.01923],[79.22125,29.03116],[79.2138,29.024],[79.20719,29.0252],[79.20411,29.02369],[79.20049,29.0266],[79.20031,29.02266],[79.20415,29.02022],[79.20352,29.01851],[79.19503,29.02079],[79.19028,29.01603],[79.18336,29.01672],[79.18704,29.01886],[79.18678,29.02038],[79.18421,29.01961],[79.1827,29.02125],[79.17862,29.02115],[79.17788,29.02368],[79.17512,29.02177],[79.17642,29.02422],[79.17362,29.02585],[79.17523,29.02796],[79.17241,29.03064],[79.17302,29.03384],[79.17719,29.03181],[79.17517,29.03636],[79.17766,29.03627],[79.17865,29.0418],[79.1803,29.04191],[79.17654,29.04456],[79.1793,29.04431],[79.17933,29.04723],[79.182,29.04622],[79.18292,29.04808],[79.18145,29.0492],[79.18495,29.05006],[79.18509,29.05243],[79.17227,29.05402],[79.16306,29.06209],[79.15958,29.06267],[79.15803,29.06628],[79.1563,29.06569],[79.1573,29.06839],[79.15512,29.06965],[79.15425,29.07362],[79.15709,29.07643],[79.15386,29.07773],[79.1524,29.08699],[79.15499,29.08699],[79.1532,29.09132],[79.15718,29.09279],[79.1626,29.09917],[79.16125,29.10159],[79.15846,29.10231],[79.16257,29.10923],[79.16216,29.11575],[79.16384,29.12132],[79.15014,29.12664],[79.15343,29.1293],[79.13545,29.13832],[79.13352,29.13208],[79.12981,29.13062],[79.12518,29.13288],[79.12389,29.13194],[79.11273,29.13745],[79.09635,29.15039],[79.09342,29.15047],[79.08585,29.15517],[79.06938,29.16173],[79.06779,29.15966],[79.06455,29.15926],[79.05707,29.16572],[79.05539,29.16912],[79.0504,29.17238],[79.04649,29.17278],[79.04153,29.16993],[79.04057,29.16573],[79.04454,29.16249],[79.05039,29.16324],[79.0467,29.15827],[79.04829,29.14948],[79.04667,29.14805],[79.03881,29.1511],[79.03519,29.15842],[79.02945,29.15909],[79.02877,29.1571],[79.03199,29.14945],[79.03125,29.14594],[79.02627,29.13941],[79.02588,29.13604],[79.0295,29.13314],[79.03791,29.13661],[79.04284,29.13096],[79.05172,29.13068],[79.04961,29.12728],[79.04204,29.11919],[79.03512,29.11654],[79.02569,29.12096],[79.01842,29.11525],[79.01796,29.12245],[79.01252,29.12279],[79.01128,29.1243]]]}},{"type":"Feature","properties":{"district":"Bareilly","shapeID":"76128533B68554447699730"},"geometry":{"type":"Polygon","coordinates":[[[79.45078,28.86626],[79.40777,28.87924],[79.4054,28.87646],[79.40501,28.87267],[79.40271,28.87108],[79.39024,28.87495],[79.38847,28.87363],[79.38464,28.87446],[79.38297,28.87066],[79.38343,28.86613],[79.38716,28.86144],[79.39295,28.85733],[79.40966,28.85113],[79.41002,28.84911],[79.39944,28.84436],[79.39168,28.84677],[79.38939,28.846],[79.3876,28.84165],[79.39374,28.83696],[79.40742,28.83697],[79.40871,28.82669],[79.4057,28.82395],[79.40517,28.81949],[79.38799,28.81606],[79.38046,28.82212],[79.37454,28.81981],[79.37292,28.81675],[79.37787,28.80871],[79.37833,28.80255],[79.38563,28.79388],[79.38676,28.78788],[79.38483,28.78421],[79.38441,28.7777],[79.38612,28.77219],[79.38981,28.77037],[79.39244,28.76624],[79.39213,28.76053],[79.38845,28.75723],[79.3718,28.75986],[79.36141,28.76698],[79.35904,28.7654],[79.35826,28.75809],[79.36886,28.75035],[79.36852,28.74326],[79.36537,28.73976],[79.35077,28.73289],[79.34709,28.72629],[79.34361,28.72537],[79.33615,28.72792],[79.32936,28.72321],[79.32411,28.72516],[79.30477,28.71873],[79.30198,28.71583],[79.29563,28.69878],[79.2863,28.6802],[79.27719,28.66694],[79.25549,28.64389],[79.25054,28.64041],[79.23772,28.63711],[79.23926,28.62691],[79.23646,28.61417],[79.24271,28.60714],[79.24239,28.60331],[79.23903,28.59739],[79.22861,28.59034],[79.22233,28.57239],[79.20915,28.57933],[79.20226,28.56345],[79.19647,28.55728],[79.19068,28.55455],[79.18371,28.55691],[79.17231,28.54186],[79.16752,28.54021],[79.16309,28.53607],[79.16634,28.52185],[79.16434,28.51708],[79.15815,28.50964],[79.15544,28.50339],[79.14085,28.48981],[79.12793,28.48709],[79.12568,28.48473],[79.11771,28.48183],[79.09871,28.48602],[79.07892,28.48294],[79.0837,28.46971],[79.07871,28.46413],[79.07201,28.46197],[79.06713,28.46416],[79.05162,28.46513],[79.05155,28.46249],[79.05941,28.45548],[79.05641,28.44873],[79.0424,28.44769],[79.03532,28.44462],[79.03871,28.43809],[79.03331,28.43403],[79.02664,28.43501],[79.02393,28.43285],[79.01735,28.43147],[79.00773,28.43481],[79.00055,28.43142],[79.00056,28.38471],[79.0049,28.38432],[79.00863,28.38622],[79.01704,28.38249],[79.04592,28.37667],[79.05136,28.3744],[79.05736,28.36885],[79.06737,28.36454],[79.06809,28.36109],[79.07424,28.35546],[79.0757,28.35711],[79.08312,28.35337],[79.08036,28.34891],[79.07924,28.34033],[79.08158,28.33122],[79.07874,28.32786],[79.07406,28.32674],[79.07365,28.31868],[79.07839,28.31104],[79.08162,28.3098],[79.08626,28.3126],[79.09408,28.31056],[79.09511,28.30694],[79.0929,28.298],[79.09759,28.29232],[79.10231,28.27884],[79.10191,28.27652],[79.09317,28.26667],[79.09546,28.26265],[79.09543,28.25823],[79.09355,28.25669],[79.09567,28.24692],[79.10766,28.23907],[79.11561,28.23584],[79.12539,28.22798],[79.12547,28.22074],[79.12721,28.21636],[79.12287,28.21041],[79.12002,28.21031],[79.11744,28.20611],[79.12965,28.18901],[79.13418,28.1905],[79.14786,28.19057],[79.15676,28.17736],[79.1612,28.17422],[79.17253,28.18023],[79.17801,28.17914],[79.18833,28.17261],[79.19635,28.17489],[79.20357,28.18675],[79.20953,28.18853],[79.23563,28.18436],[79.24233,28.18172],[79.25493,28.1726],[79.26294,28.17118],[79.26462,28.16835],[79.27216,28.16417],[79.27151,28.1614],[79.27669,28.16596],[79.28992,28.17173],[79.29872,28.17424],[79.30745,28.17306],[79.31483,28.17672],[79.3201,28.17572],[79.32716,28.16966],[79.32843,28.15695],[79.33529,28.1528],[79.34564,28.16298],[79.35118,28.16541],[79.35682,28.16218],[79.35953,28.16248],[79.37052,28.17014],[79.37457,28.16861],[79.37732,28.17456],[79.38795,28.17544],[79.40725,28.16612],[79.41269,28.16856],[79.4209,28.16803],[79.42432,28.17096],[79.42533,28.16493],[79.42912,28.15974],[79.44674,28.1505],[79.4593,28.13497],[79.47038,28.12733],[79.48355,28.12229],[79.4938,28.11427],[79.4993,28.10767],[79.49952,28.09366],[79.50199,28.08592],[79.50114,28.06978],[79.49624,28.06153],[79.48469,28.0533],[79.48158,28.04475],[79.48703,28.03934],[79.48441,28.03767],[79.4979,28.02044],[79.50928,28.03551],[79.50726,28.04444],[79.51769,28.04816],[79.52347,28.05519],[79.52906,28.05919],[79.53349,28.05609],[79.53939,28.0583],[79.54957,28.06925],[79.562,28.06766],[79.57651,28.07691],[79.58657,28.09072],[79.59553,28.08418],[79.6023,28.08158],[79.61453,28.08437],[79.61927,28.0824],[79.63045,28.08427],[79.63181,28.08604],[79.6325,28.09818],[79.63535,28.10249],[79.63527,28.10793],[79.63231,28.11646],[79.63836,28.12192],[79.63011,28.13061],[79.62941,28.13418],[79.62665,28.13407],[79.62391,28.14265],[79.62442,28.1472],[79.6217,28.14905],[79.62254,28.153],[79.6287,28.15633],[79.62934,28.16319],[79.63461,28.17941],[79.63933,28.18647],[79.64683,28.19235],[79.64108,28.20037],[79.64303,28.20204],[79.64159,28.20672],[79.64584,28.21197],[79.65401,28.21512],[79.66615,28.21347],[79.67239,28.22101],[79.67228,28.22965],[79.66817,28.23675],[79.67465,28.24435],[79.68267,28.24626],[79.68386,28.24842],[79.6772,28.26135],[79.67928,28.26325],[79.68552,28.26303],[79.68834,28.26557],[79.68873,28.26974],[79.69249,28.27127],[79.69531,28.26336],[79.71213,28.26434],[79.71401,28.26769],[79.71132,28.27588],[79.71102,28.28648],[79.69132,28.29589],[79.68552,28.30267],[79.6787,28.30616],[79.67361,28.31689],[79.67433,28.31977],[79.69038,28.3389],[79.69324,28.34564],[79.6978,28.3509],[79.6977,28.35926],[79.70111,28.36141],[79.70282,28.36537],[79.70324,28.37245],[79.70087,28.37589],[79.6897,28.3747],[79.6866,28.37812],[79.68794,28.38437],[79.67421,28.38857],[79.67224,28.39122],[79.69049,28.4012],[79.69857,28.41496],[79.70531,28.41802],[79.70857,28.41606],[79.7127,28.41009],[79.7234,28.41296],[79.72612,28.41856],[79.72572,28.43023],[79.72476,28.44301],[79.7213,28.45456],[79.72817,28.46014],[79.73576,28.45817],[79.73889,28.45284],[79.73814,28.44693],[79.74074,28.44239],[79.74564,28.44148],[79.75777,28.45026],[79.75643,28.45478],[79.74472,28.46587],[79.74382,28.47579],[79.75031,28.49625],[79.74854,28.50529],[79.74199,28.50924],[79.72107,28.5164],[79.71785,28.53099],[79.71182,28.53227],[79.70401,28.52795],[79.70237,28.52489],[79.70507,28.51955],[79.70228,28.51859],[79.69071,28.52301],[79.68688,28.52624],[79.68555,28.52846],[79.68711,28.54168],[79.69265,28.55196],[79.69292,28.55578],[79.68568,28.55518],[79.67005,28.54834],[79.66589,28.54919],[79.66327,28.55448],[79.66728,28.56692],[79.67391,28.57216],[79.67589,28.58265],[79.66126,28.58256],[79.65384,28.5847],[79.65323,28.59501],[79.65041,28.60069],[79.646,28.60294],[79.61282,28.59268],[79.60828,28.59634],[79.60685,28.60261],[79.60009,28.61587],[79.60619,28.62448],[79.60799,28.62986],[79.5987,28.63483],[79.61412,28.64754],[79.61327,28.65529],[79.62024,28.66647],[79.62258,28.67482],[79.61802,28.68249],[79.61818,28.6874],[79.62547,28.69527],[79.6286,28.70157],[79.62977,28.70894],[79.64281,28.72179],[79.64855,28.72497],[79.65114,28.72358],[79.65847,28.72626],[79.6593,28.72889],[79.66733,28.73531],[79.67299,28.74338],[79.66959,28.74831],[79.67131,28.75739],[79.67019,28.75967],[79.65516,28.77061],[79.65789,28.80262],[79.65444,28.81776],[79.64359,28.83812],[79.6464,28.84197],[79.65145,28.84431],[79.63121,28.86138],[79.62573,28.86254],[79.62076,28.85736],[79.61149,28.86159],[79.61125,28.85909],[79.60878,28.85937],[79.60488,28.85604],[79.60129,28.85627],[79.59922,28.85389],[79.59524,28.85493],[79.59223,28.85073],[79.58373,28.85491],[79.58187,28.85983],[79.58929,28.87119],[79.58795,28.87597],[79.59213,28.8836],[79.5865,28.888],[79.58743,28.89029],[79.58581,28.89287],[79.57894,28.89106],[79.57793,28.89348],[79.57933,28.89711],[79.56401,28.90368],[79.56126,28.90043],[79.56235,28.89867],[79.56099,28.89667],[79.55637,28.89508],[79.5532,28.89001],[79.54972,28.88887],[79.54852,28.88649],[79.54978,28.88551],[79.54448,28.88142],[79.54118,28.87424],[79.53352,28.87232],[79.53004,28.86896],[79.52586,28.87135],[79.51937,28.87176],[79.51836,28.86921],[79.51476,28.87033],[79.51461,28.87314],[79.5063,28.87743],[79.48826,28.87569],[79.48806,28.8712],[79.48552,28.86914],[79.47532,28.87232],[79.47217,28.87119],[79.46118,28.87604],[79.45925,28.87519],[79.45978,28.87241],[79.45561,28.87236],[79.45494,28.86867],[79.45078,28.86626]]]}},{"type":"Feature","properties":{"district":"Shahjahanpur","shapeID":"76128533B96870418529164"},"geometry":{"type":"Polygon","coordinates":[[[79.35056,27.65232],[79.347,27.64785],[79.35355,27.64649],[79.37352,27.64742],[79.37623,27.64128],[79.38524,27.64499],[79.39566,27.64516],[79.40602,27.64087],[79.41867,27.63166],[79.4277,27.62767],[79.43297,27.63068],[79.43953,27.63775],[79.44511,27.63966],[79.456,27.63334],[79.46048,27.63496],[79.46463,27.63332],[79.4782,27.62354],[79.48026,27.61731],[79.48558,27.60971],[79.47936,27.5985],[79.48077,27.59648],[79.50241,27.58911],[79.50983,27.58944],[79.51828,27.59802],[79.52109,27.59858],[79.53337,27.59109],[79.53687,27.59149],[79.5443,27.59697],[79.5543,27.59727],[79.55693,27.59416],[79.5567,27.58827],[79.56909,27.59087],[79.59067,27.59101],[79.59491,27.59807],[79.61302,27.59316],[79.61094,27.59905],[79.59973,27.60511],[79.59768,27.60939],[79.59857,27.6144],[79.60549,27.61681],[79.61346,27.61561],[79.6189,27.61809],[79.62086,27.62463],[79.631,27.63439],[79.65371,27.64088],[79.64938,27.63261],[79.65012,27.63092],[79.65794,27.63448],[79.65283,27.61787],[79.65345,27.61441],[79.65866,27.61226],[79.65946,27.60958],[79.6492,27.59817],[79.64315,27.5799],[79.64514,27.57648],[79.65654,27.57464],[79.65695,27.5639],[79.66271,27.5377],[79.66063,27.52841],[79.6629,27.52469],[79.65829,27.50669],[79.663,27.50284],[79.6662,27.50365],[79.66427,27.49544],[79.67651,27.49568],[79.67949,27.49198],[79.6833,27.49104],[79.6936,27.49327],[79.70373,27.49059],[79.69975,27.47765],[79.70032,27.47139],[79.70502,27.47251],[79.70983,27.47634],[79.71678,27.47324],[79.72192,27.47911],[79.73266,27.48631],[79.73328,27.48989],[79.73103,27.49912],[79.73463,27.50512],[79.73047,27.51348],[79.73122,27.5291],[79.72826,27.53738],[79.72297,27.54114],[79.70942,27.54676],[79.71002,27.5531],[79.71671,27.56611],[79.71374,27.57618],[79.71695,27.58192],[79.7152,27.58797],[79.70802,27.58839],[79.70435,27.59052],[79.70382,27.59628],[79.70013,27.60317],[79.69988,27.60835],[79.70315,27.61116],[79.70152,27.61583],[79.69147,27.6188],[79.68871,27.62599],[79.68873,27.63344],[79.69486,27.64276],[79.69673,27.65293],[79.69965,27.65634],[79.71407,27.66563],[79.72684,27.66929],[79.72921,27.67221],[79.73389,27.68694],[79.7354,27.71357],[79.73816,27.71907],[79.74168,27.72171],[79.74412,27.71968],[79.75257,27.71765],[79.75778,27.71867],[79.76695,27.71269],[79.78595,27.68234],[79.80938,27.65997],[79.81484,27.65658],[79.8263,27.65347],[79.86176,27.64975],[79.86631,27.65251],[79.88298,27.67703],[79.88202,27.7],[79.88787,27.70379],[79.89577,27.7032],[79.90237,27.70054],[79.91239,27.70103],[79.91859,27.70307],[79.91549,27.71004],[79.91164,27.71423],[79.91437,27.72057],[79.93287,27.71232],[79.94627,27.71383],[79.95177,27.71566],[79.96179,27.72789],[79.97212,27.73189],[79.98043,27.73006],[79.98725,27.72581],[80.00033,27.72857],[80.00655,27.72652],[80.01461,27.73268],[80.01871,27.73033],[80.0286,27.74378],[80.03224,27.74191],[80.03514,27.7351],[80.03762,27.73393],[80.04506,27.74266],[80.04927,27.74067],[80.05945,27.74112],[80.07071,27.74579],[80.07422,27.74919],[80.07133,27.75201],[80.06924,27.75194],[80.06995,27.75376],[80.06791,27.75343],[80.0609,27.75844],[80.05873,27.76452],[80.06328,27.77025],[80.05674,27.78983],[80.05302,27.79225],[80.05458,27.79511],[80.04998,27.79954],[80.05357,27.8031],[80.05123,27.80678],[80.05233,27.80776],[80.04641,27.81234],[80.05524,27.81895],[80.05494,27.82349],[80.04081,27.82509],[80.03486,27.82941],[80.03468,27.8339],[80.03612,27.83595],[80.04884,27.84171],[80.05145,27.84586],[80.05743,27.84881],[80.05678,27.86128],[80.04177,27.87776],[80.03214,27.88207],[80.02691,27.9042],[80.02876,27.91602],[80.02576,27.91876],[80.0327,27.92298],[80.04605,27.92453],[80.06025,27.93334],[80.06458,27.93299],[80.06707,27.93101],[80.06075,27.92348],[80.06566,27.92072],[80.06956,27.92154],[80.07745,27.92686],[80.08242,27.92664],[80.0888,27.93325],[80.08721,27.94909],[80.08888,27.95284],[80.10532,27.96396],[80.10191,27.96742],[80.11248,27.97022],[80.11673,27.97461],[80.11849,27.97911],[80.11718,27.98354],[80.12214,27.98937],[80.12388,27.99624],[80.14578,27.99793],[80.15935,28.00169],[80.15826,28.00429],[80.16273,28.00568],[80.16611,28.01029],[80.17049,28.01039],[80.17503,28.01523],[80.17213,28.01823],[80.17768,28.02267],[80.18522,28.0182],[80.1896,28.01746],[80.1924,28.01869],[80.19888,28.0264],[80.20726,28.03005],[80.22383,28.04928],[80.2365,28.05399],[80.24605,28.05363],[80.25696,28.07],[80.25977,28.08264],[80.25589,28.08974],[80.24891,28.0959],[80.24994,28.10289],[80.24755,28.10526],[80.24742,28.10814],[80.24959,28.11704],[80.24523,28.12381],[80.24415,28.12929],[80.25135,28.15047],[80.25709,28.1558],[80.26357,28.15128],[80.27849,28.14972],[80.28406,28.15647],[80.30221,28.15194],[80.30376,28.15582],[80.30393,28.16586],[80.30924,28.1712],[80.31181,28.18056],[80.30983,28.1867],[80.3048,28.18999],[80.30324,28.18757],[80.29958,28.19384],[80.30163,28.20224],[80.29948,28.20619],[80.30028,28.21283],[80.30884,28.22369],[80.31413,28.24234],[80.31113,28.25548],[80.3073,28.25849],[80.31241,28.26975],[80.32256,28.27998],[80.33426,28.29595],[80.35093,28.31112],[80.35542,28.32081],[80.36865,28.33198],[80.37041,28.33662],[80.34059,28.33237],[80.33611,28.33484],[80.33422,28.34044],[80.32837,28.34582],[80.32358,28.34722],[80.30579,28.34768],[80.28213,28.36506],[80.26512,28.36763],[80.26311,28.36485],[80.26574,28.34691],[80.26496,28.33098],[80.25445,28.31551],[80.24702,28.31427],[80.23991,28.31536],[80.22259,28.32402],[80.21284,28.34087],[80.20465,28.3449],[80.20248,28.3449],[80.19537,28.335],[80.18779,28.33407],[80.17851,28.33964],[80.17309,28.33964],[80.16088,28.33608],[80.14665,28.3466],[80.13319,28.35108],[80.10858,28.35139],[80.10177,28.35495],[80.09791,28.36401],[80.09076,28.36348],[80.07275,28.33211],[80.06631,28.33569],[80.05988,28.34781],[80.01476,28.36219],[80.0152,28.35822],[80.00825,28.34458],[79.98812,28.33597],[79.95777,28.33126],[79.9485,28.3225],[79.94222,28.31084],[79.94237,28.30601],[79.94773,28.2981],[79.95103,28.2674],[79.9563,28.24619],[79.95608,28.23248],[79.9588,28.21498],[79.95702,28.19134],[79.96252,28.18258],[79.96485,28.17227],[79.96558,28.14648],[79.9654,28.14259],[79.9577,28.1269],[79.95858,28.11866],[79.95584,28.11683],[79.94608,28.11742],[79.94036,28.11511],[79.93762,28.11592],[79.93342,28.12441],[79.92178,28.12864],[79.90703,28.14011],[79.90093,28.14079],[79.8881,28.1375],[79.88243,28.1346],[79.87842,28.13006],[79.86316,28.13808],[79.86541,28.14629],[79.86343,28.14777],[79.86392,28.15131],[79.86601,28.15448],[79.86844,28.15586],[79.88109,28.15107],[79.88202,28.1534],[79.87624,28.15493],[79.88512,28.16654],[79.88777,28.17789],[79.88491,28.18222],[79.88013,28.18213],[79.87732,28.18406],[79.87543,28.18355],[79.87239,28.18652],[79.86427,28.18837],[79.86804,28.19594],[79.85813,28.2012],[79.85025,28.20041],[79.84076,28.20855],[79.84425,28.21998],[79.84475,28.23061],[79.83182,28.23934],[79.82657,28.23819],[79.81208,28.23885],[79.81117,28.22945],[79.81334,28.21987],[79.82035,28.20639],[79.82205,28.19948],[79.82069,28.19482],[79.81483,28.18853],[79.8119,28.1803],[79.80283,28.16847],[79.79382,28.16957],[79.79117,28.16857],[79.78541,28.16101],[79.78201,28.15977],[79.7738,28.16299],[79.75839,28.173],[79.75254,28.17757],[79.75169,28.18127],[79.74625,28.18493],[79.73919,28.18226],[79.73542,28.18242],[79.72971,28.17882],[79.7248,28.17953],[79.72219,28.18421],[79.72795,28.18598],[79.73492,28.19566],[79.7253,28.19888],[79.71972,28.19773],[79.71627,28.19994],[79.71474,28.20497],[79.71662,28.2089],[79.72854,28.21881],[79.73815,28.22015],[79.73686,28.22917],[79.73127,28.23325],[79.71286,28.232],[79.70726,28.23425],[79.7056,28.23718],[79.70706,28.2408],[79.70228,28.24733],[79.68552,28.26303],[79.67928,28.26325],[79.6772,28.26135],[79.68386,28.24842],[79.68267,28.24626],[79.67465,28.24435],[79.66817,28.23675],[79.67228,28.22965],[79.67239,28.22101],[79.66615,28.21347],[79.65401,28.21512],[79.64584,28.21197],[79.64277,28.20882],[79.64159,28.20672],[79.64303,28.20204],[79.64108,28.20037],[79.64683,28.19235],[79.63933,28.18647],[79.63461,28.17941],[79.62934,28.16319],[79.6287,28.15633],[79.62254,28.153],[79.6217,28.14905],[79.62442,28.1472],[79.62391,28.14265],[79.62665,28.13407],[79.62941,28.13418],[79.63011,28.13061],[79.63836,28.12192],[79.63231,28.11646],[79.63527,28.10793],[79.63535,28.10249],[79.6325,28.09818],[79.63181,28.08604],[79.63045,28.08427],[79.61927,28.0824],[79.61453,28.08437],[79.6023,28.08158],[79.59553,28.08418],[79.58657,28.09072],[79.57651,28.07691],[79.562,28.06766],[79.54957,28.06925],[79.53939,28.0583],[79.53349,28.05609],[79.52906,28.05919],[79.52347,28.05519],[79.51769,28.04816],[79.50726,28.04444],[79.50928,28.03551],[79.4979,28.02044],[79.50052,28.02122],[79.5017,28.0167],[79.49642,27.99958],[79.47708,27.98442],[79.47282,27.97076],[79.46981,27.96707],[79.47238,27.96161],[79.47521,27.96239],[79.47941,27.95933],[79.4835,27.95139],[79.49076,27.94244],[79.48787,27.94172],[79.48646,27.93858],[79.48813,27.93231],[79.48617,27.92891],[79.47016,27.92683],[79.46808,27.92337],[79.46102,27.89598],[79.46669,27.87594],[79.47032,27.87089],[79.47454,27.86016],[79.47634,27.86635],[79.47522,27.85845],[79.47634,27.85557],[79.47765,27.85684],[79.48553,27.84871],[79.48689,27.84257],[79.47815,27.84202],[79.47411,27.84337],[79.46941,27.84783],[79.46023,27.84863],[79.45656,27.84347],[79.45668,27.84015],[79.44963,27.83573],[79.441,27.84367],[79.42354,27.83322],[79.42132,27.83705],[79.414,27.84165],[79.40766,27.84149],[79.40452,27.83661],[79.40602,27.82633],[79.39275,27.81723],[79.38868,27.81805],[79.38696,27.82163],[79.38121,27.82042],[79.37538,27.81698],[79.37369,27.80703],[79.37513,27.80421],[79.36743,27.80286],[79.35711,27.79006],[79.35399,27.77158],[79.35063,27.76297],[79.34991,27.75424],[79.35777,27.75209],[79.35946,27.73745],[79.35403,27.73502],[79.34596,27.7361],[79.33836,27.73399],[79.33187,27.72794],[79.33203,27.72318],[79.33786,27.71608],[79.34063,27.7097],[79.3386,27.6996],[79.34341,27.69386],[79.34449,27.67862],[79.35313,27.67254],[79.35475,27.66948],[79.35611,27.66219],[79.35277,27.65158],[79.35056,27.65232]]]}},{"type":"Feature","properties":{"district":"Pilibhit","shapeID":"76128533B90071703601852"},"geometry":{"type":"Polygon","coordinates":[[[79.63285,28.86072],[79.65145,28.84431],[79.6464,28.84197],[79.64359,28.83812],[79.65444,28.81776],[79.65789,28.80262],[79.65516,28.77061],[79.67019,28.75967],[79.67131,28.75739],[79.66959,28.74831],[79.67299,28.74338],[79.66733,28.73531],[79.6593,28.72889],[79.65847,28.72626],[79.65114,28.72358],[79.64855,28.72497],[79.64281,28.72179],[79.62977,28.70894],[79.6286,28.70157],[79.62547,28.69527],[79.61818,28.6874],[79.61802,28.68249],[79.62258,28.67482],[79.62024,28.66647],[79.61327,28.65529],[79.61412,28.64754],[79.5987,28.63483],[79.60799,28.62986],[79.60619,28.62448],[79.60009,28.61587],[79.60685,28.60261],[79.60828,28.59634],[79.61282,28.59268],[79.646,28.60294],[79.65041,28.60069],[79.65323,28.59501],[79.65384,28.5847],[79.66126,28.58256],[79.67589,28.58265],[79.67391,28.57216],[79.66728,28.56692],[79.66327,28.55448],[79.66589,28.54919],[79.67005,28.54834],[79.68568,28.55518],[79.69292,28.55578],[79.69265,28.55196],[79.68711,28.54168],[79.68555,28.52846],[79.68688,28.52624],[79.69071,28.52301],[79.70228,28.51859],[79.70507,28.51955],[79.70237,28.52489],[79.70401,28.52795],[79.71182,28.53227],[79.71785,28.53099],[79.72107,28.5164],[79.74199,28.50924],[79.74854,28.50529],[79.75031,28.49625],[79.74382,28.47579],[79.74472,28.46587],[79.75643,28.45478],[79.75777,28.45026],[79.74564,28.44148],[79.74074,28.44239],[79.73814,28.44693],[79.73889,28.45284],[79.73576,28.45817],[79.72817,28.46014],[79.7213,28.45456],[79.72476,28.44301],[79.72572,28.43023],[79.72612,28.41856],[79.7234,28.41296],[79.7127,28.41009],[79.70857,28.41606],[79.70531,28.41802],[79.69857,28.41496],[79.69049,28.4012],[79.67224,28.39122],[79.67421,28.38857],[79.68794,28.38437],[79.6866,28.37812],[79.6897,28.3747],[79.70087,28.37589],[79.70324,28.37245],[79.70282,28.36537],[79.70111,28.36141],[79.6977,28.35926],[79.6978,28.3509],[79.69324,28.34564],[79.69038,28.3389],[79.67433,28.31977],[79.67361,28.31689],[79.6787,28.30616],[79.68552,28.30267],[79.69132,28.29589],[79.71102,28.28648],[79.71132,28.27588],[79.71401,28.26769],[79.71213,28.26434],[79.69531,28.26336],[79.69249,28.27127],[79.68873,28.26974],[79.68834,28.26557],[79.68552,28.26303],[79.70228,28.24733],[79.70706,28.2408],[79.7056,28.23718],[79.70726,28.23425],[79.71286,28.232],[79.73127,28.23325],[79.73686,28.22917],[79.73815,28.22015],[79.72854,28.21881],[79.71662,28.2089],[79.71474,28.20497],[79.71627,28.19994],[79.71972,28.19773],[79.7253,28.19888],[79.73492,28.19566],[79.72795,28.18598],[79.72219,28.18421],[79.7248,28.17953],[79.72971,28.17882],[79.73542,28.18242],[79.73919,28.18226],[79.74625,28.18493],[79.75169,28.18127],[79.75254,28.17757],[79.75839,28.173],[79.7738,28.16299],[79.78201,28.15977],[79.78541,28.16101],[79.79117,28.16857],[79.79382,28.16957],[79.80283,28.16847],[79.8119,28.1803],[79.81483,28.18853],[79.82069,28.19482],[79.82205,28.19948],[79.82035,28.20639],[79.81334,28.21987],[79.81117,28.22945],[79.81208,28.23885],[79.82657,28.23819],[79.83182,28.23934],[79.84475,28.23061],[79.84425,28.21998],[79.84076,28.20855],[79.85025,28.20041],[79.85813,28.2012],[79.86804,28.19594],[79.86427,28.18837],[79.87239,28.18652],[79.87543,28.18355],[79.87732,28.18406],[79.88013,28.18213],[79.88491,28.18222],[79.88777,28.17789],[79.88512,28.16654],[79.87624,28.15493],[79.88202,28.1534],[79.88109,28.15107],[79.86844,28.15586],[79.86601,28.15448],[79.86392,28.15131],[79.86343,28.14777],[79.86541,28.14629],[79.86316,28.13808],[79.87842,28.13006],[79.88243,28.1346],[79.8881,28.1375],[79.90093,28.14079],[79.90703,28.14011],[79.92178,28.12864],[79.93342,28.12441],[79.93762,28.11592],[79.94036,28.11511],[79.94608,28.11742],[79.95584,28.11683],[79.95858,28.11866],[79.9577,28.1269],[79.9654,28.14259],[79.96485,28.17227],[79.96252,28.18258],[79.95702,28.19134],[79.9588,28.21498],[79.95608,28.23248],[79.9563,28.24619],[79.95103,28.2674],[79.94773,28.2981],[79.94237,28.30601],[79.94222,28.31084],[79.9485,28.3225],[79.95777,28.33126],[79.98812,28.33597],[80.00825,28.34458],[80.0152,28.35822],[80.01476,28.36219],[80.05988,28.34781],[80.06631,28.33569],[80.07275,28.33211],[80.09076,28.36348],[80.09791,28.36401],[80.10177,28.35495],[80.10858,28.35139],[80.13319,28.35108],[80.14665,28.3466],[80.16088,28.33608],[80.17309,28.33964],[80.17851,28.33964],[80.18779,28.33407],[80.19537,28.335],[80.20248,28.3449],[80.20465,28.3449],[80.21284,28.34087],[80.22259,28.32402],[80.23991,28.31536],[80.24702,28.31427],[80.25445,28.31551],[80.26496,28.33098],[80.26574,28.34691],[80.26311,28.36485],[80.26512,28.36763],[80.28213,28.36506],[80.30579,28.34768],[80.32358,28.34722],[80.32837,28.34582],[80.33422,28.34044],[80.33611,28.33484],[80.34059,28.33237],[80.37041,28.33662],[80.37133,28.34539],[80.36962,28.34833],[80.36263,28.35275],[80.35883,28.3703],[80.35886,28.38327],[80.34855,28.40705],[80.34095,28.40938],[80.33785,28.41193],[80.32776,28.42527],[80.31283,28.43761],[80.30132,28.45329],[80.32429,28.481],[80.3416,28.4753],[80.35887,28.46109],[80.36321,28.46305],[80.3766,28.45978],[80.3921,28.47877],[80.40084,28.47801],[80.41121,28.48152],[80.41882,28.48064],[80.42282,28.49093],[80.42747,28.49362],[80.43374,28.50251],[80.43536,28.51085],[80.43442,28.51524],[80.42981,28.51791],[80.41729,28.52118],[80.40443,28.53742],[80.3959,28.55143],[80.38739,28.55897],[80.38371,28.57398],[80.37733,28.57835],[80.37544,28.5845],[80.37972,28.58827],[80.38115,28.59203],[80.37598,28.59488],[80.35943,28.59133],[80.35489,28.59259],[80.35009,28.60101],[80.33961,28.60928],[80.33136,28.61325],[80.32461,28.6148],[80.31221,28.61416],[80.30402,28.61645],[80.3021,28.62322],[80.30527,28.64102],[80.32588,28.6702],[80.32133,28.68133],[80.32275,28.68578],[80.322,28.69148],[80.31738,28.69989],[80.308,28.70473],[80.29901,28.70648],[80.29501,28.71083],[80.27813,28.70982],[80.27384,28.71214],[80.26699,28.72093],[80.2563,28.72943],[80.26354,28.73504],[80.26517,28.74358],[80.26104,28.75042],[80.25156,28.75743],[80.24157,28.75621],[80.23359,28.75934],[80.21616,28.75543],[80.17104,28.78241],[80.13857,28.81391],[80.11822,28.82885],[80.07509,28.82441],[80.07107,28.82946],[80.04628,28.8037],[80.04416,28.79736],[80.03786,28.79372],[80.0484,28.7846],[80.05261,28.77699],[80.04695,28.76343],[80.04557,28.75525],[80.04118,28.75194],[80.02571,28.73125],[80.01493,28.72082],[80.00031,28.71089],[79.97987,28.70948],[79.96493,28.71139],[79.94088,28.72002],[79.93961,28.723],[79.93444,28.72657],[79.93357,28.73886],[79.92224,28.75718],[79.92416,28.75881],[79.91977,28.76771],[79.9319,28.77603],[79.93674,28.77638],[79.94213,28.78329],[79.93547,28.78687],[79.9287,28.78606],[79.92668,28.78282],[79.92063,28.78243],[79.91997,28.77872],[79.9115,28.78141],[79.90959,28.77875],[79.90325,28.7785],[79.90001,28.78221],[79.88628,28.78648],[79.88503,28.79153],[79.87516,28.79411],[79.87443,28.79647],[79.87611,28.79891],[79.87258,28.80143],[79.87152,28.80461],[79.87494,28.80545],[79.88152,28.81234],[79.89788,28.80476],[79.9,28.80193],[79.9081,28.79935],[79.91765,28.80047],[79.9139,28.80413],[79.91266,28.80825],[79.91615,28.81503],[79.89512,28.8177],[79.89637,28.82011],[79.89393,28.82219],[79.89631,28.82721],[79.89215,28.8296],[79.89211,28.83198],[79.88489,28.83358],[79.88545,28.83057],[79.88363,28.83078],[79.88355,28.82909],[79.88178,28.83051],[79.88055,28.82688],[79.87905,28.82941],[79.87517,28.82878],[79.87624,28.83377],[79.87374,28.83599],[79.87258,28.83444],[79.86929,28.83595],[79.86643,28.8352],[79.86509,28.83676],[79.86097,28.82875],[79.86253,28.8274],[79.85653,28.82383],[79.85357,28.82503],[79.85434,28.82253],[79.84894,28.82065],[79.84892,28.81353],[79.85433,28.81039],[79.84838,28.80597],[79.85268,28.80592],[79.85231,28.80213],[79.85471,28.80202],[79.85277,28.79919],[79.85433,28.7976],[79.85039,28.7959],[79.84725,28.79721],[79.84807,28.80099],[79.8435,28.80052],[79.84017,28.79787],[79.84156,28.79659],[79.83989,28.79412],[79.83601,28.79517],[79.8289,28.7916],[79.8266,28.7951],[79.82498,28.79198],[79.82253,28.79233],[79.81698,28.79941],[79.81523,28.79796],[79.81701,28.7943],[79.8127,28.79519],[79.81067,28.79942],[79.81167,28.80446],[79.81722,28.81141],[79.82062,28.81],[79.82265,28.8041],[79.82568,28.80405],[79.8287,28.81268],[79.83334,28.81967],[79.83711,28.82211],[79.83555,28.82853],[79.83309,28.82855],[79.83016,28.82577],[79.82748,28.82707],[79.83084,28.83093],[79.82747,28.83665],[79.83424,28.83485],[79.83647,28.83679],[79.83679,28.8398],[79.83334,28.84547],[79.83235,28.85073],[79.8344,28.85173],[79.84264,28.84686],[79.84536,28.8475],[79.84986,28.85381],[79.85047,28.86045],[79.84667,28.8636],[79.84734,28.86977],[79.84154,28.87508],[79.83979,28.87336],[79.84025,28.86877],[79.83217,28.8698],[79.83246,28.87958],[79.82049,28.88406],[79.81752,28.88281],[79.81915,28.88217],[79.81707,28.88103],[79.81676,28.8788],[79.80207,28.88312],[79.79689,28.88089],[79.79298,28.8757],[79.79022,28.86834],[79.78847,28.86921],[79.78355,28.86779],[79.76932,28.87308],[79.76221,28.86718],[79.75141,28.86811],[79.75123,28.86613],[79.74826,28.86584],[79.746,28.8562],[79.74117,28.85458],[79.73889,28.85535],[79.73703,28.85291],[79.72684,28.85749],[79.72054,28.84232],[79.71565,28.84748],[79.71065,28.84772],[79.70549,28.83772],[79.69824,28.84001],[79.70026,28.84499],[79.69905,28.85011],[79.69389,28.85187],[79.68423,28.85127],[79.67785,28.85586],[79.67247,28.85472],[79.66402,28.85869],[79.66655,28.86221],[79.6566,28.86638],[79.65601,28.86467],[79.64804,28.86363],[79.6454,28.85963],[79.63624,28.86323],[79.63285,28.86072]]]}}]}